<?xml version="1.0" encoding="UTF-8"?>
<gpx xmlns="http://www.topografix.com/GPX/1/1" xmlns:gpxtpx="http://www.garmin.com/xmlschemas/TrackPointExtension/v1" xmlns:xsi="http://www.w3.org/2001/XMLSchema-instance" xsi:schemaLocation="http://www.topografix.com/GPX/1/1 http://www.topografix.com/GPX/1/1/gpx.xsd" version="1.1" creator="gpx.py -- https://github.com/tkrajina/gpxpy">
  <trk>
    <name>Sunday Night Run</name>
    <trkseg>
      <trkpt lat="35.65536966155511" lon="139.77333149349604">
        <ele>7.6320729199796915</ele>
        <time>2025-07-26T15:58:58Z</time>
      </trkpt>
      <trkpt lat="35.65552112321692" lon="139.77326092977933">
        <ele>6.954767405055463</ele>
        <time>2025-07-26T15:58:59Z</time>
      </trkpt>
      <trkpt lat="35.65553480489017" lon="139.7731334607826">
        <ele>5.726982626132667</ele>
        <time>2025-07-26T15:59:03Z</time>
      </trkpt>
      <trkpt lat="35.65560676141454" lon="139.77302938524429">
        <ele>2.9256521202623844</ele>
        <time>2025-07-26T15:59:07Z</time>
      </trkpt>
      <trkpt lat="35.65569215857055" lon="139.7729310689532">
        <ele>-0.992682515643537</ele>
        <time>2025-07-26T15:59:11Z</time>
      </trkpt>
      <trkpt lat="35.655771364550134" lon="139.7728273178699">
        <ele>-1.1513127349317074</ele>
        <time>2025-07-26T15:59:14Z</time>
      </trkpt>
      <trkpt lat="35.655791332132324" lon="139.7727055213518">
        <ele>5.5682808347046375</ele>
        <time>2025-07-26T15:59:18Z</time>
      </trkpt>
      <trkpt lat="35.65587050371301" lon="139.77277428130148">
        <ele>5.209172314964235</ele>
        <time>2025-07-26T15:59:25.001000Z</time>
      </trkpt>
      <trkpt lat="35.65589183831493" lon="139.77288319144117">
        <ele>6.82354143448174</ele>
        <time>2025-07-26T15:59:28.001000Z</time>
      </trkpt>
      <trkpt lat="35.65593438286572" lon="139.7730105965162">
        <ele>6.725420494563878</ele>
        <time>2025-07-26T15:59:33.001000Z</time>
      </trkpt>
      <trkpt lat="35.6560088291061" lon="139.7731006444756">
        <ele>6.0275388564914465</ele>
        <time>2025-07-26T15:59:37.001000Z</time>
      </trkpt>
      <trkpt lat="35.656046740840864" lon="139.7732172829281">
        <ele>4.646511184051633</ele>
        <time>2025-07-26T15:59:41.001000Z</time>
      </trkpt>
      <trkpt lat="35.656136512360476" lon="139.77327179968825">
        <ele>5.200226249173284</ele>
        <time>2025-07-26T15:59:45.001000Z</time>
      </trkpt>
      <trkpt lat="35.656174144672605" lon="139.77338415730273">
        <ele>6.03433795645833</ele>
        <time>2025-07-26T15:59:49.001000Z</time>
      </trkpt>
      <trkpt lat="35.65625303567625" lon="139.7734779254376">
        <ele>5.163873982615769</ele>
        <time>2025-07-26T15:59:53.001000Z</time>
      </trkpt>
      <trkpt lat="35.656337972914635" lon="139.7735261963203">
        <ele>6.4643660532310605</ele>
        <time>2025-07-26T15:59:57.002000Z</time>
      </trkpt>
      <trkpt lat="35.656417561411466" lon="139.77346268211014">
        <ele>6.98008222412318</ele>
        <time>2025-07-26T16:00:00.002000Z</time>
      </trkpt>
      <trkpt lat="35.656516054041056" lon="139.7733871177681">
        <ele>5.859726153314114</ele>
        <time>2025-07-26T16:00:04.002000Z</time>
      </trkpt>
      <trkpt lat="35.656601058168974" lon="139.77329851079395">
        <ele>6.482918017543852</ele>
        <time>2025-07-26T16:00:08.002000Z</time>
      </trkpt>
      <trkpt lat="35.656688073017634" lon="139.7732431171383">
        <ele>6.465142944827676</ele>
        <time>2025-07-26T16:00:12.002000Z</time>
      </trkpt>
      <trkpt lat="35.65677400183069" lon="139.77320863992443">
        <ele>5.529362807050347</ele>
        <time>2025-07-26T16:00:15.002000Z</time>
      </trkpt>
      <trkpt lat="35.65686217061093" lon="139.77314071538362">
        <ele>6.5396908186376095</ele>
        <time>2025-07-26T16:00:19.002000Z</time>
      </trkpt>
      <trkpt lat="35.65693898147678" lon="139.77305462657728">
        <ele>6.829893699847162</ele>
        <time>2025-07-26T16:00:23.002000Z</time>
      </trkpt>
      <trkpt lat="35.656988498954455" lon="139.77295446398261">
        <ele>6.323529239743948</ele>
        <time>2025-07-26T16:00:26.002000Z</time>
      </trkpt>
      <trkpt lat="35.65704941396098" lon="139.77286979519062">
        <ele>6.457985237240791</ele>
        <time>2025-07-26T16:00:30.003000Z</time>
      </trkpt>
      <trkpt lat="35.65709352096511" lon="139.77274434893937">
        <ele>5.8336496129632</ele>
        <time>2025-07-26T16:00:34.003000Z</time>
      </trkpt>
      <trkpt lat="35.65719906677373" lon="139.77271211347266">
        <ele>3.580354147590697</ele>
        <time>2025-07-26T16:00:38.003000Z</time>
      </trkpt>
      <trkpt lat="35.657295070288754" lon="139.77263192026723">
        <ele>6.202228307723999</ele>
        <time>2025-07-26T16:00:42.003000Z</time>
      </trkpt>
      <trkpt lat="35.65738485308832" lon="139.77253214339393">
        <ele>4.248009220696986</ele>
        <time>2025-07-26T16:00:47.003000Z</time>
      </trkpt>
      <trkpt lat="35.65745707868842" lon="139.77246205666606">
        <ele>4.002094443887472</ele>
        <time>2025-07-26T16:00:50.003000Z</time>
      </trkpt>
      <trkpt lat="35.65751718811473" lon="139.77233826729812">
        <ele>5.93391789495945</ele>
        <time>2025-07-26T16:00:54.003000Z</time>
      </trkpt>
      <trkpt lat="35.657607774315515" lon="139.7722765208783">
        <ele>4.806483810767531</ele>
        <time>2025-07-26T16:00:58.001000Z</time>
      </trkpt>
      <trkpt lat="35.657676423794555" lon="139.7721921526655">
        <ele>5.538599403575063</ele>
        <time>2025-07-26T16:01:02.001000Z</time>
      </trkpt>
      <trkpt lat="35.657763339927044" lon="139.7721284072939">
        <ele>7.785233245231211</ele>
        <time>2025-07-26T16:01:06.001000Z</time>
      </trkpt>
      <trkpt lat="35.65784179367643" lon="139.77206528118666">
        <ele>5.468866457231343</ele>
        <time>2025-07-26T16:01:09.001000Z</time>
      </trkpt>
      <trkpt lat="35.65794203466077" lon="139.77200660023396">
        <ele>10.082661115564406</ele>
        <time>2025-07-26T16:01:13.001000Z</time>
      </trkpt>
      <trkpt lat="35.65803218373524" lon="139.77196858051394">
        <ele>8.21250924654305</ele>
        <time>2025-07-26T16:01:16.001000Z</time>
      </trkpt>
      <trkpt lat="35.65812390450508" lon="139.77189665049255">
        <ele>8.892749840393662</ele>
        <time>2025-07-26T16:01:20.001000Z</time>
      </trkpt>
      <trkpt lat="35.65821637618759" lon="139.77181934815718">
        <ele>8.642156823538244</ele>
        <time>2025-07-26T16:01:24.001000Z</time>
      </trkpt>
      <trkpt lat="35.65828763770731" lon="139.77174075331524">
        <ele>6.272894560359418</ele>
        <time>2025-07-26T16:01:28.001000Z</time>
      </trkpt>
      <trkpt lat="35.65836845652446" lon="139.77167878665114">
        <ele>7.984089149162173</ele>
        <time>2025-07-26T16:01:32.001000Z</time>
      </trkpt>
      <trkpt lat="35.65840304635937" lon="139.77157596827755">
        <ele>8.323667981661856</ele>
        <time>2025-07-26T16:01:36.001000Z</time>
      </trkpt>
      <trkpt lat="35.65849705101262" lon="139.77162645940706">
        <ele>7.9746528984978795</ele>
        <time>2025-07-26T16:01:40.001000Z</time>
      </trkpt>
      <trkpt lat="35.65856737644634" lon="139.7717293321617">
        <ele>6.12111951969564</ele>
        <time>2025-07-26T16:01:44.001000Z</time>
      </trkpt>
      <trkpt lat="35.65855326780855" lon="139.77188135520902">
        <ele>8.126060614362359</ele>
        <time>2025-07-26T16:01:47.001000Z</time>
      </trkpt>
      <trkpt lat="35.658548328518414" lon="139.77204221755278">
        <ele>7.146197581663728</ele>
        <time>2025-07-26T16:01:51.001000Z</time>
      </trkpt>
      <trkpt lat="35.65857267464465" lon="139.77216382473617">
        <ele>5.912870603613555</ele>
        <time>2025-07-26T16:01:55.001000Z</time>
      </trkpt>
      <trkpt lat="35.65863292149529" lon="139.77225186416842">
        <ele>5.931200381368399</ele>
        <time>2025-07-26T16:01:59.001000Z</time>
      </trkpt>
      <trkpt lat="35.658713991897336" lon="139.77232719247584">
        <ele>5.688045390881598</ele>
        <time>2025-07-26T16:02:04.001000Z</time>
      </trkpt>
      <trkpt lat="35.65877340483076" lon="139.77242455874347">
        <ele>4.540613959543407</ele>
        <time>2025-07-26T16:02:08.001000Z</time>
      </trkpt>
      <trkpt lat="35.65881151183258" lon="139.77253777276985">
        <ele>5.509166776202619</ele>
        <time>2025-07-26T16:02:11.001000Z</time>
      </trkpt>
      <trkpt lat="35.658892618487535" lon="139.77262818842772">
        <ele>4.922727711498737</ele>
        <time>2025-07-26T16:02:15.001000Z</time>
      </trkpt>
      <trkpt lat="35.658953161898665" lon="139.77274366682144">
        <ele>6.142539313994348</ele>
        <time>2025-07-26T16:02:18.001000Z</time>
      </trkpt>
      <trkpt lat="35.65901729915876" lon="139.77282872165978">
        <ele>3.9241071734577417</ele>
        <time>2025-07-26T16:02:21.001000Z</time>
      </trkpt>
      <trkpt lat="35.659061721875084" lon="139.77295819257554">
        <ele>5.623404141515493</ele>
        <time>2025-07-26T16:02:26.001000Z</time>
      </trkpt>
      <trkpt lat="35.65911887780139" lon="139.7730480790507">
        <ele>5.803319982253015</ele>
        <time>2025-07-26T16:02:30.002000Z</time>
      </trkpt>
      <trkpt lat="35.65920190376172" lon="139.77314321090415">
        <ele>4.366247556172311</ele>
        <time>2025-07-26T16:02:34.002000Z</time>
      </trkpt>
      <trkpt lat="35.65926247956654" lon="139.77323675096216">
        <ele>5.159889259375632</ele>
        <time>2025-07-26T16:02:38.002000Z</time>
      </trkpt>
      <trkpt lat="35.65933882729017" lon="139.77333003628095">
        <ele>6.066935784183443</ele>
        <time>2025-07-26T16:02:42.002000Z</time>
      </trkpt>
      <trkpt lat="35.65940127597828" lon="139.77342668135148">
        <ele>6.0489980885759</ele>
        <time>2025-07-26T16:02:46.002000Z</time>
      </trkpt>
      <trkpt lat="35.65945507125677" lon="139.77351860590682">
        <ele>6.965701946988702</ele>
        <time>2025-07-26T16:02:50.002000Z</time>
      </trkpt>
      <trkpt lat="35.6595135669396" lon="139.77360856086378">
        <ele>4.259369659237564</ele>
        <time>2025-07-26T16:02:53.002000Z</time>
      </trkpt>
      <trkpt lat="35.65961195532438" lon="139.77368582788725">
        <ele>4.375108094885945</ele>
        <time>2025-07-26T16:02:57.002000Z</time>
      </trkpt>
      <trkpt lat="35.65968670629856" lon="139.77376717897923">
        <ele>5.395681723020971</ele>
        <time>2025-07-26T16:03:00.002000Z</time>
      </trkpt>
      <trkpt lat="35.6597950801713" lon="139.77381638838324">
        <ele>5.677591539919376</ele>
        <time>2025-07-26T16:03:04.001000Z</time>
      </trkpt>
      <trkpt lat="35.659856964713576" lon="139.77393160785087">
        <ele>4.971127446740866</ele>
        <time>2025-07-26T16:03:08.001000Z</time>
      </trkpt>
      <trkpt lat="35.65992166775389" lon="139.774035356201">
        <ele>5.581982548348606</ele>
        <time>2025-07-26T16:03:12.001000Z</time>
      </trkpt>
      <trkpt lat="35.659980481634356" lon="139.7741628313828">
        <ele>5.814533879049122</ele>
        <time>2025-07-26T16:03:16.001000Z</time>
      </trkpt>
      <trkpt lat="35.66000290254343" lon="139.77428376825878">
        <ele>5.613029734231532</ele>
        <time>2025-07-26T16:03:20Z</time>
      </trkpt>
      <trkpt lat="35.659988164433855" lon="139.7743978303068">
        <ele>6.172907047905028</ele>
        <time>2025-07-26T16:03:23Z</time>
      </trkpt>
      <trkpt lat="35.66024937128858" lon="139.77464801724346">
        <ele>5.3089489517733455</ele>
        <time>2025-07-26T16:09:57.001000Z</time>
      </trkpt>
      <trkpt lat="35.660286952227054" lon="139.77474934423054">
        <ele>3.7167917555198073</ele>
        <time>2025-07-26T16:10:02.001000Z</time>
      </trkpt>
      <trkpt lat="35.66026470824199" lon="139.7748603427896">
        <ele>4.247452535666525</ele>
        <time>2025-07-26T16:10:06.001000Z</time>
      </trkpt>
      <trkpt lat="35.660175750644925" lon="139.77492903416197">
        <ele>4.19654140714556</ele>
        <time>2025-07-26T16:10:10.001000Z</time>
      </trkpt>
      <trkpt lat="35.66009312340282" lon="139.77501788219254">
        <ele>5.1002035066485405</ele>
        <time>2025-07-26T16:10:14.001000Z</time>
      </trkpt>
      <trkpt lat="35.66003138600328" lon="139.77512600998273">
        <ele>5.221987937577069</ele>
        <time>2025-07-26T16:10:18.001000Z</time>
      </trkpt>
      <trkpt lat="35.659981984180384" lon="139.77525331301254">
        <ele>5.684262601658702</ele>
        <time>2025-07-26T16:10:22.001000Z</time>
      </trkpt>
      <trkpt lat="35.66005225635981" lon="139.77535555191525">
        <ele>4.629708379507065</ele>
        <time>2025-07-26T16:10:26.001000Z</time>
      </trkpt>
      <trkpt lat="35.66009992450039" lon="139.77546376833592">
        <ele>5.226020217873156</ele>
        <time>2025-07-26T16:10:30.001000Z</time>
      </trkpt>
      <trkpt lat="35.66017407929556" lon="139.77555001094325">
        <ele>6.616481699049473</ele>
        <time>2025-07-26T16:10:34.001000Z</time>
      </trkpt>
      <trkpt lat="35.660232141715454" lon="139.7756672327942">
        <ele>5.6124544851481915</ele>
        <time>2025-07-26T16:10:40.001000Z</time>
      </trkpt>
      <trkpt lat="35.66029571439615" lon="139.77575400972745">
        <ele>5.957136055454612</ele>
        <time>2025-07-26T16:10:45.002000Z</time>
      </trkpt>
      <trkpt lat="35.6603816988994" lon="139.7758481271587">
        <ele>4.089332910254598</ele>
        <time>2025-07-26T16:10:50Z</time>
      </trkpt>
      <trkpt lat="35.66045852886859" lon="139.77594309286826">
        <ele>4.17253299895674</ele>
        <time>2025-07-26T16:10:55Z</time>
      </trkpt>
      <trkpt lat="35.660499423192114" lon="139.77604838353537">
        <ele>3.6681136582046747</ele>
        <time>2025-07-26T16:10:59Z</time>
      </trkpt>
      <trkpt lat="35.66058974146421" lon="139.77609319540773">
        <ele>3.9219801602885127</ele>
        <time>2025-07-26T16:11:03Z</time>
      </trkpt>
      <trkpt lat="35.66067304528361" lon="139.77604793954953">
        <ele>3.7251855302602053</ele>
        <time>2025-07-26T16:11:07Z</time>
      </trkpt>
      <trkpt lat="35.66074350514958" lon="139.7759761889243">
        <ele>5.520830716006458</ele>
        <time>2025-07-26T16:11:12Z</time>
      </trkpt>
      <trkpt lat="35.6608208888657" lon="139.7759119913103">
        <ele>4.870826563797891</ele>
        <time>2025-07-26T16:11:17Z</time>
      </trkpt>
      <trkpt lat="35.66089055522097" lon="139.77584068693685">
        <ele>4.604139152914286</ele>
        <time>2025-07-26T16:11:22Z</time>
      </trkpt>
      <trkpt lat="35.66097994949378" lon="139.7757826314592">
        <ele>3.7095203744247556</ele>
        <time>2025-07-26T16:11:27Z</time>
      </trkpt>
      <trkpt lat="35.66107143185548" lon="139.77571680078552">
        <ele>4.085529854521155</ele>
        <time>2025-07-26T16:11:31.001000Z</time>
      </trkpt>
      <trkpt lat="35.6611704443116" lon="139.77567705196014">
        <ele>5.188090305775404</ele>
        <time>2025-07-26T16:11:34.001000Z</time>
      </trkpt>
      <trkpt lat="35.66126884858056" lon="139.77562346666923">
        <ele>6.110494724474847</ele>
        <time>2025-07-26T16:11:38.001000Z</time>
      </trkpt>
      <trkpt lat="35.66134467933265" lon="139.77555539629432">
        <ele>5.639355193823576</ele>
        <time>2025-07-26T16:11:41.001000Z</time>
      </trkpt>
      <trkpt lat="35.661431489670285" lon="139.77548766982068">
        <ele>7.998168320395052</ele>
        <time>2025-07-26T16:11:45.001000Z</time>
      </trkpt>
      <trkpt lat="35.66151812905203" lon="139.77540711070452">
        <ele>7.074399734847248</ele>
        <time>2025-07-26T16:11:49.001000Z</time>
      </trkpt>
      <trkpt lat="35.66160965184432" lon="139.7753403354681">
        <ele>7.846005049534142</ele>
        <time>2025-07-26T16:11:53.001000Z</time>
      </trkpt>
      <trkpt lat="35.661701958379794" lon="139.77526901786558">
        <ele>7.91514309681952</ele>
        <time>2025-07-26T16:11:57.001000Z</time>
      </trkpt>
      <trkpt lat="35.66179049464317" lon="139.77518896209932">
        <ele>9.375782444141805</ele>
        <time>2025-07-26T16:12:01.001000Z</time>
      </trkpt>
      <trkpt lat="35.66187919030745" lon="139.77512664295458">
        <ele>7.838243618607521</ele>
        <time>2025-07-26T16:12:05.001000Z</time>
      </trkpt>
      <trkpt lat="35.66195277706531" lon="139.77504596613807">
        <ele>7.875714102759957</ele>
        <time>2025-07-26T16:12:09.001000Z</time>
      </trkpt>
      <trkpt lat="35.66203339297938" lon="139.77498303602147">
        <ele>7.812709018588066</ele>
        <time>2025-07-26T16:12:13.001000Z</time>
      </trkpt>
      <trkpt lat="35.66211360183579" lon="139.77489376849624">
        <ele>7.890452820807695</ele>
        <time>2025-07-26T16:12:17.001000Z</time>
      </trkpt>
      <trkpt lat="35.662217421173615" lon="139.774819351871">
        <ele>8.464331088587642</ele>
        <time>2025-07-26T16:12:21.001000Z</time>
      </trkpt>
      <trkpt lat="35.66230413668089" lon="139.77473425942753">
        <ele>8.341716305352747</ele>
        <time>2025-07-26T16:12:25.001000Z</time>
      </trkpt>
      <trkpt lat="35.662390983992715" lon="139.77464982987794">
        <ele>8.63722052052617</ele>
        <time>2025-07-26T16:12:29.001000Z</time>
      </trkpt>
      <trkpt lat="35.66244222970204" lon="139.77454796078962">
        <ele>7.7847384279593825</ele>
        <time>2025-07-26T16:12:33.001000Z</time>
      </trkpt>
      <trkpt lat="35.66253181262486" lon="139.77451164055623">
        <ele>8.595434519462287</ele>
        <time>2025-07-26T16:12:36.001000Z</time>
      </trkpt>
      <trkpt lat="35.662611842689934" lon="139.77444185520255">
        <ele>6.8562673749402165</ele>
        <time>2025-07-26T16:12:39.001000Z</time>
      </trkpt>
      <trkpt lat="35.66269585425244" lon="139.7743692880533">
        <ele>7.3333411468192935</ele>
        <time>2025-07-26T16:12:43.001000Z</time>
      </trkpt>
      <trkpt lat="35.66278339770313" lon="139.7742844032284">
        <ele>7.137668961659074</ele>
        <time>2025-07-26T16:12:47.001000Z</time>
      </trkpt>
      <trkpt lat="35.662872411694245" lon="139.77419878287336">
        <ele>6.775880626402795</ele>
        <time>2025-07-26T16:12:51.002000Z</time>
      </trkpt>
      <trkpt lat="35.66295406232719" lon="139.77412512871206">
        <ele>7.544781981036067</ele>
        <time>2025-07-26T16:12:54Z</time>
      </trkpt>
      <trkpt lat="35.6630505251029" lon="139.77405048270427">
        <ele>6.105058779940009</ele>
        <time>2025-07-26T16:12:58Z</time>
      </trkpt>
      <trkpt lat="35.66313493459532" lon="139.77397280083525">
        <ele>6.908177665434778</ele>
        <time>2025-07-26T16:13:02Z</time>
      </trkpt>
      <trkpt lat="35.66320056566062" lon="139.7738950598239">
        <ele>6.031598816625774</ele>
        <time>2025-07-26T16:13:05Z</time>
      </trkpt>
      <trkpt lat="35.663243225062246" lon="139.7737825456467">
        <ele>6.942867195233703</ele>
        <time>2025-07-26T16:13:08Z</time>
      </trkpt>
      <trkpt lat="35.66333171877639" lon="139.7737081341345">
        <ele>6.891353423707187</ele>
        <time>2025-07-26T16:13:12Z</time>
      </trkpt>
      <trkpt lat="35.663421896049265" lon="139.77363265608875">
        <ele>6.287000531330705</ele>
        <time>2025-07-26T16:13:16Z</time>
      </trkpt>
      <trkpt lat="35.66349389666036" lon="139.7735550718485">
        <ele>6.350566524080932</ele>
        <time>2025-07-26T16:13:19Z</time>
      </trkpt>
      <trkpt lat="35.663570674403225" lon="139.7734817849968">
        <ele>6.0328119695186615</ele>
        <time>2025-07-26T16:13:23Z</time>
      </trkpt>
      <trkpt lat="35.66365328227073" lon="139.7733928979944">
        <ele>7.3835699232295156</ele>
        <time>2025-07-26T16:13:27Z</time>
      </trkpt>
      <trkpt lat="35.66373816567093" lon="139.77332589617333">
        <ele>5.550315921194851</ele>
        <time>2025-07-26T16:13:31Z</time>
      </trkpt>
      <trkpt lat="35.663839337440244" lon="139.77323902006225">
        <ele>6.920464877039194</ele>
        <time>2025-07-26T16:13:35Z</time>
      </trkpt>
      <trkpt lat="35.6639146191473" lon="139.77316367057216">
        <ele>7.701924209482968</ele>
        <time>2025-07-26T16:13:39Z</time>
      </trkpt>
      <trkpt lat="35.66399462801629" lon="139.77306681269656">
        <ele>7.364245787262917</ele>
        <time>2025-07-26T16:13:43Z</time>
      </trkpt>
      <trkpt lat="35.66407457797302" lon="139.77298699172678">
        <ele>7.864320604130626</ele>
        <time>2025-07-26T16:13:47.001000Z</time>
      </trkpt>
      <trkpt lat="35.66414669150421" lon="139.77290078687778">
        <ele>6.805270178243518</ele>
        <time>2025-07-26T16:13:51.001000Z</time>
      </trkpt>
      <trkpt lat="35.66422785985843" lon="139.77284699870964">
        <ele>6.919387965463102</ele>
        <time>2025-07-26T16:13:54.001000Z</time>
      </trkpt>
      <trkpt lat="35.66430687303302" lon="139.77274567768504">
        <ele>7.7470005210489035</ele>
        <time>2025-07-26T16:13:58.001000Z</time>
      </trkpt>
      <trkpt lat="35.664381079051395" lon="139.7726824757487">
        <ele>6.607173005118966</ele>
        <time>2025-07-26T16:14:01.001000Z</time>
      </trkpt>
      <trkpt lat="35.664451504560844" lon="139.77259299600286">
        <ele>6.933849989436567</ele>
        <time>2025-07-26T16:14:05.001000Z</time>
      </trkpt>
      <trkpt lat="35.664517145081064" lon="139.77249915199357">
        <ele>7.683079023845494</ele>
        <time>2025-07-26T16:14:08.001000Z</time>
      </trkpt>
      <trkpt lat="35.664597444820075" lon="139.77244100798998">
        <ele>6.689762738533318</ele>
        <time>2025-07-26T16:14:12.001000Z</time>
      </trkpt>
      <trkpt lat="35.664677062832595" lon="139.7723579148064">
        <ele>6.250244494527578</ele>
        <time>2025-07-26T16:14:16.001000Z</time>
      </trkpt>
      <trkpt lat="35.664726840202896" lon="139.77224869258188">
        <ele>6.722271474078298</ele>
        <time>2025-07-26T16:14:20.001000Z</time>
      </trkpt>
      <trkpt lat="35.66483077393602" lon="139.77219509808333">
        <ele>6.074033262208104</ele>
        <time>2025-07-26T16:14:23.001000Z</time>
      </trkpt>
      <trkpt lat="35.66488955230196" lon="139.7720824936216">
        <ele>6.24477175809443</ele>
        <time>2025-07-26T16:14:26.001000Z</time>
      </trkpt>
      <trkpt lat="35.664972289606744" lon="139.77200414919244">
        <ele>7.3786637876182795</ele>
        <time>2025-07-26T16:14:30.001000Z</time>
      </trkpt>
      <trkpt lat="35.66506140118869" lon="139.7719556559726">
        <ele>7.0330225406214595</ele>
        <time>2025-07-26T16:14:33.001000Z</time>
      </trkpt>
      <trkpt lat="35.665155881379455" lon="139.77188111309903">
        <ele>6.834620629437268</ele>
        <time>2025-07-26T16:14:37.001000Z</time>
      </trkpt>
      <trkpt lat="35.66521244455695" lon="139.77178647226359">
        <ele>7.3620927250012755</ele>
        <time>2025-07-26T16:14:41.001000Z</time>
      </trkpt>
      <trkpt lat="35.66527105380548" lon="139.77169404480827">
        <ele>7.314826864749193</ele>
        <time>2025-07-26T16:14:44.001000Z</time>
      </trkpt>
      <trkpt lat="35.6653524572892" lon="139.77160521925228">
        <ele>8.288194396533072</ele>
        <time>2025-07-26T16:14:49.001000Z</time>
      </trkpt>
      <trkpt lat="35.66541941190942" lon="139.7715295428398">
        <ele>7.673852468840778</ele>
        <time>2025-07-26T16:14:53.001000Z</time>
      </trkpt>
      <trkpt lat="35.6654868601399" lon="139.77144053545305">
        <ele>6.850234245881438</ele>
        <time>2025-07-26T16:14:58Z</time>
      </trkpt>
      <trkpt lat="35.66555290443633" lon="139.77133354998267">
        <ele>6.292378571815789</ele>
        <time>2025-07-26T16:15:03Z</time>
      </trkpt>
      <trkpt lat="35.66564310286064" lon="139.7712508743532">
        <ele>6.088456219062209</ele>
        <time>2025-07-26T16:15:07Z</time>
      </trkpt>
      <trkpt lat="35.66571829988133" lon="139.7711753438927">
        <ele>6.154421482235193</ele>
        <time>2025-07-26T16:15:10Z</time>
      </trkpt>
      <trkpt lat="35.66578547055127" lon="139.7710863567949">
        <ele>6.446948342956603</ele>
        <time>2025-07-26T16:15:14Z</time>
      </trkpt>
      <trkpt lat="35.66589201429856" lon="139.77103801211575">
        <ele>7.256515683606267</ele>
        <time>2025-07-26T16:15:17Z</time>
      </trkpt>
      <trkpt lat="35.665979683531376" lon="139.771002859269">
        <ele>5.574424265883863</ele>
        <time>2025-07-26T16:15:20Z</time>
      </trkpt>
      <trkpt lat="35.6660470268598" lon="139.77092295662905">
        <ele>5.198811449110508</ele>
        <time>2025-07-26T16:15:23Z</time>
      </trkpt>
      <trkpt lat="35.666144172478894" lon="139.77084493087708">
        <ele>5.2570986691862345</ele>
        <time>2025-07-26T16:15:27Z</time>
      </trkpt>
      <trkpt lat="35.66625153571203" lon="139.7707841684545">
        <ele>5.152605245821178</ele>
        <time>2025-07-26T16:15:31Z</time>
      </trkpt>
      <trkpt lat="35.66630802166957" lon="139.77068522307258">
        <ele>6.118311201222241</ele>
        <time>2025-07-26T16:15:35Z</time>
      </trkpt>
      <trkpt lat="35.66640748618733" lon="139.77069545254997">
        <ele>5.934612896293402</ele>
        <time>2025-07-26T16:15:41Z</time>
      </trkpt>
      <trkpt lat="35.666483428767826" lon="139.77080042731933">
        <ele>5.87916305474937</ele>
        <time>2025-07-26T16:15:45Z</time>
      </trkpt>
      <trkpt lat="35.66663836315673" lon="139.77089063774233">
        <ele>5.804346775636077</ele>
        <time>2025-07-26T16:16:27.001000Z</time>
      </trkpt>
      <trkpt lat="35.666703179953686" lon="139.7707936549618">
        <ele>5.946380299516022</ele>
        <time>2025-07-26T16:16:31.001000Z</time>
      </trkpt>
      <trkpt lat="35.6667841377741" lon="139.77073880488177">
        <ele>6.469203579239547</ele>
        <time>2025-07-26T16:16:33.001000Z</time>
      </trkpt>
      <trkpt lat="35.66681716288127" lon="139.7706255474154">
        <ele>6.172089213505387</ele>
        <time>2025-07-26T16:16:37.001000Z</time>
      </trkpt>
      <trkpt lat="35.66688023855953" lon="139.77053938042297">
        <ele>6.041990744881332</ele>
        <time>2025-07-26T16:16:41.001000Z</time>
      </trkpt>
      <trkpt lat="35.66697136205505" lon="139.77048701397425">
        <ele>6.037542589008808</ele>
        <time>2025-07-26T16:16:45.001000Z</time>
      </trkpt>
      <trkpt lat="35.66706867101418" lon="139.77042929812367">
        <ele>4.992708628065884</ele>
        <time>2025-07-26T16:16:49.001000Z</time>
      </trkpt>
      <trkpt lat="35.66709241105306" lon="139.77030571306514">
        <ele>4.635819407179952</ele>
        <time>2025-07-26T16:16:51.001000Z</time>
      </trkpt>
      <trkpt lat="35.66715609826396" lon="139.77018799492294">
        <ele>4.951598390005529</ele>
        <time>2025-07-26T16:16:55.001000Z</time>
      </trkpt>
      <trkpt lat="35.667225686896835" lon="139.77008178620713">
        <ele>5.527664658613503</ele>
        <time>2025-07-26T16:16:59.001000Z</time>
      </trkpt>
      <trkpt lat="35.66731318437462" lon="139.7700171527628">
        <ele>5.401559575460851</ele>
        <time>2025-07-26T16:17:04Z</time>
      </trkpt>
      <trkpt lat="35.667384913941895" lon="139.7699211134967">
        <ele>4.003449211828411</ele>
        <time>2025-07-26T16:17:09Z</time>
      </trkpt>
      <trkpt lat="35.667449765818176" lon="139.76981745354377">
        <ele>3.5477776555344462</ele>
        <time>2025-07-26T16:17:14Z</time>
      </trkpt>
      <trkpt lat="35.667517062973765" lon="139.769732081859">
        <ele>4.237689130008221</ele>
        <time>2025-07-26T16:17:19Z</time>
      </trkpt>
      <trkpt lat="35.667590370553214" lon="139.76964937151047">
        <ele>3.4765587728470564</ele>
        <time>2025-07-26T16:17:24Z</time>
      </trkpt>
      <trkpt lat="35.667675594114215" lon="139.7695825452972">
        <ele>3.277318730019033</ele>
        <time>2025-07-26T16:17:28Z</time>
      </trkpt>
      <trkpt lat="35.6677545910132" lon="139.7695007725682">
        <ele>3.5577870551496744</ele>
        <time>2025-07-26T16:17:32Z</time>
      </trkpt>
      <trkpt lat="35.66782525545309" lon="139.7693861550426">
        <ele>4.267157948575914</ele>
        <time>2025-07-26T16:17:37Z</time>
      </trkpt>
      <trkpt lat="35.667876432448324" lon="139.76928412550012">
        <ele>4.0087846275419</ele>
        <time>2025-07-26T16:17:41Z</time>
      </trkpt>
      <trkpt lat="35.66793095709923" lon="139.7691916936791">
        <ele>4.507946329191327</ele>
        <time>2025-07-26T16:17:45Z</time>
      </trkpt>
      <trkpt lat="35.66801227667019" lon="139.76911248180684">
        <ele>3.7138968827202916</ele>
        <time>2025-07-26T16:17:49Z</time>
      </trkpt>
      <trkpt lat="35.66810431716101" lon="139.7690314064053">
        <ele>3.513680063188076</ele>
        <time>2025-07-26T16:17:54Z</time>
      </trkpt>
      <trkpt lat="35.668179287566296" lon="139.76894656216155">
        <ele>2.972607210278511</ele>
        <time>2025-07-26T16:17:59Z</time>
      </trkpt>
      <trkpt lat="35.66824603650876" lon="139.76886420426786">
        <ele>3.881581114605069</ele>
        <time>2025-07-26T16:18:02Z</time>
      </trkpt>
      <trkpt lat="35.66832021071898" lon="139.76877718128353">
        <ele>4.541454069316387</ele>
        <time>2025-07-26T16:18:05.001000Z</time>
      </trkpt>
      <trkpt lat="35.66840541186449" lon="139.76868528199446">
        <ele>5.705659186467528</ele>
        <time>2025-07-26T16:18:09.001000Z</time>
      </trkpt>
      <trkpt lat="35.66847889678906" lon="139.7685919768444">
        <ele>5.571177337318659</ele>
        <time>2025-07-26T16:18:13.001000Z</time>
      </trkpt>
      <trkpt lat="35.66856498783226" lon="139.76849985857137">
        <ele>4.720509910956025</ele>
        <time>2025-07-26T16:18:18.001000Z</time>
      </trkpt>
      <trkpt lat="35.66863284912873" lon="139.76842386660263">
        <ele>4.447159546427429</ele>
        <time>2025-07-26T16:18:22.001000Z</time>
      </trkpt>
      <trkpt lat="35.66870263922843" lon="139.76834382386613">
        <ele>4.585213037207723</ele>
        <time>2025-07-26T16:18:27.001000Z</time>
      </trkpt>
      <trkpt lat="35.66878243875488" lon="139.7682921721685">
        <ele>3.8905340684577823</ele>
        <time>2025-07-26T16:18:32.001000Z</time>
      </trkpt>
      <trkpt lat="35.66883841637054" lon="139.76818056511232">
        <ele>3.6424179319292307</ele>
        <time>2025-07-26T16:18:37.001000Z</time>
      </trkpt>
      <trkpt lat="35.66890655065746" lon="139.76808434085459">
        <ele>3.512908427976072</ele>
        <time>2025-07-26T16:18:41.001000Z</time>
      </trkpt>
      <trkpt lat="35.66899262392698" lon="139.76799184888685">
        <ele>3.2498627807945013</ele>
        <time>2025-07-26T16:18:46.001000Z</time>
      </trkpt>
      <trkpt lat="35.66902668600822" lon="139.76788591222635">
        <ele>3.3250888576731086</ele>
        <time>2025-07-26T16:18:50.001000Z</time>
      </trkpt>
      <trkpt lat="35.66909000388026" lon="139.7678022108842">
        <ele>3.0786478025838733</ele>
        <time>2025-07-26T16:18:54.001000Z</time>
      </trkpt>
      <trkpt lat="35.66915156235918" lon="139.76771994238607">
        <ele>3.7233899915590882</ele>
        <time>2025-07-26T16:18:58.001000Z</time>
      </trkpt>
      <trkpt lat="35.66920305577685" lon="139.76762731181938">
        <ele>3.071111196652055</ele>
        <time>2025-07-26T16:19:01.001000Z</time>
      </trkpt>
      <trkpt lat="35.669272093870724" lon="139.76753480784976">
        <ele>4.193440699018538</ele>
        <time>2025-07-26T16:19:04.001000Z</time>
      </trkpt>
      <trkpt lat="35.66936778991556" lon="139.7674789313683">
        <ele>4.545790554955602</ele>
        <time>2025-07-26T16:19:07.001000Z</time>
      </trkpt>
      <trkpt lat="35.66945340996307" lon="139.76739587197517">
        <ele>4.700147342868149</ele>
        <time>2025-07-26T16:19:09.998000Z</time>
      </trkpt>
      <trkpt lat="35.66970505894609" lon="139.76729414047432">
        <ele>6.21402134001255</ele>
        <time>2025-07-26T16:20:33.001000Z</time>
      </trkpt>
      <trkpt lat="35.66978798529453" lon="139.76721986864897">
        <ele>7.145226371474564</ele>
        <time>2025-07-26T16:20:37.001000Z</time>
      </trkpt>
      <trkpt lat="35.66988047703088" lon="139.7671549291001">
        <ele>7.590460769832134</ele>
        <time>2025-07-26T16:20:41.001000Z</time>
      </trkpt>
      <trkpt lat="35.669945290839586" lon="139.76703437312375">
        <ele>7.06820522621274</ele>
        <time>2025-07-26T16:20:45.001000Z</time>
      </trkpt>
      <trkpt lat="35.669992861684676" lon="139.76691948556228">
        <ele>4.639479375444353</ele>
        <time>2025-07-26T16:20:50.001000Z</time>
      </trkpt>
      <trkpt lat="35.67006727789628" lon="139.76683493744738">
        <ele>5.251600430347025</ele>
        <time>2025-07-26T16:20:54.001000Z</time>
      </trkpt>
      <trkpt lat="35.670121583080466" lon="139.766744150726">
        <ele>5.60070416983217</ele>
        <time>2025-07-26T16:20:57.001000Z</time>
      </trkpt>
      <trkpt lat="35.670204279455696" lon="139.7666679291417">
        <ele>6.279118335805833</ele>
        <time>2025-07-26T16:21:01.001000Z</time>
      </trkpt>
      <trkpt lat="35.67025358544747" lon="139.76656165130365">
        <ele>5.823861924931407</ele>
        <time>2025-07-26T16:21:05.001000Z</time>
      </trkpt>
      <trkpt lat="35.670336033533744" lon="139.76649818542737">
        <ele>5.515186270698905</ele>
        <time>2025-07-26T16:21:08.001000Z</time>
      </trkpt>
      <trkpt lat="35.67040036220755" lon="139.76642004269092">
        <ele>5.674723596312106</ele>
        <time>2025-07-26T16:21:12.001000Z</time>
      </trkpt>
      <trkpt lat="35.6704872872017" lon="139.7663740943643">
        <ele>5.5927216140553355</ele>
        <time>2025-07-26T16:21:14.998000Z</time>
      </trkpt>
      <trkpt lat="35.67054525753864" lon="139.76627320347671">
        <ele>5.763880399055779</ele>
        <time>2025-07-26T16:21:18.998000Z</time>
      </trkpt>
      <trkpt lat="35.67058313136647" lon="139.76616869927554">
        <ele>6.100571896880865</ele>
        <time>2025-07-26T16:21:21.998000Z</time>
      </trkpt>
      <trkpt lat="35.67065248955964" lon="139.76608518152773">
        <ele>5.254211787134409</ele>
        <time>2025-07-26T16:21:24.998000Z</time>
      </trkpt>
      <trkpt lat="35.670730978932134" lon="139.7660142530516">
        <ele>6.591689293272793</ele>
        <time>2025-07-26T16:21:28.999000Z</time>
      </trkpt>
      <trkpt lat="35.67081581719906" lon="139.7659649261017">
        <ele>6.472863438539207</ele>
        <time>2025-07-26T16:21:31.999000Z</time>
      </trkpt>
      <trkpt lat="35.670877245463124" lon="139.7658490140697">
        <ele>5.868952079676092</ele>
        <time>2025-07-26T16:21:35.999000Z</time>
      </trkpt>
      <trkpt lat="35.670920888285885" lon="139.76572865047982">
        <ele>6.133392703719437</ele>
        <time>2025-07-26T16:21:39.999000Z</time>
      </trkpt>
      <trkpt lat="35.671000587974184" lon="139.7656176466805">
        <ele>6.031227870844305</ele>
        <time>2025-07-26T16:21:43.999000Z</time>
      </trkpt>
      <trkpt lat="35.67106143094985" lon="139.7655028752109">
        <ele>5.441964394412935</ele>
        <time>2025-07-26T16:21:50Z</time>
      </trkpt>
      <trkpt lat="35.6711512821361" lon="139.7654076422575">
        <ele>5.242843274958432</ele>
        <time>2025-07-26T16:21:54Z</time>
      </trkpt>
      <trkpt lat="35.671242030123864" lon="139.76536975939732">
        <ele>5.005640933290124</ele>
        <time>2025-07-26T16:21:58Z</time>
      </trkpt>
      <trkpt lat="35.67140030491334" lon="139.76522600610028">
        <ele>6.26181071344763</ele>
        <time>2025-07-26T16:22:32.001000Z</time>
      </trkpt>
      <trkpt lat="35.67148772499669" lon="139.76513165641416">
        <ele>6.080327323637903</ele>
        <time>2025-07-26T16:22:36.001000Z</time>
      </trkpt>
      <trkpt lat="35.67151366677343" lon="139.76500571160756">
        <ele>6.416128563694656</ele>
        <time>2025-07-26T16:22:39.001000Z</time>
      </trkpt>
      <trkpt lat="35.67154636981649" lon="139.76489189719163">
        <ele>5.866992239840329</ele>
        <time>2025-07-26T16:22:43.001000Z</time>
      </trkpt>
      <trkpt lat="35.671633228506494" lon="139.7648140672968">
        <ele>5.024373055435717</ele>
        <time>2025-07-26T16:22:46.001000Z</time>
      </trkpt>
      <trkpt lat="35.67168882967303" lon="139.76471821932552">
        <ele>5.562825099565089</ele>
        <time>2025-07-26T16:22:49.001000Z</time>
      </trkpt>
      <trkpt lat="35.67176528551219" lon="139.76464509088723">
        <ele>5.051536378450692</ele>
        <time>2025-07-26T16:22:52.001000Z</time>
      </trkpt>
      <trkpt lat="35.671849539967134" lon="139.7645842587757">
        <ele>4.951065794564784</ele>
        <time>2025-07-26T16:22:55.001000Z</time>
      </trkpt>
      <trkpt lat="35.6719238000935" lon="139.76449368406892">
        <ele>4.696579305455089</ele>
        <time>2025-07-26T16:22:59.001000Z</time>
      </trkpt>
      <trkpt lat="35.67200940572955" lon="139.76442891618714">
        <ele>4.9445760464295745</ele>
        <time>2025-07-26T16:23:03.001000Z</time>
      </trkpt>
      <trkpt lat="35.672053167094056" lon="139.76432004464442">
        <ele>5.352913622744381</ele>
        <time>2025-07-26T16:23:06.001000Z</time>
      </trkpt>
      <trkpt lat="35.67209834346494" lon="139.7642125644629">
        <ele>4.4217983251437545</ele>
        <time>2025-07-26T16:23:09.002000Z</time>
      </trkpt>
      <trkpt lat="35.67212925116534" lon="139.76410432583492">
        <ele>4.323705471120775</ele>
        <time>2025-07-26T16:23:12.002000Z</time>
      </trkpt>
      <trkpt lat="35.67219451801436" lon="139.76400590301327">
        <ele>4.7264085207134485</ele>
        <time>2025-07-26T16:23:16.002000Z</time>
      </trkpt>
      <trkpt lat="35.672271274142275" lon="139.76389751407672">
        <ele>5.704041199758649</ele>
        <time>2025-07-26T16:23:20.002000Z</time>
      </trkpt>
      <trkpt lat="35.67233574698194" lon="139.76379623984772">
        <ele>5.074350607581437</ele>
        <time>2025-07-26T16:23:22.999000Z</time>
      </trkpt>
      <trkpt lat="35.672429940095824" lon="139.76372571464725">
        <ele>5.744298173114657</ele>
        <time>2025-07-26T16:23:26.999000Z</time>
      </trkpt>
      <trkpt lat="35.67251912511072" lon="139.76367609908988">
        <ele>5.336863726377487</ele>
        <time>2025-07-26T16:23:29.999000Z</time>
      </trkpt>
      <trkpt lat="35.6725733513317" lon="139.76356824847105">
        <ele>5.700461084023118</ele>
        <time>2025-07-26T16:23:32.999000Z</time>
      </trkpt>
      <trkpt lat="35.67262466198586" lon="139.76346721279012">
        <ele>6.072030088864267</ele>
        <time>2025-07-26T16:23:36.999000Z</time>
      </trkpt>
      <trkpt lat="35.67270511728403" lon="139.7633679998356">
        <ele>6.0378668596968055</ele>
        <time>2025-07-26T16:23:42Z</time>
      </trkpt>
      <trkpt lat="35.67276463627073" lon="139.76327269697572">
        <ele>5.980856605805457</ele>
        <time>2025-07-26T16:23:45Z</time>
      </trkpt>
      <trkpt lat="35.67282698787122" lon="139.7631852519611">
        <ele>4.908761704340577</ele>
        <time>2025-07-26T16:23:48Z</time>
      </trkpt>
      <trkpt lat="35.67289152871561" lon="139.7630847203565">
        <ele>5.405941370874643</ele>
        <time>2025-07-26T16:23:52Z</time>
      </trkpt>
      <trkpt lat="35.67290755250415" lon="139.76295322283661">
        <ele>6.605950956232846</ele>
        <time>2025-07-26T16:23:56Z</time>
      </trkpt>
      <trkpt lat="35.67296944377963" lon="139.76286069004902">
        <ele>5.8589417254552245</ele>
        <time>2025-07-26T16:23:59Z</time>
      </trkpt>
      <trkpt lat="35.673048468302895" lon="139.76280573373654">
        <ele>5.713935329578817</ele>
        <time>2025-07-26T16:24:02Z</time>
      </trkpt>
      <trkpt lat="35.673128783776576" lon="139.76268758709512">
        <ele>0.1964125307276845</ele>
        <time>2025-07-26T16:24:08Z</time>
      </trkpt>
      <trkpt lat="35.67321060619224" lon="139.76256314933744">
        <ele>2.315025228075683</ele>
        <time>2025-07-26T16:24:12.001000Z</time>
      </trkpt>
      <trkpt lat="35.67331934769101" lon="139.76251334957396">
        <ele>3.374603102914989</ele>
        <time>2025-07-26T16:24:15.001000Z</time>
      </trkpt>
      <trkpt lat="35.67337919434909" lon="139.76240206338312">
        <ele>3.1067529590800405</ele>
        <time>2025-07-26T16:24:19.001000Z</time>
      </trkpt>
      <trkpt lat="35.673449016063664" lon="139.76231734524194">
        <ele>4.312395042739809</ele>
        <time>2025-07-26T16:24:23.001000Z</time>
      </trkpt>
      <trkpt lat="35.67349751332415" lon="139.76219949357514">
        <ele>4.615307767875493</ele>
        <time>2025-07-26T16:24:27.001000Z</time>
      </trkpt>
      <trkpt lat="35.673533025304415" lon="139.76209052729797">
        <ele>5.12448987364769</ele>
        <time>2025-07-26T16:24:30.001000Z</time>
      </trkpt>
      <trkpt lat="35.67358219044689" lon="139.76196662774137">
        <ele>5.485522582195699</ele>
        <time>2025-07-26T16:24:34.001000Z</time>
      </trkpt>
      <trkpt lat="35.67363567542831" lon="139.761859091965">
        <ele>6.012349385768175</ele>
        <time>2025-07-26T16:24:38.001000Z</time>
      </trkpt>
      <trkpt lat="35.6736890555833" lon="139.76175166069388">
        <ele>4.983065312728286</ele>
        <time>2025-07-26T16:24:42.001000Z</time>
      </trkpt>
      <trkpt lat="35.67376548399695" lon="139.76165579261703">
        <ele>8.408531152643263</ele>
        <time>2025-07-26T16:24:46.001000Z</time>
      </trkpt>
      <trkpt lat="35.67386485854175" lon="139.7615658569346">
        <ele>6.238299882039428</ele>
        <time>2025-07-26T16:24:50.002000Z</time>
      </trkpt>
      <trkpt lat="35.67392955814992" lon="139.76144130773523">
        <ele>5.599242250435054</ele>
        <time>2025-07-26T16:24:53.002000Z</time>
      </trkpt>
      <trkpt lat="35.67400322636222" lon="139.76133439187953">
        <ele>5.511915951035917</ele>
        <time>2025-07-26T16:24:59.002000Z</time>
      </trkpt>
      <trkpt lat="35.674082527548414" lon="139.76124621447522">
        <ele>4.563123440369964</ele>
        <time>2025-07-26T16:25:03.002000Z</time>
      </trkpt>
      <trkpt lat="35.67414194350422" lon="139.76113388004634">
        <ele>5.313110143877566</ele>
        <time>2025-07-26T16:25:08.002000Z</time>
      </trkpt>
      <trkpt lat="35.67417627548784" lon="139.7609942831946">
        <ele>7.032725319266319</ele>
        <time>2025-07-26T16:25:12.002000Z</time>
      </trkpt>
      <trkpt lat="35.67421123318245" lon="139.76086436196394">
        <ele>5.742194949649274</ele>
        <time>2025-07-26T16:25:17.002000Z</time>
      </trkpt>
      <trkpt lat="35.674291776409966" lon="139.7608099238762">
        <ele>4.975628475658596</ele>
        <time>2025-07-26T16:25:21.002000Z</time>
      </trkpt>
      <trkpt lat="35.67436690638163" lon="139.76068877097416">
        <ele>5.715955409221351</ele>
        <time>2025-07-26T16:25:25.002000Z</time>
      </trkpt>
      <trkpt lat="35.674395796523484" lon="139.76057446218275">
        <ele>3.9009716929867864</ele>
        <time>2025-07-26T16:25:29Z</time>
      </trkpt>
      <trkpt lat="35.67441902346123" lon="139.7604621508535">
        <ele>4.848679913207889</ele>
        <time>2025-07-26T16:25:32Z</time>
      </trkpt>
      <trkpt lat="35.67444626649487" lon="139.76035474797305">
        <ele>4.774103367701173</ele>
        <time>2025-07-26T16:25:35Z</time>
      </trkpt>
      <trkpt lat="35.67453534283314" lon="139.76029816823143">
        <ele>5.157898577861488</ele>
        <time>2025-07-26T16:25:38Z</time>
      </trkpt>
      <trkpt lat="35.674652980541744" lon="139.76024845625403">
        <ele>4.7939384346827865</ele>
        <time>2025-07-26T16:25:42Z</time>
      </trkpt>
      <trkpt lat="35.67473576845893" lon="139.76013992955487">
        <ele>4.721217702142894</ele>
        <time>2025-07-26T16:25:46Z</time>
      </trkpt>
      <trkpt lat="35.674805663101026" lon="139.76003617051032">
        <ele>5.566032343544066</ele>
        <time>2025-07-26T16:25:50Z</time>
      </trkpt>
      <trkpt lat="35.674893399945134" lon="139.75996843844536">
        <time>2025-07-26T16:25:54Z</time>
      </trkpt>
    </trkseg>
  </trk>
</gpx>