<?xml version="1.0" encoding="UTF-8"?>
<gpx xmlns="http://www.topografix.com/GPX/1/1" xmlns:gpxtpx="http://www.garmin.com/xmlschemas/TrackPointExtension/v1" xmlns:xsi="http://www.w3.org/2001/XMLSchema-instance" xsi:schemaLocation="http://www.topografix.com/GPX/1/1 http://www.topografix.com/GPX/1/1/gpx.xsd" version="1.1" creator="gpx.py -- https://github.com/tkrajina/gpxpy">
  <trk>
    <name>Saturday Afternoon Run</name>
    <trkseg>
      <trkpt lat="35.656719728849865" lon="139.77307185022073">
        <ele>5.124321178533137</ele>
        <time>2025-08-02T07:57:52Z</time>
      </trkpt>
      <trkpt lat="35.656692821315836" lon="139.77318711723467">
        <ele>4.83190181478858</ele>
        <time>2025-08-02T07:57:56Z</time>
      </trkpt>
      <trkpt lat="35.656643446725184" lon="139.77328280518827">
        <ele>8.267326603643596</ele>
        <time>2025-08-02T07:58:00Z</time>
      </trkpt>
      <trkpt lat="35.65668374184749" lon="139.77338791722073">
        <ele>7.380546705797315</ele>
        <time>2025-08-02T07:58:05Z</time>
      </trkpt>
      <trkpt lat="35.65676509416327" lon="139.77354978945343">
        <ele>6.626001401804388</ele>
        <time>2025-08-02T07:58:08Z</time>
      </trkpt>
      <trkpt lat="35.65680297218503" lon="139.77367576078154">
        <ele>6.121040772646666</ele>
        <time>2025-08-02T07:58:11Z</time>
      </trkpt>
      <trkpt lat="35.65684544723629" lon="139.77379572468485">
        <ele>5.744775500148535</ele>
        <time>2025-08-02T07:58:14Z</time>
      </trkpt>
      <trkpt lat="35.65692343566979" lon="139.77389297922616">
        <ele>7.191424765624106</ele>
        <time>2025-08-02T07:58:17Z</time>
      </trkpt>
      <trkpt lat="35.656973782854365" lon="139.774001235025">
        <ele>5.763394713401794</ele>
        <time>2025-08-02T07:58:23.001000Z</time>
      </trkpt>
      <trkpt lat="35.65705378716393" lon="139.7741096203065">
        <ele>5.278013431467116</ele>
        <time>2025-08-02T07:58:28.001000Z</time>
      </trkpt>
      <trkpt lat="35.65712100329682" lon="139.77419934676053">
        <ele>5.7275232737883925</ele>
        <time>2025-08-02T07:58:32.001000Z</time>
      </trkpt>
      <trkpt lat="35.657174726500145" lon="139.7742969571706">
        <ele>7.8264893386512995</ele>
        <time>2025-08-02T07:58:36.001000Z</time>
      </trkpt>
      <trkpt lat="35.657228515576996" lon="139.77440067591843">
        <ele>4.898547159507871</ele>
        <time>2025-08-02T07:58:40.001000Z</time>
      </trkpt>
      <trkpt lat="35.65731047741166" lon="139.77446510171754">
        <ele>3.298498708754778</ele>
        <time>2025-08-02T07:58:43.001000Z</time>
      </trkpt>
      <trkpt lat="35.65735992318898" lon="139.7745633543184">
        <ele>3.217357679270208</ele>
        <time>2025-08-02T07:58:46.001000Z</time>
      </trkpt>
      <trkpt lat="35.657469795201806" lon="139.774628968364">
        <ele>1.975334712304175</ele>
        <time>2025-08-02T07:58:50.001000Z</time>
      </trkpt>
      <trkpt lat="35.657552160237714" lon="139.77472032326367">
        <ele>3.3115420239046216</ele>
        <time>2025-08-02T07:58:54.001000Z</time>
      </trkpt>
      <trkpt lat="35.65761598619611" lon="139.77481637885208">
        <ele>3.7384475748986006</ele>
        <time>2025-08-02T07:58:58.001000Z</time>
      </trkpt>
      <trkpt lat="35.65770757029198" lon="139.77487691583423">
        <ele>4.239417938515544</ele>
        <time>2025-08-02T07:59:02.001000Z</time>
      </trkpt>
      <trkpt lat="35.65771685801613" lon="139.77501547525077">
        <ele>6.13088296353817</ele>
        <time>2025-08-02T07:59:05.001000Z</time>
      </trkpt>
      <trkpt lat="35.657765687819605" lon="139.7751084665153">
        <ele>5.6553484899923205</ele>
        <time>2025-08-02T07:59:08.002000Z</time>
      </trkpt>
      <trkpt lat="35.65780285547254" lon="139.77524623962168">
        <ele>5.689825531095266</ele>
        <time>2025-08-02T07:59:11.002000Z</time>
      </trkpt>
      <trkpt lat="35.65787318321883" lon="139.77532570986529">
        <ele>5.237692809663713</ele>
        <time>2025-08-02T07:59:14.002000Z</time>
      </trkpt>
      <trkpt lat="35.65794553127142" lon="139.7754103466691">
        <ele>5.847613877616823</ele>
        <time>2025-08-02T07:59:17.002000Z</time>
      </trkpt>
      <trkpt lat="35.6580031636536" lon="139.77549752283454">
        <ele>5.574945016764104</ele>
        <time>2025-08-02T07:59:20.002000Z</time>
      </trkpt>
      <trkpt lat="35.658058599485365" lon="139.7756131512506">
        <ele>5.243001650087535</ele>
        <time>2025-08-02T07:59:23.002000Z</time>
      </trkpt>
      <trkpt lat="35.65816653669974" lon="139.77566553726294">
        <ele>5.267490119673312</ele>
        <time>2025-08-02T07:59:27.002000Z</time>
      </trkpt>
      <trkpt lat="35.658239590542436" lon="139.7757617601085">
        <ele>5.098231193609536</ele>
        <time>2025-08-02T07:59:31.002000Z</time>
      </trkpt>
      <trkpt lat="35.65829345856371" lon="139.77587013772984">
        <ele>5.446682095527649</ele>
        <time>2025-08-02T07:59:34.002000Z</time>
      </trkpt>
      <trkpt lat="35.658329451580485" lon="139.77597848095274">
        <ele>4.881890841759741</ele>
        <time>2025-08-02T07:59:37.002000Z</time>
      </trkpt>
      <trkpt lat="35.65841117883182" lon="139.7760272050872">
        <ele>5.400319174863398</ele>
        <time>2025-08-02T07:59:40.002000Z</time>
      </trkpt>
      <trkpt lat="35.65847926506003" lon="139.77611338489706">
        <ele>5.12902650795877</ele>
        <time>2025-08-02T07:59:44.002000Z</time>
      </trkpt>
      <trkpt lat="35.658531329878386" lon="139.77622339374997">
        <ele>5.539823426865041</ele>
        <time>2025-08-02T07:59:48Z</time>
      </trkpt>
      <trkpt lat="35.65858827736111" lon="139.77632125584057">
        <ele>6.089286911301315</ele>
        <time>2025-08-02T07:59:52Z</time>
      </trkpt>
      <trkpt lat="35.658677967920966" lon="139.77641260573662">
        <ele>4.9076142413541675</ele>
        <time>2025-08-02T07:59:55Z</time>
      </trkpt>
      <trkpt lat="35.6587223922367" lon="139.77653623785034">
        <ele>5.089633428491652</ele>
        <time>2025-08-02T07:59:59Z</time>
      </trkpt>
      <trkpt lat="35.6587900998928" lon="139.7766375241653">
        <ele>5.265595292672515</ele>
        <time>2025-08-02T08:00:03Z</time>
      </trkpt>
      <trkpt lat="35.65886235882006" lon="139.7767213838284">
        <ele>5.211900072172284</ele>
        <time>2025-08-02T08:00:06Z</time>
      </trkpt>
      <trkpt lat="35.65890537037928" lon="139.7768281319382">
        <ele>4.8807325549423695</ele>
        <time>2025-08-02T08:00:10Z</time>
      </trkpt>
      <trkpt lat="35.659004606038465" lon="139.77691312659718">
        <ele>4.601528923027217</ele>
        <time>2025-08-02T08:00:14Z</time>
      </trkpt>
      <trkpt lat="35.65906593200073" lon="139.77701154189512">
        <ele>4.927803919650614</ele>
        <time>2025-08-02T08:00:18Z</time>
      </trkpt>
      <trkpt lat="35.65914389927114" lon="139.77711730976597">
        <ele>4.673824003897607</ele>
        <time>2025-08-02T08:00:22Z</time>
      </trkpt>
      <trkpt lat="35.65921144520292" lon="139.7772255801231">
        <ele>4.68411717005074</ele>
        <time>2025-08-02T08:00:27Z</time>
      </trkpt>
      <trkpt lat="35.65930439827416" lon="139.77731402741907">
        <ele>5.045570042915642</ele>
        <time>2025-08-02T08:00:34.001000Z</time>
      </trkpt>
      <trkpt lat="35.65937166601598" lon="139.77739741302236">
        <ele>3.727134805172682</ele>
        <time>2025-08-02T08:00:38.001000Z</time>
      </trkpt>
      <trkpt lat="35.65943875487895" lon="139.7774828941719">
        <ele>5.352954109199345</ele>
        <time>2025-08-02T08:00:41.001000Z</time>
      </trkpt>
      <trkpt lat="35.65949970523691" lon="139.77760802304076">
        <ele>5.450144548900425</ele>
        <time>2025-08-02T08:00:45.001000Z</time>
      </trkpt>
      <trkpt lat="35.65956663879272" lon="139.77771260831787">
        <ele>5.695761785842478</ele>
        <time>2025-08-02T08:00:49.001000Z</time>
      </trkpt>
      <trkpt lat="35.65962223027009" lon="139.77784433623">
        <ele>4.25690520554781</ele>
        <time>2025-08-02T08:00:53.001000Z</time>
      </trkpt>
      <trkpt lat="35.6596994129842" lon="139.7779398030234">
        <ele>4.697474482469261</ele>
        <time>2025-08-02T08:00:57.001000Z</time>
      </trkpt>
      <trkpt lat="35.65976098725443" lon="139.77804125419974">
        <ele>4.697399852797389</ele>
        <time>2025-08-02T08:01:01.001000Z</time>
      </trkpt>
      <trkpt lat="35.65980837627171" lon="139.7781717286103">
        <ele>4.960678532719612</ele>
        <time>2025-08-02T08:01:04.001000Z</time>
      </trkpt>
      <trkpt lat="35.65993617379391" lon="139.77823143958489">
        <ele>4.594158920459449</ele>
        <time>2025-08-02T08:01:09.001000Z</time>
      </trkpt>
      <trkpt lat="35.66002074679239" lon="139.77830618334679">
        <ele>4.551325705833733</ele>
        <time>2025-08-02T08:01:13.002000Z</time>
      </trkpt>
      <trkpt lat="35.660081904713344" lon="139.7783953534602">
        <ele>4.379428990185261</ele>
        <time>2025-08-02T08:01:16.002000Z</time>
      </trkpt>
      <trkpt lat="35.660133072775615" lon="139.7784942824219">
        <ele>4.768230127170682</ele>
        <time>2025-08-02T08:01:20.002000Z</time>
      </trkpt>
      <trkpt lat="35.6602074765258" lon="139.77856244457442">
        <ele>4.070341667160392</ele>
        <time>2025-08-02T08:01:23.002000Z</time>
      </trkpt>
      <trkpt lat="35.66023615625189" lon="139.77869455545715">
        <ele>4.907260151579976</ele>
        <time>2025-08-02T08:01:28.002000Z</time>
      </trkpt>
      <trkpt lat="35.660286536806154" lon="139.77878634439026">
        <ele>5.363040130585432</ele>
        <time>2025-08-02T08:01:32.002000Z</time>
      </trkpt>
      <trkpt lat="35.660334529040625" lon="139.77888217626509">
        <ele>4.870977896265686</ele>
        <time>2025-08-02T08:01:36.002000Z</time>
      </trkpt>
      <trkpt lat="35.66041536346583" lon="139.7789866864063">
        <ele>4.304564912803471</ele>
        <time>2025-08-02T08:01:40.002000Z</time>
      </trkpt>
      <trkpt lat="35.66047566495633" lon="139.77908718780606">
        <ele>3.7023797696456313</ele>
        <time>2025-08-02T08:01:44.002000Z</time>
      </trkpt>
      <trkpt lat="35.66054452994245" lon="139.77917153975878">
        <ele>4.61169779766351</ele>
        <time>2025-08-02T08:01:47.002000Z</time>
      </trkpt>
      <trkpt lat="35.66060403301598" lon="139.77926934585028">
        <ele>2.1365494206547737</ele>
        <time>2025-08-02T08:01:50.002000Z</time>
      </trkpt>
      <trkpt lat="35.660662021303" lon="139.77937371835893">
        <ele>1.3922202177345753</ele>
        <time>2025-08-02T08:01:53Z</time>
      </trkpt>
      <trkpt lat="35.66075138869719" lon="139.7794510071664">
        <ele>3.943388383835554</ele>
        <time>2025-08-02T08:01:57Z</time>
      </trkpt>
      <trkpt lat="35.66080717129707" lon="139.77955844861742">
        <ele>3.3818010753020644</ele>
        <time>2025-08-02T08:02:01Z</time>
      </trkpt>
      <trkpt lat="35.6608802279111" lon="139.7796446458943">
        <ele>1.0093988943845034</ele>
        <time>2025-08-02T08:02:05Z</time>
      </trkpt>
      <trkpt lat="35.66092735928515" lon="139.77974366270243">
        <ele>2.4495276352390647</ele>
        <time>2025-08-02T08:02:08Z</time>
      </trkpt>
      <trkpt lat="35.66098374661017" lon="139.77983322406016">
        <ele>2.4663097439333797</ele>
        <time>2025-08-02T08:02:12Z</time>
      </trkpt>
      <trkpt lat="35.66105232505735" lon="139.77993263787235">
        <ele>2.9712326051667333</ele>
        <time>2025-08-02T08:02:16Z</time>
      </trkpt>
      <trkpt lat="35.661112299686245" lon="139.78003874545132">
        <ele>4.4197499407455325</ele>
        <time>2025-08-02T08:02:20Z</time>
      </trkpt>
      <trkpt lat="35.6611756906003" lon="139.78013802794626">
        <ele>4.676929663866758</ele>
        <time>2025-08-02T08:02:24Z</time>
      </trkpt>
      <trkpt lat="35.66124529724492" lon="139.78022024917357">
        <ele>3.853827901184559</ele>
        <time>2025-08-02T08:02:28.001000Z</time>
      </trkpt>
      <trkpt lat="35.661390325951466" lon="139.78041408696444">
        <ele>6.249467248097062</ele>
        <time>2025-08-02T08:03:04.001000Z</time>
      </trkpt>
      <trkpt lat="35.661474521539205" lon="139.7805020768387">
        <ele>4.647287986241281</ele>
        <time>2025-08-02T08:03:07.001000Z</time>
      </trkpt>
      <trkpt lat="35.66153540863849" lon="139.78061872570194">
        <ele>4.803694962523878</ele>
        <time>2025-08-02T08:03:12.002000Z</time>
      </trkpt>
      <trkpt lat="35.66162035373177" lon="139.7807029694338">
        <ele>3.810540195554495</ele>
        <time>2025-08-02T08:03:16.002000Z</time>
      </trkpt>
      <trkpt lat="35.66170992260278" lon="139.7807611872571">
        <ele>4.445783493109047</ele>
        <time>2025-08-02T08:03:20.002000Z</time>
      </trkpt>
      <trkpt lat="35.66175252204016" lon="139.7808788648261">
        <ele>5.199687445536256</ele>
        <time>2025-08-02T08:03:24.002000Z</time>
      </trkpt>
      <trkpt lat="35.661822721540986" lon="139.78094876528917">
        <ele>4.197843928821385</ele>
        <time>2025-08-02T08:03:27.002000Z</time>
      </trkpt>
      <trkpt lat="35.66187405567254" lon="139.78105754456683">
        <ele>4.226301069371402</ele>
        <time>2025-08-02T08:03:31.002000Z</time>
      </trkpt>
      <trkpt lat="35.66194090878607" lon="139.7811324755238">
        <ele>3.183827235363424</ele>
        <time>2025-08-02T08:03:34.002000Z</time>
      </trkpt>
      <trkpt lat="35.662011218712955" lon="139.78125644167855">
        <ele>3.281096917577088</ele>
        <time>2025-08-02T08:03:38.002000Z</time>
      </trkpt>
      <trkpt lat="35.66209720335874" lon="139.7813502154728">
        <ele>4.688694286160171</ele>
        <time>2025-08-02T08:03:42.002000Z</time>
      </trkpt>
      <trkpt lat="35.66216255949329" lon="139.78146667411198">
        <ele>3.2735201800242066</ele>
        <time>2025-08-02T08:03:46.002000Z</time>
      </trkpt>
      <trkpt lat="35.66222662829864" lon="139.78156919470584">
        <ele>3.7940062107518315</ele>
        <time>2025-08-02T08:03:50.002000Z</time>
      </trkpt>
      <trkpt lat="35.66229087911712" lon="139.78167219757717">
        <ele>3.40393281634897</ele>
        <time>2025-08-02T08:03:54.002000Z</time>
      </trkpt>
      <trkpt lat="35.662370079552886" lon="139.78175331370562">
        <ele>3.1246300050988793</ele>
        <time>2025-08-02T08:03:58Z</time>
      </trkpt>
      <trkpt lat="35.66245226842873" lon="139.78184456426197">
        <ele>3.4664650736376643</ele>
        <time>2025-08-02T08:04:02Z</time>
      </trkpt>
      <trkpt lat="35.66246432570182" lon="139.7819610845064">
        <ele>3.395016654394567</ele>
        <time>2025-08-02T08:04:05Z</time>
      </trkpt>
      <trkpt lat="35.662556240261026" lon="139.78203027739397">
        <ele>2.851775834336877</ele>
        <time>2025-08-02T08:04:09Z</time>
      </trkpt>
      <trkpt lat="35.6626224788338" lon="139.78212550126227">
        <ele>3.735884929075837</ele>
        <time>2025-08-02T08:04:13Z</time>
      </trkpt>
      <trkpt lat="35.66270486812611" lon="139.78221272109238">
        <ele>2.838642729446292</ele>
        <time>2025-08-02T08:04:17Z</time>
      </trkpt>
      <trkpt lat="35.662794842371596" lon="139.78224724428156">
        <ele>3.148935440927744</ele>
        <time>2025-08-02T08:04:21Z</time>
      </trkpt>
      <trkpt lat="35.66282737103347" lon="139.78237312787329">
        <ele>3.591525185853243</ele>
        <time>2025-08-02T08:04:24Z</time>
      </trkpt>
      <trkpt lat="35.66287745852681" lon="139.78246986235465">
        <ele>3.393253040499985</ele>
        <time>2025-08-02T08:04:27Z</time>
      </trkpt>
      <trkpt lat="35.66292243312706" lon="139.78258840841232">
        <ele>3.7369549237191677</ele>
        <time>2025-08-02T08:04:31Z</time>
      </trkpt>
      <trkpt lat="35.6630001899982" lon="139.782653409874">
        <ele>3.310644494369626</ele>
        <time>2025-08-02T08:04:34.001000Z</time>
      </trkpt>
      <trkpt lat="35.66308764728618" lon="139.7827351163443">
        <ele>3.4224573178216815</ele>
        <time>2025-08-02T08:04:38.001000Z</time>
      </trkpt>
      <trkpt lat="35.66316493151326" lon="139.78280044470085">
        <ele>2.849446676671505</ele>
        <time>2025-08-02T08:04:41.001000Z</time>
      </trkpt>
      <trkpt lat="35.66321197181129" lon="139.7829137521987">
        <ele>2.8523350479081273</ele>
        <time>2025-08-02T08:04:45.001000Z</time>
      </trkpt>
      <trkpt lat="35.66328562953689" lon="139.7830222499457">
        <ele>4.173373844474554</ele>
        <time>2025-08-02T08:04:49.001000Z</time>
      </trkpt>
      <trkpt lat="35.66338028437613" lon="139.78309109709124">
        <ele>2.8984105037525296</ele>
        <time>2025-08-02T08:04:54.001000Z</time>
      </trkpt>
      <trkpt lat="35.66345853085814" lon="139.78329742073666">
        <ele>4.08087670430541</ele>
        <time>2025-08-02T08:05:01.001000Z</time>
      </trkpt>
      <trkpt lat="35.66353142404869" lon="139.78337623620516">
        <ele>3.7423947667703032</ele>
        <time>2025-08-02T08:05:05.001000Z</time>
      </trkpt>
      <trkpt lat="35.66360810995528" lon="139.78344839156728">
        <ele>4.044602048583329</ele>
        <time>2025-08-02T08:05:10.001000Z</time>
      </trkpt>
      <trkpt lat="35.663681012939904" lon="139.7835263582776">
        <ele>4.436579414643347</ele>
        <time>2025-08-02T08:05:15.001000Z</time>
      </trkpt>
      <trkpt lat="35.663759486127354" lon="139.78359204060897">
        <ele>4.854227179661393</ele>
        <time>2025-08-02T08:05:20.002000Z</time>
      </trkpt>
      <trkpt lat="35.66382535129627" lon="139.78369773705967">
        <ele>4.7178993839770555</ele>
        <time>2025-08-02T08:05:25.002000Z</time>
      </trkpt>
      <trkpt lat="35.66387713099768" lon="139.7837932312113">
        <ele>4.540504950098693</ele>
        <time>2025-08-02T08:05:29.002000Z</time>
      </trkpt>
      <trkpt lat="35.663912110435135" lon="139.78390110129777">
        <ele>4.911004259251058</ele>
        <time>2025-08-02T08:05:33.002000Z</time>
      </trkpt>
      <trkpt lat="35.66397956447015" lon="139.78398547379635">
        <ele>4.54069437738508</ele>
        <time>2025-08-02T08:05:37.002000Z</time>
      </trkpt>
      <trkpt lat="35.66405520411332" lon="139.78408482193436">
        <ele>5.029189565218985</ele>
        <time>2025-08-02T08:05:42.002000Z</time>
      </trkpt>
      <trkpt lat="35.66411104633598" lon="139.7841889689924">
        <ele>4.52298950497061</ele>
        <time>2025-08-02T08:05:47.002000Z</time>
      </trkpt>
      <trkpt lat="35.66415423525877" lon="139.78432107893232">
        <ele>5.67063819244504</ele>
        <time>2025-08-02T08:05:50.002000Z</time>
      </trkpt>
      <trkpt lat="35.66423819101641" lon="139.78437169306454">
        <ele>5.407824697904289</ele>
        <time>2025-08-02T08:05:53.002000Z</time>
      </trkpt>
      <trkpt lat="35.66430882841284" lon="139.78448874960173">
        <ele>5.021627121604979</ele>
        <time>2025-08-02T08:05:57.002000Z</time>
      </trkpt>
      <trkpt lat="35.664378087290935" lon="139.78457063244704">
        <ele>5.55168716609478</ele>
        <time>2025-08-02T08:06:01.002000Z</time>
      </trkpt>
      <trkpt lat="35.66447284179542" lon="139.78464758422342">
        <ele>7.116557107307017</ele>
        <time>2025-08-02T08:06:05Z</time>
      </trkpt>
      <trkpt lat="35.664664450366224" lon="139.7849171154654">
        <ele>6.558554413728416</ele>
        <time>2025-08-02T08:07:04.001000Z</time>
      </trkpt>
      <trkpt lat="35.6647302150856" lon="139.7850024692245">
        <ele>6.34724491648376</ele>
        <time>2025-08-02T08:07:08.001000Z</time>
      </trkpt>
      <trkpt lat="35.66479933724111" lon="139.78508767890955">
        <ele>5.643749528564513</ele>
        <time>2025-08-02T08:07:12.001000Z</time>
      </trkpt>
      <trkpt lat="35.664849527429965" lon="139.78518223201453">
        <ele>4.715509851463139</ele>
        <time>2025-08-02T08:07:16.001000Z</time>
      </trkpt>
      <trkpt lat="35.664909121569956" lon="139.78527315413044">
        <ele>6.391470191068947</ele>
        <time>2025-08-02T08:07:20.001000Z</time>
      </trkpt>
      <trkpt lat="35.66498635393528" lon="139.78536354361154">
        <ele>5.846545185893774</ele>
        <time>2025-08-02T08:07:25.002000Z</time>
      </trkpt>
      <trkpt lat="35.665066556642024" lon="139.7854429997847">
        <ele>5.602734172716737</ele>
        <time>2025-08-02T08:07:30.002000Z</time>
      </trkpt>
      <trkpt lat="35.665139560376076" lon="139.7855554505816">
        <ele>5.551468621008098</ele>
        <time>2025-08-02T08:07:34.002000Z</time>
      </trkpt>
      <trkpt lat="35.66517976613921" lon="139.785666296816">
        <ele>5.256075204350054</ele>
        <time>2025-08-02T08:07:39.002000Z</time>
      </trkpt>
      <trkpt lat="35.665264429501974" lon="139.78571864295617">
        <ele>5.535854704678059</ele>
        <time>2025-08-02T08:07:43.002000Z</time>
      </trkpt>
      <trkpt lat="35.66532485024311" lon="139.78584236261855">
        <ele>5.062437917105854</ele>
        <time>2025-08-02T08:07:48.002000Z</time>
      </trkpt>
      <trkpt lat="35.66542404487305" lon="139.78595652332942">
        <ele>5.63868366740644</ele>
        <time>2025-08-02T08:07:52.002000Z</time>
      </trkpt>
      <trkpt lat="35.66551424879501" lon="139.78599641562326">
        <ele>6.092231263406575</ele>
        <time>2025-08-02T08:07:55.002000Z</time>
      </trkpt>
      <trkpt lat="35.66556333603755" lon="139.78610655195985">
        <ele>5.306364074349403</ele>
        <time>2025-08-02T08:07:58.002000Z</time>
      </trkpt>
      <trkpt lat="35.66563276961302" lon="139.78620415086584">
        <ele>5.181360892020166</ele>
        <time>2025-08-02T08:08:01.002000Z</time>
      </trkpt>
      <trkpt lat="35.665702605509765" lon="139.78628590814068">
        <ele>4.997308026999235</ele>
        <time>2025-08-02T08:08:04.002000Z</time>
      </trkpt>
      <trkpt lat="35.665738230048774" lon="139.78640047310472">
        <ele>4.613815359771252</ele>
        <time>2025-08-02T08:08:08.003000Z</time>
      </trkpt>
      <trkpt lat="35.66581070413972" lon="139.7864899278282">
        <ele>6.148425165563822</ele>
        <time>2025-08-02T08:08:10.999000Z</time>
      </trkpt>
      <trkpt lat="35.665867808454365" lon="139.78658980578967">
        <ele>5.126977765001357</ele>
        <time>2025-08-02T08:08:13.999000Z</time>
      </trkpt>
      <trkpt lat="35.66595156176266" lon="139.78669579782994">
        <ele>6.01690292917192</ele>
        <time>2025-08-02T08:08:17.999000Z</time>
      </trkpt>
      <trkpt lat="35.66602294534844" lon="139.7867664606256">
        <ele>5.048238317482173</ele>
        <time>2025-08-02T08:08:20.999000Z</time>
      </trkpt>
      <trkpt lat="35.666074963759385" lon="139.78685929416648">
        <ele>5.460150436498225</ele>
        <time>2025-08-02T08:08:23.999000Z</time>
      </trkpt>
      <trkpt lat="35.66615971046656" lon="139.7869202444958">
        <ele>6.443189582787454</ele>
        <time>2025-08-02T08:08:27Z</time>
      </trkpt>
      <trkpt lat="35.66622556418579" lon="139.78702517423457">
        <ele>6.225091751664877</ele>
        <time>2025-08-02T08:08:32Z</time>
      </trkpt>
      <trkpt lat="35.66642831180977" lon="139.7871770061617">
        <ele>7.591781402006745</ele>
        <time>2025-08-02T08:09:21.001000Z</time>
      </trkpt>
      <trkpt lat="35.66651645431358" lon="139.78727056478922">
        <ele>8.124298146925867</ele>
        <time>2025-08-02T08:09:26.001000Z</time>
      </trkpt>
      <trkpt lat="35.66656390688412" lon="139.7873853627312">
        <ele>7.386460150592029</ele>
        <time>2025-08-02T08:09:32.001000Z</time>
      </trkpt>
      <trkpt lat="35.66661630464973" lon="139.78750328782286">
        <ele>7.3907479625195265</ele>
        <time>2025-08-02T08:09:36.002000Z</time>
      </trkpt>
      <trkpt lat="35.666687412229095" lon="139.78760327018784">
        <ele>7.469889357686043</ele>
        <time>2025-08-02T08:09:40.002000Z</time>
      </trkpt>
      <trkpt lat="35.66674682954738" lon="139.78770196984328">
        <ele>7.6695904694497585</ele>
        <time>2025-08-02T08:09:44.002000Z</time>
      </trkpt>
      <trkpt lat="35.666827302639085" lon="139.78775880052527">
        <ele>7.821465087123215</ele>
        <time>2025-08-02T08:09:48.002000Z</time>
      </trkpt>
      <trkpt lat="35.666901208386506" lon="139.78786336558088">
        <ele>7.268896649591625</ele>
        <time>2025-08-02T08:09:52.002000Z</time>
      </trkpt>
      <trkpt lat="35.66697523839031" lon="139.78795023282714">
        <ele>6.854479856789112</ele>
        <time>2025-08-02T08:09:56.002000Z</time>
      </trkpt>
      <trkpt lat="35.66704806034418" lon="139.78804622141456">
        <ele>7.075406538322568</ele>
        <time>2025-08-02T08:10:00.002000Z</time>
      </trkpt>
      <trkpt lat="35.667102157285775" lon="139.78814184547883">
        <ele>8.418107826262712</ele>
        <time>2025-08-02T08:10:04.002000Z</time>
      </trkpt>
      <trkpt lat="35.66715904107739" lon="139.78823740132697">
        <ele>8.174535546451807</ele>
        <time>2025-08-02T08:10:08.002000Z</time>
      </trkpt>
      <trkpt lat="35.66723928510544" lon="139.78832900104987">
        <ele>6.916755667887628</ele>
        <time>2025-08-02T08:10:13.002000Z</time>
      </trkpt>
      <trkpt lat="35.66729666438896" lon="139.78841795498394">
        <ele>7.1320503475144506</ele>
        <time>2025-08-02T08:10:17Z</time>
      </trkpt>
      <trkpt lat="35.66739222952998" lon="139.78850713096037">
        <ele>5.4002853240817785</ele>
        <time>2025-08-02T08:10:21Z</time>
      </trkpt>
      <trkpt lat="35.66745847583871" lon="139.78862853426904">
        <ele>6.101652246899903</ele>
        <time>2025-08-02T08:10:25Z</time>
      </trkpt>
      <trkpt lat="35.66753213985337" lon="139.78869466228718">
        <ele>5.025145050138235</ele>
        <time>2025-08-02T08:10:28Z</time>
      </trkpt>
      <trkpt lat="35.66759729280369" lon="139.78877441029755">
        <ele>4.771970972418785</ele>
        <time>2025-08-02T08:10:31Z</time>
      </trkpt>
      <trkpt lat="35.66767515351363" lon="139.78887961678453">
        <ele>5.797739319503307</ele>
        <time>2025-08-02T08:10:35Z</time>
      </trkpt>
      <trkpt lat="35.66774345808383" lon="139.78895395400698">
        <ele>6.162606444209814</ele>
        <time>2025-08-02T08:10:38Z</time>
      </trkpt>
      <trkpt lat="35.667809044267955" lon="139.78908109957706">
        <ele>5.186957306228578</ele>
        <time>2025-08-02T08:10:42Z</time>
      </trkpt>
      <trkpt lat="35.6678708542879" lon="139.7891645773314">
        <ele>4.982160554267466</ele>
        <time>2025-08-02T08:10:45Z</time>
      </trkpt>
      <trkpt lat="35.667948991103714" lon="139.78926444316684">
        <ele>4.240543616935611</ele>
        <time>2025-08-02T08:10:49Z</time>
      </trkpt>
      <trkpt lat="35.66799611927225" lon="139.7893741036725">
        <ele>4.4573430167511106</ele>
        <time>2025-08-02T08:10:53.001000Z</time>
      </trkpt>
      <trkpt lat="35.6680884171906" lon="139.78946372911693">
        <ele>4.6066272826865315</ele>
        <time>2025-08-02T08:10:57.001000Z</time>
      </trkpt>
      <trkpt lat="35.66815812842125" lon="139.78955862910615">
        <ele>4.463505228981376</ele>
        <time>2025-08-02T08:11:01.001000Z</time>
      </trkpt>
      <trkpt lat="35.66825018041508" lon="139.7895645139917">
        <ele>5.8437992753461</ele>
        <time>2025-08-02T08:11:05.001000Z</time>
      </trkpt>
      <trkpt lat="35.668343453536416" lon="139.78950177527472">
        <ele>6.2624680576846</ele>
        <time>2025-08-02T08:11:09.001000Z</time>
      </trkpt>
      <trkpt lat="35.668452131666704" lon="139.78948504767777">
        <ele>6.415672305971384</ele>
        <time>2025-08-02T08:11:13.001000Z</time>
      </trkpt>
      <trkpt lat="35.66855355652408" lon="139.78945479591988">
        <ele>7.093094082549214</ele>
        <time>2025-08-02T08:11:17.001000Z</time>
      </trkpt>
      <trkpt lat="35.668652108188105" lon="139.78942621334852">
        <ele>7.751533235423267</ele>
        <time>2025-08-02T08:11:21.001000Z</time>
      </trkpt>
      <trkpt lat="35.66874559471182" lon="139.789394563989">
        <ele>8.141698753461242</ele>
        <time>2025-08-02T08:11:25.001000Z</time>
      </trkpt>
      <trkpt lat="35.668825332400885" lon="139.7893328711362">
        <ele>8.010832907631993</ele>
        <time>2025-08-02T08:11:29.002000Z</time>
      </trkpt>
      <trkpt lat="35.668911227343195" lon="139.78929056190836">
        <ele>8.045345840975642</ele>
        <time>2025-08-02T08:11:33.002000Z</time>
      </trkpt>
      <trkpt lat="35.669002995260406" lon="139.7892293561322">
        <ele>7.454041365534067</ele>
        <time>2025-08-02T08:11:37.002000Z</time>
      </trkpt>
      <trkpt lat="35.669105078023016" lon="139.7892173007047">
        <ele>7.138646406121552</ele>
        <time>2025-08-02T08:11:41.002000Z</time>
      </trkpt>
      <trkpt lat="35.66919881966426" lon="139.78918651772358">
        <ele>6.929215156473219</ele>
        <time>2025-08-02T08:11:45.002000Z</time>
      </trkpt>
      <trkpt lat="35.66928715857759" lon="139.78914033749183">
        <ele>7.33324171602726</ele>
        <time>2025-08-02T08:11:48.002000Z</time>
      </trkpt>
      <trkpt lat="35.669454015150635" lon="139.78904401080422">
        <ele>7.458166150376201</ele>
        <time>2025-08-02T08:15:08Z</time>
      </trkpt>
      <trkpt lat="35.66955145926642" lon="139.78902193932396">
        <ele>7.740839588455856</ele>
        <time>2025-08-02T08:15:12Z</time>
      </trkpt>
      <trkpt lat="35.66965021375588" lon="139.78899619142038">
        <ele>7.8795229606330395</ele>
        <time>2025-08-02T08:15:16.001000Z</time>
      </trkpt>
      <trkpt lat="35.669746095332066" lon="139.78899604633344">
        <ele>6.43248629104346</ele>
        <time>2025-08-02T08:15:20.001000Z</time>
      </trkpt>
      <trkpt lat="35.66984500390464" lon="139.78898712418402">
        <ele>6.998873480595648</ele>
        <time>2025-08-02T08:15:23.001000Z</time>
      </trkpt>
      <trkpt lat="35.669933647185786" lon="139.78894979018398">
        <ele>7.168374007567763</ele>
        <time>2025-08-02T08:15:27.001000Z</time>
      </trkpt>
      <trkpt lat="35.67002204778541" lon="139.78892040425856">
        <ele>7.469743698835373</ele>
        <time>2025-08-02T08:15:30.001000Z</time>
      </trkpt>
      <trkpt lat="35.670129172735784" lon="139.7888760003941">
        <ele>8.0594049571082</ele>
        <time>2025-08-02T08:15:34.001000Z</time>
      </trkpt>
      <trkpt lat="35.67022289336295" lon="139.78884917371533">
        <ele>7.649910029023886</ele>
        <time>2025-08-02T08:15:38.001000Z</time>
      </trkpt>
      <trkpt lat="35.670317015847516" lon="139.78885036918766">
        <ele>8.17223808914423</ele>
        <time>2025-08-02T08:15:42.001000Z</time>
      </trkpt>
      <trkpt lat="35.67042562888512" lon="139.78883566531798">
        <ele>7.657470621168613</ele>
        <time>2025-08-02T08:15:46.001000Z</time>
      </trkpt>
      <trkpt lat="35.67051154044532" lon="139.78879746312293">
        <ele>7.621416425332427</ele>
        <time>2025-08-02T08:15:49.001000Z</time>
      </trkpt>
      <trkpt lat="35.67059964892157" lon="139.78874554757456">
        <ele>8.18956708535552</ele>
        <time>2025-08-02T08:15:53.002000Z</time>
      </trkpt>
      <trkpt lat="35.67071529333404" lon="139.78873417582477">
        <ele>7.9713129196316</ele>
        <time>2025-08-02T08:15:58.002000Z</time>
      </trkpt>
      <trkpt lat="35.670815037827104" lon="139.78869903131863">
        <ele>7.571973931975663</ele>
        <time>2025-08-02T08:16:02.002000Z</time>
      </trkpt>
      <trkpt lat="35.67093385762635" lon="139.78868548843357">
        <ele>7.492889664135873</ele>
        <time>2025-08-02T08:16:06.002000Z</time>
      </trkpt>
      <trkpt lat="35.67102690901576" lon="139.7886709516873">
        <ele>8.219025050289929</ele>
        <time>2025-08-02T08:16:10.002000Z</time>
      </trkpt>
      <trkpt lat="35.67113349754211" lon="139.7886408140555">
        <ele>7.4421655321493745</ele>
        <time>2025-08-02T08:16:14.002000Z</time>
      </trkpt>
      <trkpt lat="35.67124893612169" lon="139.78863660155235">
        <ele>6.572599180974066</ele>
        <time>2025-08-02T08:16:18.002000Z</time>
      </trkpt>
      <trkpt lat="35.67135098601938" lon="139.78859099850942">
        <ele>7.648944238200784</ele>
        <time>2025-08-02T08:16:22.002000Z</time>
      </trkpt>
      <trkpt lat="35.67144956757993" lon="139.78855339499157">
        <ele>7.074848039075732</ele>
        <time>2025-08-02T08:16:26.002000Z</time>
      </trkpt>
      <trkpt lat="35.671554637938016" lon="139.78855243726514">
        <ele>6.866151002235711</ele>
        <time>2025-08-02T08:16:30.003000Z</time>
      </trkpt>
      <trkpt lat="35.67164972714776" lon="139.78855079160155">
        <ele>7.616320371627808</ele>
        <time>2025-08-02T08:16:33.999000Z</time>
      </trkpt>
      <trkpt lat="35.671755600337264" lon="139.78852169453938">
        <ele>7.5118994591757655</ele>
        <time>2025-08-02T08:16:37.999000Z</time>
      </trkpt>
      <trkpt lat="35.67184212740807" lon="139.78846234333804">
        <ele>7.146891159005463</ele>
        <time>2025-08-02T08:16:41.999000Z</time>
      </trkpt>
      <trkpt lat="35.67195231184548" lon="139.78844535982898">
        <ele>7.192966043949127</ele>
        <time>2025-08-02T08:16:45.999000Z</time>
      </trkpt>
      <trkpt lat="35.67205829080737" lon="139.78841355387428">
        <ele>7.005409431643784</ele>
        <time>2025-08-02T08:16:50Z</time>
      </trkpt>
      <trkpt lat="35.672172770562526" lon="139.78842597113982">
        <ele>6.220634845085442</ele>
        <time>2025-08-02T08:16:55Z</time>
      </trkpt>
      <trkpt lat="35.672272533541936" lon="139.78842678577956">
        <ele>5.645570329390466</ele>
        <time>2025-08-02T08:16:59Z</time>
      </trkpt>
      <trkpt lat="35.67236768056641" lon="139.78840930413224">
        <ele>6.22363737039268</ele>
        <time>2025-08-02T08:17:03Z</time>
      </trkpt>
      <trkpt lat="35.67245829194119" lon="139.78841878538495">
        <ele>5.2104384591802955</ele>
        <time>2025-08-02T08:17:07Z</time>
      </trkpt>
      <trkpt lat="35.67254779931713" lon="139.78839865295393">
        <ele>5.3703103912994266</ele>
        <time>2025-08-02T08:17:11Z</time>
      </trkpt>
      <trkpt lat="35.672646604886594" lon="139.7883851777911">
        <ele>7.378956997767091</ele>
        <time>2025-08-02T08:17:15Z</time>
      </trkpt>
      <trkpt lat="35.672747099517416" lon="139.7883565448612">
        <ele>7.446153826080263</ele>
        <time>2025-08-02T08:17:20.001000Z</time>
      </trkpt>
      <trkpt lat="35.67284928406314" lon="139.78837319297816">
        <ele>7.964064225554466</ele>
        <time>2025-08-02T08:17:24.001000Z</time>
      </trkpt>
      <trkpt lat="35.672925200207494" lon="139.7884815112881">
        <ele>8.015088582411408</ele>
        <time>2025-08-02T08:17:30.001000Z</time>
      </trkpt>
      <trkpt lat="35.673024364073946" lon="139.78853210810433">
        <ele>8.562758353538811</ele>
        <time>2025-08-02T08:17:34.001000Z</time>
      </trkpt>
      <trkpt lat="35.673114811112356" lon="139.78858331691887">
        <ele>9.89357999432832</ele>
        <time>2025-08-02T08:17:38.001000Z</time>
      </trkpt>
      <trkpt lat="35.673226480239215" lon="139.78863167460952">
        <ele>10.107791602611542</ele>
        <time>2025-08-02T08:17:43.001000Z</time>
      </trkpt>
      <trkpt lat="35.67332738088921" lon="139.78868581091842">
        <ele>9.139824867248535</ele>
        <time>2025-08-02T08:17:48.001000Z</time>
      </trkpt>
      <trkpt lat="35.67342111864494" lon="139.78871520774268">
        <ele>8.408914669416845</ele>
        <time>2025-08-02T08:17:52.002000Z</time>
      </trkpt>
      <trkpt lat="35.67351698014044" lon="139.78868328498476">
        <ele>6.792781329713762</ele>
        <time>2025-08-02T08:17:57.002000Z</time>
      </trkpt>
      <trkpt lat="35.673613238716" lon="139.78863355632475">
        <ele>7.903862405568361</ele>
        <time>2025-08-02T08:18:01.002000Z</time>
      </trkpt>
      <trkpt lat="35.67370613105984" lon="139.78859690196325">
        <ele>8.324101871810853</ele>
        <time>2025-08-02T08:18:05.002000Z</time>
      </trkpt>
      <trkpt lat="35.67380093685542" lon="139.78855211647453">
        <ele>7.331122104078531</ele>
        <time>2025-08-02T08:18:09.002000Z</time>
      </trkpt>
      <trkpt lat="35.67388990874294" lon="139.78850475582266">
        <ele>6.821440474130213</ele>
        <time>2025-08-02T08:18:13.002000Z</time>
      </trkpt>
      <trkpt lat="35.67398074933151" lon="139.7884676250123">
        <ele>6.331218737177551</ele>
        <time>2025-08-02T08:18:17.002000Z</time>
      </trkpt>
      <trkpt lat="35.67406777054126" lon="139.78843568253183">
        <ele>5.3100561778992414</ele>
        <time>2025-08-02T08:18:21.002000Z</time>
      </trkpt>
      <trkpt lat="35.67415947137331" lon="139.7883956927458">
        <ele>5.104238101281226</ele>
        <time>2025-08-02T08:18:25.003000Z</time>
      </trkpt>
      <trkpt lat="35.67426996323941" lon="139.7883653776291">
        <ele>4.393370538018644</ele>
        <time>2025-08-02T08:18:30.003000Z</time>
      </trkpt>
      <trkpt lat="35.6743662584845" lon="139.78832437923617">
        <ele>5.339933988638222</ele>
        <time>2025-08-02T08:18:34.003000Z</time>
      </trkpt>
      <trkpt lat="35.674458357614455" lon="139.78828713403084">
        <ele>5.490573498420417</ele>
        <time>2025-08-02T08:18:38.003000Z</time>
      </trkpt>
      <trkpt lat="35.67455189516562" lon="139.78827326119213">
        <ele>6.251402133144438</ele>
        <time>2025-08-02T08:18:41.999000Z</time>
      </trkpt>
      <trkpt lat="35.6746502654433" lon="139.7882582157085">
        <ele>6.419970294460654</ele>
        <time>2025-08-02T08:18:45.999000Z</time>
      </trkpt>
      <trkpt lat="35.67475302794128" lon="139.78825577642198">
        <ele>5.911899701692164</ele>
        <time>2025-08-02T08:18:49.999000Z</time>
      </trkpt>
      <trkpt lat="35.67484248071888" lon="139.78823806687967">
        <ele>5.741850684396923</ele>
        <time>2025-08-02T08:18:53.999000Z</time>
      </trkpt>
      <trkpt lat="35.67493518224508" lon="139.78822007365065">
        <ele>5.968781000003219</ele>
        <time>2025-08-02T08:18:58Z</time>
      </trkpt>
      <trkpt lat="35.675025093803626" lon="139.78819822039307">
        <ele>5.971506901085377</ele>
        <time>2025-08-02T08:19:02Z</time>
      </trkpt>
      <trkpt lat="35.67511688408001" lon="139.78822159991958">
        <ele>6.035645761527121</ele>
        <time>2025-08-02T08:19:06Z</time>
      </trkpt>
      <trkpt lat="35.67521288164846" lon="139.78823788141435">
        <ele>5.904474074020982</ele>
        <time>2025-08-02T08:19:09Z</time>
      </trkpt>
      <trkpt lat="35.67531323922719" lon="139.7882755721771">
        <ele>5.917887386865914</ele>
        <time>2025-08-02T08:19:14Z</time>
      </trkpt>
      <trkpt lat="35.67541364979316" lon="139.78827253869244">
        <ele>6.184439631178975</ele>
        <time>2025-08-02T08:19:18Z</time>
      </trkpt>
      <trkpt lat="35.67551069152959" lon="139.78829612324236">
        <ele>5.742342113517225</ele>
        <time>2025-08-02T08:19:22.001000Z</time>
      </trkpt>
      <trkpt lat="35.67562184735461" lon="139.78832133167367">
        <ele>5.813818625174463</ele>
        <time>2025-08-02T08:19:27.001000Z</time>
      </trkpt>
      <trkpt lat="35.67573506428746" lon="139.78834462068852">
        <ele>6.061213059350848</ele>
        <time>2025-08-02T08:19:32.001000Z</time>
      </trkpt>
      <trkpt lat="35.67583450063763" lon="139.7883691828134">
        <ele>6.430683926679194</ele>
        <time>2025-08-02T08:19:36.001000Z</time>
      </trkpt>
      <trkpt lat="35.67592289268949" lon="139.7884009690534">
        <ele>6.782903251238167</ele>
        <time>2025-08-02T08:19:40.001000Z</time>
      </trkpt>
      <trkpt lat="35.676032376020004" lon="139.78844578596215">
        <ele>6.143680005334318</ele>
        <time>2025-08-02T08:19:45.001000Z</time>
      </trkpt>
      <trkpt lat="35.67612597072993" lon="139.78851297184826">
        <ele>6.472595540806651</ele>
        <time>2025-08-02T08:19:49.001000Z</time>
      </trkpt>
      <trkpt lat="35.67622276099724" lon="139.78853652325998">
        <ele>6.211641853675246</ele>
        <time>2025-08-02T08:19:52.001000Z</time>
      </trkpt>
      <trkpt lat="35.67632048627705" lon="139.78849455360597">
        <ele>6.356466901488602</ele>
        <time>2025-08-02T08:19:56.002000Z</time>
      </trkpt>
      <trkpt lat="35.6764139167405" lon="139.78851241498043">
        <ele>6.253524581901729</ele>
        <time>2025-08-02T08:20:01.002000Z</time>
      </trkpt>
      <trkpt lat="35.67649838561029" lon="139.78855530818217">
        <ele>6.604856961406767</ele>
        <time>2025-08-02T08:20:05.002000Z</time>
      </trkpt>
      <trkpt lat="35.676589356566204" lon="139.78856148548982">
        <ele>5.8141078827902675</ele>
        <time>2025-08-02T08:20:08.002000Z</time>
      </trkpt>
      <trkpt lat="35.67668293325501" lon="139.78860363357964">
        <ele>6.164876526221633</ele>
        <time>2025-08-02T08:20:12.002000Z</time>
      </trkpt>
      <trkpt lat="35.67677436928042" lon="139.788619342595">
        <ele>5.704642889089882</ele>
        <time>2025-08-02T08:20:16.002000Z</time>
      </trkpt>
      <trkpt lat="35.676871560378316" lon="139.7886661639487">
        <ele>6.9413951160386205</ele>
        <time>2025-08-02T08:20:21.002000Z</time>
      </trkpt>
      <trkpt lat="35.67697779202758" lon="139.78870723531142">
        <ele>6.22540211584419</ele>
        <time>2025-08-02T08:20:25.002000Z</time>
      </trkpt>
      <trkpt lat="35.67706037963247" lon="139.78877330870378">
        <ele>6.306429393589497</ele>
        <time>2025-08-02T08:20:29.003000Z</time>
      </trkpt>
      <trkpt lat="35.67714974477908" lon="139.78882933445993">
        <ele>6.8913763333112</ele>
        <time>2025-08-02T08:20:33.003000Z</time>
      </trkpt>
      <trkpt lat="35.67725897069352" lon="139.78888334222978">
        <ele>6.942674545571208</ele>
        <time>2025-08-02T08:20:38.003000Z</time>
      </trkpt>
      <trkpt lat="35.67734575382252" lon="139.78893347950196">
        <ele>6.664930661208928</ele>
        <time>2025-08-02T08:20:42.003000Z</time>
      </trkpt>
      <trkpt lat="35.67742823336152" lon="139.78900272429996">
        <ele>6.407915623858571</ele>
        <time>2025-08-02T08:20:46Z</time>
      </trkpt>
      <trkpt lat="35.67752473532433" lon="139.78906788593122">
        <ele>6.402739834040403</ele>
        <time>2025-08-02T08:20:51Z</time>
      </trkpt>
      <trkpt lat="35.677609627612036" lon="139.78912995612058">
        <ele>7.664548144675791</ele>
        <time>2025-08-02T08:20:55Z</time>
      </trkpt>
      <trkpt lat="35.67769344971165" lon="139.78918548832985">
        <ele>6.873756821267307</ele>
        <time>2025-08-02T08:20:59Z</time>
      </trkpt>
      <trkpt lat="35.67777562578082" lon="139.78924676946207">
        <ele>6.355276465415955</ele>
        <time>2025-08-02T08:21:03Z</time>
      </trkpt>
      <trkpt lat="35.67825873317356" lon="139.78961492827005">
        <ele>3.1649020556360483</ele>
        <time>2025-08-02T08:30:18.001000Z</time>
      </trkpt>
      <trkpt lat="35.678367380003344" lon="139.78967910283654">
        <ele>4.829794990830123</ele>
        <time>2025-08-02T08:30:23.002000Z</time>
      </trkpt>
      <trkpt lat="35.67847982143339" lon="139.7896955719076">
        <ele>6.5832374766469</ele>
        <time>2025-08-02T08:30:27.002000Z</time>
      </trkpt>
      <trkpt lat="35.67857233892642" lon="139.78971740954455">
        <ele>8.009629476815462</ele>
        <time>2025-08-02T08:30:30.002000Z</time>
      </trkpt>
      <trkpt lat="35.67865320526332" lon="139.78981843550156">
        <ele>9.175809971056879</ele>
        <time>2025-08-02T08:30:34.002000Z</time>
      </trkpt>
      <trkpt lat="35.6789366369348" lon="139.78997857974403">
        <ele>10.248693053610623</ele>
        <time>2025-08-02T08:30:52.002000Z</time>
      </trkpt>
      <trkpt lat="35.67901714005461" lon="139.7900777965177">
        <ele>8.740706328302622</ele>
        <time>2025-08-02T08:30:56.003000Z</time>
      </trkpt>
      <trkpt lat="35.67910378645576" lon="139.79013063458254">
        <ele>7.154515379108489</ele>
        <time>2025-08-02T08:31:00.003000Z</time>
      </trkpt>
      <trkpt lat="35.679185800617624" lon="139.790217542225">
        <ele>6.963449290022254</ele>
        <time>2025-08-02T08:31:04.003000Z</time>
      </trkpt>
      <trkpt lat="35.67929090434339" lon="139.79028620573573">
        <ele>6.628130799159408</ele>
        <time>2025-08-02T08:31:08.003000Z</time>
      </trkpt>
      <trkpt lat="35.679392555749466" lon="139.79033927600432">
        <ele>6.071108831092715</ele>
        <time>2025-08-02T08:31:12.003000Z</time>
      </trkpt>
      <trkpt lat="35.679480526555025" lon="139.7904089320664">
        <ele>6.0584322940558195</ele>
        <time>2025-08-02T08:31:23.999000Z</time>
      </trkpt>
      <trkpt lat="35.67957599935523" lon="139.79046973433864">
        <ele>5.278989864513278</ele>
        <time>2025-08-02T08:31:27.999000Z</time>
      </trkpt>
      <trkpt lat="35.679663835608096" lon="139.79051910524205">
        <ele>6.043844113126397</ele>
        <time>2025-08-02T08:31:31.999000Z</time>
      </trkpt>
      <trkpt lat="35.679750270729265" lon="139.79058320422513">
        <ele>5.961690983735025</ele>
        <time>2025-08-02T08:31:37Z</time>
      </trkpt>
      <trkpt lat="35.67982325233753" lon="139.79066193692097">
        <ele>5.217224229127169</ele>
        <time>2025-08-02T08:31:42Z</time>
      </trkpt>
      <trkpt lat="35.67989554434884" lon="139.79074589373684">
        <ele>4.953428941778839</ele>
        <time>2025-08-02T08:31:47Z</time>
      </trkpt>
      <trkpt lat="35.67999514252751" lon="139.7908125992097">
        <ele>5.338455402292311</ele>
        <time>2025-08-02T08:31:51Z</time>
      </trkpt>
      <trkpt lat="35.68009516834522" lon="139.79087716712002">
        <ele>6.1731898477301</ele>
        <time>2025-08-02T08:31:55.001000Z</time>
      </trkpt>
      <trkpt lat="35.680183206480876" lon="139.79094503170646">
        <ele>6.526692282408476</ele>
        <time>2025-08-02T08:31:59.001000Z</time>
      </trkpt>
      <trkpt lat="35.68027043272533" lon="139.79100915075952">
        <ele>7.166051375679672</ele>
        <time>2025-08-02T08:32:03.001000Z</time>
      </trkpt>
      <trkpt lat="35.68034695443559" lon="139.79109603084927">
        <ele>5.98331340495497</ele>
        <time>2025-08-02T08:32:07.001000Z</time>
      </trkpt>
      <trkpt lat="35.68042730896831" lon="139.7911583978395">
        <ele>6.5052038710564375</ele>
        <time>2025-08-02T08:32:11.001000Z</time>
      </trkpt>
      <trkpt lat="35.68052299554706" lon="139.79123032031305">
        <ele>7.472177131101489</ele>
        <time>2025-08-02T08:32:15.001000Z</time>
      </trkpt>
      <trkpt lat="35.68060886366004" lon="139.79129088655932">
        <ele>6.057802560739219</ele>
        <time>2025-08-02T08:32:19.001000Z</time>
      </trkpt>
      <trkpt lat="35.680711464847704" lon="139.79134553435517">
        <ele>6.421863358467817</ele>
        <time>2025-08-02T08:32:23.002000Z</time>
      </trkpt>
      <trkpt lat="35.680797930442246" lon="139.79142571595438">
        <ele>5.569157676771283</ele>
        <time>2025-08-02T08:32:27.002000Z</time>
      </trkpt>
      <trkpt lat="35.680868590058296" lon="139.7915026265965">
        <ele>6.029417673125863</ele>
        <time>2025-08-02T08:32:31.002000Z</time>
      </trkpt>
      <trkpt lat="35.68094361076022" lon="139.791572393899">
        <ele>6.431266840547323</ele>
        <time>2025-08-02T08:32:34.002000Z</time>
      </trkpt>
      <trkpt lat="35.6810178370131" lon="139.7916553874358">
        <ele>6.367867190390825</ele>
        <time>2025-08-02T08:32:39.002000Z</time>
      </trkpt>
      <trkpt lat="35.68110194669492" lon="139.79173664623048">
        <ele>7.074517196975648</ele>
        <time>2025-08-02T08:32:43.002000Z</time>
      </trkpt>
      <trkpt lat="35.681171786067786" lon="139.79182219995306">
        <ele>6.500850712880492</ele>
        <time>2025-08-02T08:32:48.002000Z</time>
      </trkpt>
      <trkpt lat="35.68124421489628" lon="139.79191625884076">
        <ele>6.574370094574988</ele>
        <time>2025-08-02T08:32:53.002000Z</time>
      </trkpt>
      <trkpt lat="35.681305828639985" lon="139.79201355486694">
        <ele>6.8629125114530325</ele>
        <time>2025-08-02T08:32:58.003000Z</time>
      </trkpt>
      <trkpt lat="35.68140637069803" lon="139.79209853243916">
        <ele>6.331982206553221</ele>
        <time>2025-08-02T08:33:03.003000Z</time>
      </trkpt>
      <trkpt lat="35.681498779504736" lon="139.79216173015575">
        <ele>5.629580149427056</ele>
        <time>2025-08-02T08:33:07.003000Z</time>
      </trkpt>
      <trkpt lat="35.68159246454663" lon="139.79223926559652">
        <ele>6.016453110612929</ele>
        <time>2025-08-02T08:33:11.003000Z</time>
      </trkpt>
      <trkpt lat="35.68166822988219" lon="139.7923333291336">
        <ele>6.171724842861295</ele>
        <time>2025-08-02T08:33:15.003000Z</time>
      </trkpt>
      <trkpt lat="35.681764736260924" lon="139.79239242484482">
        <ele>5.6703856959939</ele>
        <time>2025-08-02T08:33:19.003000Z</time>
      </trkpt>
      <trkpt lat="35.68184525616631" lon="139.7924540502994">
        <ele>5.08085507992655</ele>
        <time>2025-08-02T08:33:23Z</time>
      </trkpt>
      <trkpt lat="35.68193587237059" lon="139.79253520465184">
        <ele>6.335458213463426</ele>
        <time>2025-08-02T08:33:27Z</time>
      </trkpt>
      <trkpt lat="35.68201447724921" lon="139.792623502357">
        <ele>5.777660036459565</ele>
        <time>2025-08-02T08:33:32Z</time>
      </trkpt>
      <trkpt lat="35.68211220142227" lon="139.79266982840736">
        <ele>6.804221527650952</ele>
        <time>2025-08-02T08:33:38Z</time>
      </trkpt>
      <trkpt lat="35.68220987215928" lon="139.79273386067786">
        <ele>6.80113291554153</ele>
        <time>2025-08-02T08:33:41Z</time>
      </trkpt>
      <trkpt lat="35.68229912995505" lon="139.79281970662655">
        <ele>7.202131502330303</ele>
        <time>2025-08-02T08:33:45Z</time>
      </trkpt>
      <trkpt lat="35.68237640996634" lon="139.79288854390654">
        <ele>7.243694357573986</ele>
        <time>2025-08-02T08:33:49Z</time>
      </trkpt>
      <trkpt lat="35.68245572362068" lon="139.79295831043888">
        <ele>7.008020975627005</ele>
        <time>2025-08-02T08:33:53.001000Z</time>
      </trkpt>
      <trkpt lat="35.68252419164802" lon="139.79305223538688">
        <ele>6.757766454480588</ele>
        <time>2025-08-02T08:33:57.001000Z</time>
      </trkpt>
      <trkpt lat="35.682612815520166" lon="139.7931162791718">
        <ele>6.383444683626294</ele>
        <time>2025-08-02T08:34:01.001000Z</time>
      </trkpt>
      <trkpt lat="35.6827078961304" lon="139.7931668278221">
        <ele>5.7155833169817924</ele>
        <time>2025-08-02T08:34:05.001000Z</time>
      </trkpt>
      <trkpt lat="35.682799634753636" lon="139.7932175915255">
        <ele>5.9528543166816235</ele>
        <time>2025-08-02T08:34:09.001000Z</time>
      </trkpt>
      <trkpt lat="35.68290004027728" lon="139.7932735636826">
        <ele>6.474502279423177</ele>
        <time>2025-08-02T08:34:13.001000Z</time>
      </trkpt>
      <trkpt lat="35.6829847066215" lon="139.79332817708354">
        <ele>6.264402571134269</ele>
        <time>2025-08-02T08:34:17.001000Z</time>
      </trkpt>
      <trkpt lat="35.68306289636986" lon="139.7934088842572">
        <ele>6.180454175919294</ele>
        <time>2025-08-02T08:34:21.001000Z</time>
      </trkpt>
      <trkpt lat="35.6831237681316" lon="139.79350119714348">
        <ele>6.08672015927732</ele>
        <time>2025-08-02T08:34:25.002000Z</time>
      </trkpt>
      <trkpt lat="35.6831892009041" lon="139.79359128772677">
        <ele>6.703064817935228</ele>
        <time>2025-08-02T08:34:29.002000Z</time>
      </trkpt>
      <trkpt lat="35.683228888022846" lon="139.7937228615522">
        <ele>6.580695036798716</ele>
        <time>2025-08-02T08:34:34.002000Z</time>
      </trkpt>
      <trkpt lat="35.68324311879461" lon="139.79386241014075">
        <ele>6.2159427078440785</ele>
        <time>2025-08-02T08:34:39.002000Z</time>
      </trkpt>
      <trkpt lat="35.683252931650465" lon="139.7939875652694">
        <ele>5.752840687520802</ele>
        <time>2025-08-02T08:34:43.002000Z</time>
      </trkpt>
      <trkpt lat="35.68326900932744" lon="139.79412729481095">
        <ele>6.741297231987119</ele>
        <time>2025-08-02T08:34:48.002000Z</time>
      </trkpt>
      <trkpt lat="35.68328332643847" lon="139.7942493634786">
        <ele>6.663436597213149</ele>
        <time>2025-08-02T08:34:53.002000Z</time>
      </trkpt>
      <trkpt lat="35.683283498261524" lon="139.79437388981773">
        <ele>7.330755211412907</ele>
        <time>2025-08-02T08:34:57.002000Z</time>
      </trkpt>
      <trkpt lat="35.6836618529965" lon="139.79416874250379">
        <ele>6.242607116699219</ele>
        <time>2025-08-02T08:37:09.001000Z</time>
      </trkpt>
      <trkpt lat="35.683684520238195" lon="139.79405457793408">
        <ele>4.843132317997515</ele>
        <time>2025-08-02T08:37:15.001000Z</time>
      </trkpt>
      <trkpt lat="35.68371629377229" lon="139.79392936438384">
        <ele>5.794792682863772</ele>
        <time>2025-08-02T08:37:19Z</time>
      </trkpt>
      <trkpt lat="35.6837751067038" lon="139.7938402600099">
        <ele>6.499626642093062</ele>
        <time>2025-08-02T08:37:23Z</time>
      </trkpt>
      <trkpt lat="35.68387434293063" lon="139.79378322633167">
        <ele>6.5886769481003284</ele>
        <time>2025-08-02T08:37:28.001000Z</time>
      </trkpt>
      <trkpt lat="35.68397343097816" lon="139.79375373726043">
        <ele>6.205376295372844</ele>
        <time>2025-08-02T08:37:32.001000Z</time>
      </trkpt>
      <trkpt lat="35.684078891300196" lon="139.79376062555042">
        <ele>6.069213087670505</ele>
        <time>2025-08-02T08:37:38.001000Z</time>
      </trkpt>
      <trkpt lat="35.68417549227206" lon="139.7937751111758">
        <ele>6.342987645417452</ele>
        <time>2025-08-02T08:37:42.001000Z</time>
      </trkpt>
      <trkpt lat="35.68427157208802" lon="139.7938041429291">
        <ele>6.7059028800576925</ele>
        <time>2025-08-02T08:37:46.001000Z</time>
      </trkpt>
      <trkpt lat="35.68437531880168" lon="139.79383029076948">
        <ele>6.142473637126386</ele>
        <time>2025-08-02T08:37:50.001000Z</time>
      </trkpt>
      <trkpt lat="35.68447260794489" lon="139.79385900055559">
        <ele>6.923254559747875</ele>
        <time>2025-08-02T08:37:54.001000Z</time>
      </trkpt>
      <trkpt lat="35.68456425334044" lon="139.79384966217734">
        <ele>6.966150397434831</ele>
        <time>2025-08-02T08:37:58.001000Z</time>
      </trkpt>
      <trkpt lat="35.68466574096304" lon="139.79383699574146">
        <ele>7.080786084756255</ele>
        <time>2025-08-02T08:38:02.001000Z</time>
      </trkpt>
      <trkpt lat="35.68475492758757" lon="139.79385347156415">
        <ele>6.960602743551135</ele>
        <time>2025-08-02T08:38:06.001000Z</time>
      </trkpt>
      <trkpt lat="35.68485237770313" lon="139.79384814034265">
        <ele>6.590378493070602</ele>
        <time>2025-08-02T08:38:10.001000Z</time>
      </trkpt>
      <trkpt lat="35.68494622806436" lon="139.79385115582824">
        <ele>6.385562337934971</ele>
        <time>2025-08-02T08:38:15.002000Z</time>
      </trkpt>
      <trkpt lat="35.68504150318972" lon="139.79382146950928">
        <ele>5.472976798191667</ele>
        <time>2025-08-02T08:38:19.002000Z</time>
      </trkpt>
      <trkpt lat="35.68513427009082" lon="139.79382953374358">
        <ele>5.885230937972665</ele>
        <time>2025-08-02T08:38:23.002000Z</time>
      </trkpt>
      <trkpt lat="35.68523799714348" lon="139.79383129960627">
        <ele>6.095041153952479</ele>
        <time>2025-08-02T08:38:27.002000Z</time>
      </trkpt>
      <trkpt lat="35.68533686456826" lon="139.79384432965577">
        <ele>6.511744095943868</ele>
        <time>2025-08-02T08:38:31.002000Z</time>
      </trkpt>
      <trkpt lat="35.685449027161766" lon="139.7938557234995">
        <ele>5.828309797681868</ele>
        <time>2025-08-02T08:38:35.002000Z</time>
      </trkpt>
      <trkpt lat="35.68555258394589" lon="139.79384011137634">
        <ele>5.97162370570004</ele>
        <time>2025-08-02T08:38:39.002000Z</time>
      </trkpt>
      <trkpt lat="35.68565131175227" lon="139.79382090780396">
        <ele>6.12618381716311</ele>
        <time>2025-08-02T08:38:42.002000Z</time>
      </trkpt>
      <trkpt lat="35.685757611006316" lon="139.7938308663996">
        <ele>5.112907405011356</ele>
        <time>2025-08-02T08:38:46.002000Z</time>
      </trkpt>
      <trkpt lat="35.68586129997968" lon="139.7937962276995">
        <ele>5.743770743720233</ele>
        <time>2025-08-02T08:38:50.002000Z</time>
      </trkpt>
      <trkpt lat="35.68595955997792" lon="139.79375755800027">
        <ele>5.722637816332281</ele>
        <time>2025-08-02T08:38:54.002000Z</time>
      </trkpt>
      <trkpt lat="35.686063739831766" lon="139.79373790574877">
        <ele>5.566904241219163</ele>
        <time>2025-08-02T08:38:58.003000Z</time>
      </trkpt>
      <trkpt lat="35.686168126998716" lon="139.7936967831598">
        <ele>5.5417603543028235</ele>
        <time>2025-08-02T08:39:02.003000Z</time>
      </trkpt>
      <trkpt lat="35.686269585279135" lon="139.79365749707452">
        <ele>5.157378942705691</ele>
        <time>2025-08-02T08:39:06.003000Z</time>
      </trkpt>
      <trkpt lat="35.686362122454184" lon="139.79362785493916">
        <ele>5.375878704711795</ele>
        <time>2025-08-02T08:39:10.003000Z</time>
      </trkpt>
      <trkpt lat="35.686454804166296" lon="139.79357250858956">
        <ele>4.63833714555949</ele>
        <time>2025-08-02T08:39:14.001000Z</time>
      </trkpt>
      <trkpt lat="35.68655569358548" lon="139.79354216002903">
        <ele>5.041889409534633</ele>
        <time>2025-08-02T08:39:18.001000Z</time>
      </trkpt>
      <trkpt lat="35.68666970351758" lon="139.79353985359043">
        <ele>5.408033919520676</ele>
        <time>2025-08-02T08:39:22.001000Z</time>
      </trkpt>
      <trkpt lat="35.686766405375096" lon="139.79350445419976">
        <ele>5.001207618974149</ele>
        <time>2025-08-02T08:39:26.001000Z</time>
      </trkpt>
      <trkpt lat="35.68685405522637" lon="139.79343541608807">
        <ele>5.78560056257993</ele>
        <time>2025-08-02T08:39:30.001000Z</time>
      </trkpt>
      <trkpt lat="35.68695807857403" lon="139.79338598593006">
        <ele>6.23167706746608</ele>
        <time>2025-08-02T08:39:34.001000Z</time>
      </trkpt>
      <trkpt lat="35.68704788231567" lon="139.79333574808547">
        <ele>6.099479480646551</ele>
        <time>2025-08-02T08:39:38.001000Z</time>
      </trkpt>
      <trkpt lat="35.68714017121255" lon="139.79329166857337">
        <ele>6.325616869144142</ele>
        <time>2025-08-02T08:39:42.001000Z</time>
      </trkpt>
      <trkpt lat="35.68723542299353" lon="139.7932167932711">
        <ele>6.182942295446992</ele>
        <time>2025-08-02T08:39:46.001000Z</time>
      </trkpt>
      <trkpt lat="35.68731998685941" lon="139.79315581422438">
        <ele>5.22460846696049</ele>
        <time>2025-08-02T08:39:50.001000Z</time>
      </trkpt>
      <trkpt lat="35.68742997541682" lon="139.79309889747609">
        <ele>5.479754568077624</ele>
        <time>2025-08-02T08:39:55.001000Z</time>
      </trkpt>
      <trkpt lat="35.687529376536055" lon="139.79305133255835">
        <ele>6.111757553182542</ele>
        <time>2025-08-02T08:40:00.001000Z</time>
      </trkpt>
      <trkpt lat="35.68760024144504" lon="139.79297219419843">
        <ele>5.199479232542217</ele>
        <time>2025-08-02T08:40:04.001000Z</time>
      </trkpt>
      <trkpt lat="35.68768146892102" lon="139.7928900237638">
        <ele>6.686741157434881</ele>
        <time>2025-08-02T08:40:08.001000Z</time>
      </trkpt>
      <trkpt lat="35.68777858041881" lon="139.7928461121156">
        <ele>6.6636637365445495</ele>
        <time>2025-08-02T08:40:14.001000Z</time>
      </trkpt>
      <trkpt lat="35.68784712413804" lon="139.7927708559819">
        <ele>6.925964710302651</ele>
        <time>2025-08-02T08:40:17.001000Z</time>
      </trkpt>
      <trkpt lat="35.68791988674412" lon="139.79268071341033">
        <ele>6.883305976167321</ele>
        <time>2025-08-02T08:40:20.002000Z</time>
      </trkpt>
      <trkpt lat="35.68802073367325" lon="139.79264684420295">
        <ele>7.140626261942089</ele>
        <time>2025-08-02T08:40:24.002000Z</time>
      </trkpt>
      <trkpt lat="35.68809601531394" lon="139.79257615377833">
        <ele>6.287839284166694</ele>
        <time>2025-08-02T08:40:28.002000Z</time>
      </trkpt>
      <trkpt lat="35.68817888771651" lon="139.79251139169955">
        <ele>6.922194413840771</ele>
        <time>2025-08-02T08:40:32.002000Z</time>
      </trkpt>
      <trkpt lat="35.688264970743695" lon="139.79243021359002">
        <ele>6.114464112557471</ele>
        <time>2025-08-02T08:40:36.002000Z</time>
      </trkpt>
      <trkpt lat="35.688344971192315" lon="139.79234265697806">
        <ele>6.112799544818699</ele>
        <time>2025-08-02T08:40:40.002000Z</time>
      </trkpt>
      <trkpt lat="35.68842384655824" lon="139.79227209587344">
        <ele>6.335050794295967</ele>
        <time>2025-08-02T08:40:44.002000Z</time>
      </trkpt>
      <trkpt lat="35.68850762177878" lon="139.79221812903205">
        <ele>6.39883756544441</ele>
        <time>2025-08-02T08:40:48.002000Z</time>
      </trkpt>
      <trkpt lat="35.68858394445623" lon="139.79212427781738">
        <ele>6.593439532443881</ele>
        <time>2025-08-02T08:40:52.002000Z</time>
      </trkpt>
      <trkpt lat="35.6886668925544" lon="139.79206711695056">
        <ele>6.002540642395616</ele>
        <time>2025-08-02T08:40:56.002000Z</time>
      </trkpt>
      <trkpt lat="35.688735624143845" lon="139.79199064835302">
        <ele>5.9354427345097065</ele>
        <time>2025-08-02T08:41:00.002000Z</time>
      </trkpt>
      <trkpt lat="35.68882315875234" lon="139.79189749050906">
        <ele>5.663685388863087</ele>
        <time>2025-08-02T08:41:05.002000Z</time>
      </trkpt>
      <trkpt lat="35.68890547604282" lon="139.7918367022022">
        <ele>6.904153405688703</ele>
        <time>2025-08-02T08:41:09.003000Z</time>
      </trkpt>
      <trkpt lat="35.68899379974911" lon="139.79177568120048">
        <ele>6.676506514661014</ele>
        <time>2025-08-02T08:41:13.003000Z</time>
      </trkpt>
      <trkpt lat="35.68907221135882" lon="139.79169849048407">
        <ele>7.811625865288079</ele>
        <time>2025-08-02T08:41:17.003000Z</time>
      </trkpt>
      <trkpt lat="35.68914904188675" lon="139.79162799455244">
        <ele>6.2842102367430925</ele>
        <time>2025-08-02T08:41:21.001000Z</time>
      </trkpt>
      <trkpt lat="35.68921276238931" lon="139.79153534140818">
        <ele>6.758787230588496</ele>
        <time>2025-08-02T08:41:25.001000Z</time>
      </trkpt>
      <trkpt lat="35.689298274543994" lon="139.79147316269072">
        <ele>5.511434219777584</ele>
        <time>2025-08-02T08:41:29.001000Z</time>
      </trkpt>
      <trkpt lat="35.68938582136731" lon="139.79141038915918">
        <ele>6.091940919868648</ele>
        <time>2025-08-02T08:41:33.001000Z</time>
      </trkpt>
      <trkpt lat="35.68944667292637" lon="139.79130157693695">
        <ele>6.423915685154498</ele>
        <time>2025-08-02T08:41:37.001000Z</time>
      </trkpt>
      <trkpt lat="35.68953694435348" lon="139.7912173069507">
        <ele>6.483587879687548</ele>
        <time>2025-08-02T08:41:42.001000Z</time>
      </trkpt>
      <trkpt lat="35.6896256129936" lon="139.79113834910612">
        <ele>6.16404961515218</ele>
        <time>2025-08-02T08:41:47.001000Z</time>
      </trkpt>
      <trkpt lat="35.68969831974359" lon="139.79106878623202">
        <ele>5.6404875591397285</ele>
        <time>2025-08-02T08:41:51.001000Z</time>
      </trkpt>
      <trkpt lat="35.68977912326493" lon="139.7910124053614">
        <ele>5.585813185200095</ele>
        <time>2025-08-02T08:41:56.001000Z</time>
      </trkpt>
      <trkpt lat="35.68986949310096" lon="139.79095720346592">
        <ele>5.530626652762294</ele>
        <time>2025-08-02T08:42:01.001000Z</time>
      </trkpt>
      <trkpt lat="35.68994245422173" lon="139.79087153307452">
        <ele>5.349788160994649</ele>
        <time>2025-08-02T08:42:06.001000Z</time>
      </trkpt>
      <trkpt lat="35.690017038254034" lon="139.79080429186243">
        <ele>6.659865329042077</ele>
        <time>2025-08-02T08:42:09.001000Z</time>
      </trkpt>
      <trkpt lat="35.690117785901066" lon="139.7907723654374">
        <ele>5.623860553838313</ele>
        <time>2025-08-02T08:42:14.001000Z</time>
      </trkpt>
      <trkpt lat="35.69020867318496" lon="139.7907660280676">
        <ele>3.9329192899167538</ele>
        <time>2025-08-02T08:42:18.001000Z</time>
      </trkpt>
      <trkpt lat="35.690300822149204" lon="139.79065855648008">
        <ele>4.115810930728912</ele>
        <time>2025-08-02T08:42:22.001000Z</time>
      </trkpt>
      <trkpt lat="35.690403925085946" lon="139.7905440526011">
        <ele>5.663475806824863</ele>
        <time>2025-08-02T08:42:27.002000Z</time>
      </trkpt>
      <trkpt lat="35.6904634672628" lon="139.7904594153092">
        <ele>6.119426342658699</ele>
        <time>2025-08-02T08:42:30.002000Z</time>
      </trkpt>
      <trkpt lat="35.69055947858295" lon="139.79040767272406">
        <ele>5.99962340015918</ele>
        <time>2025-08-02T08:42:34.002000Z</time>
      </trkpt>
      <trkpt lat="35.69064123948896" lon="139.790316151606">
        <ele>6.361957692541182</ele>
        <time>2025-08-02T08:42:38.002000Z</time>
      </trkpt>
      <trkpt lat="35.69073438177446" lon="139.79025710218656">
        <ele>7.152356849052012</ele>
        <time>2025-08-02T08:42:43.002000Z</time>
      </trkpt>
      <trkpt lat="35.69082283080055" lon="139.7901864329454">
        <ele>7.421325138770044</ele>
        <time>2025-08-02T08:42:47.002000Z</time>
      </trkpt>
      <trkpt lat="35.69090722986493" lon="139.7901311402189">
        <ele>7.5728224497288465</ele>
        <time>2025-08-02T08:42:51.002000Z</time>
      </trkpt>
      <trkpt lat="35.690996430212245" lon="139.79009380304865">
        <ele>8.3521872414276</ele>
        <time>2025-08-02T08:42:55.002000Z</time>
      </trkpt>
      <trkpt lat="35.691080112346135" lon="139.79004833558318">
        <ele>9.1954573886469</ele>
        <time>2025-08-02T08:42:59.002000Z</time>
      </trkpt>
      <trkpt lat="35.691179163291324" lon="139.7900058575183">
        <ele>9.720906311646104</ele>
        <time>2025-08-02T08:43:04.002000Z</time>
      </trkpt>
      <trkpt lat="35.691272012647374" lon="139.78996100948126">
        <ele>9.561794517561793</ele>
        <time>2025-08-02T08:43:10.002000Z</time>
      </trkpt>
      <trkpt lat="35.691392192770664" lon="139.78996289643706">
        <ele>7.983987036161125</ele>
        <time>2025-08-02T08:43:16.002000Z</time>
      </trkpt>
      <trkpt lat="35.69149690711531" lon="139.79002646242805">
        <ele>8.726930115371943</ele>
        <time>2025-08-02T08:43:20.002000Z</time>
      </trkpt>
      <trkpt lat="35.6916235682638" lon="139.79005614012385">
        <ele>9.422626867890358</ele>
        <time>2025-08-02T08:43:25.001000Z</time>
      </trkpt>
      <trkpt lat="35.691728750762785" lon="139.7900260932383">
        <ele>9.030837613157928</ele>
        <time>2025-08-02T08:43:29.001000Z</time>
      </trkpt>
      <trkpt lat="35.69182918634365" lon="139.789993492142">
        <ele>9.65518802125007</ele>
        <time>2025-08-02T08:43:33.001000Z</time>
      </trkpt>
      <trkpt lat="35.691929005503425" lon="139.789983735785">
        <ele>9.883850811980665</ele>
        <time>2025-08-02T08:43:37Z</time>
      </trkpt>
      <trkpt lat="35.691997564693935" lon="139.78990620355367">
        <ele>7.298949480988085</ele>
        <time>2025-08-02T08:43:42Z</time>
      </trkpt>
      <trkpt lat="35.69207581444892" lon="139.78983598038988">
        <ele>5.025283934548497</ele>
        <time>2025-08-02T08:43:47.001000Z</time>
      </trkpt>
      <trkpt lat="35.69215248512456" lon="139.7897652926912">
        <ele>5.2972268322482705</ele>
        <time>2025-08-02T08:43:51.001000Z</time>
      </trkpt>
      <trkpt lat="35.69224223989027" lon="139.7897265467491">
        <ele>5.873237606137991</ele>
        <time>2025-08-02T08:43:54.001000Z</time>
      </trkpt>
      <trkpt lat="35.69235569527531" lon="139.78967418766376">
        <ele>7.320398206822574</ele>
        <time>2025-08-02T08:43:58.001000Z</time>
      </trkpt>
      <trkpt lat="35.69246623570645" lon="139.78960360785862">
        <ele>7.1476351814344525</ele>
        <time>2025-08-02T08:44:02.001000Z</time>
      </trkpt>
      <trkpt lat="35.69256623963168" lon="139.78958267569436">
        <ele>7.705004991963506</ele>
        <time>2025-08-02T08:44:06.001000Z</time>
      </trkpt>
      <trkpt lat="35.692651717710184" lon="139.78951762252498">
        <ele>8.54717081785202</ele>
        <time>2025-08-02T08:44:09.001000Z</time>
      </trkpt>
      <trkpt lat="35.692750935715736" lon="139.78943703073546">
        <ele>9.464460646733642</ele>
        <time>2025-08-02T08:44:13.001000Z</time>
      </trkpt>
      <trkpt lat="35.69283876090282" lon="139.78939871393794">
        <ele>9.070119049400091</ele>
        <time>2025-08-02T08:44:16.001000Z</time>
      </trkpt>
      <trkpt lat="35.69293848495585" lon="139.78942289739908">
        <ele>9.877412565983832</ele>
        <time>2025-08-02T08:44:20.001000Z</time>
      </trkpt>
      <trkpt lat="35.69304629730799" lon="139.7893995906358">
        <ele>9.82349418476224</ele>
        <time>2025-08-02T08:44:25.001000Z</time>
      </trkpt>
      <trkpt lat="35.693150941923435" lon="139.78940053873188">
        <ele>9.948462666012347</ele>
        <time>2025-08-02T08:44:30.001000Z</time>
      </trkpt>
      <trkpt lat="35.693246548988" lon="139.78946361241975">
        <ele>9.072297904640436</ele>
        <time>2025-08-02T08:44:34.001000Z</time>
      </trkpt>
      <trkpt lat="35.693359920645975" lon="139.7894585350746">
        <ele>8.899793110787868</ele>
        <time>2025-08-02T08:44:39.001000Z</time>
      </trkpt>
      <trkpt lat="35.69346583808707" lon="139.78944520497322">
        <ele>8.855978967621922</ele>
        <time>2025-08-02T08:44:43.001000Z</time>
      </trkpt>
      <trkpt lat="35.693572090525905" lon="139.78945310594108">
        <ele>8.423027079552412</ele>
        <time>2025-08-02T08:44:48.001000Z</time>
      </trkpt>
      <trkpt lat="35.693685461762" lon="139.78944536425215">
        <ele>8.223627150058746</ele>
        <time>2025-08-02T08:44:53.002000Z</time>
      </trkpt>
      <trkpt lat="35.69378866628711" lon="139.78944472741267">
        <ele>8.434911722317338</ele>
        <time>2025-08-02T08:44:57.002000Z</time>
      </trkpt>
      <trkpt lat="35.69387632600842" lon="139.78947688964718">
        <ele>7.072576277889311</ele>
        <time>2025-08-02T08:45:01.002000Z</time>
      </trkpt>
      <trkpt lat="35.693982613143255" lon="139.78951484831137">
        <ele>6.960165874101222</ele>
        <time>2025-08-02T08:45:06.002000Z</time>
      </trkpt>
      <trkpt lat="35.69407978351894" lon="139.78949579738443">
        <ele>6.479346185922623</ele>
        <time>2025-08-02T08:45:13.002000Z</time>
      </trkpt>
      <trkpt lat="35.69417801916984" lon="139.78946018674026">
        <time>2025-08-02T08:45:18.002000Z</time>
      </trkpt>
    </trkseg>
  </trk>
</gpx>