<?xml version="1.0" encoding="UTF-8"?>
<gpx xmlns="http://www.topografix.com/GPX/1/1" xmlns:gpxtpx="http://www.garmin.com/xmlschemas/TrackPointExtension/v1" xmlns:xsi="http://www.w3.org/2001/XMLSchema-instance" xsi:schemaLocation="http://www.topografix.com/GPX/1/1 http://www.topografix.com/GPX/1/1/gpx.xsd" version="1.1" creator="gpx.py -- https://github.com/tkrajina/gpxpy">
  <trk>
    <name>Sunday Night Run</name>
    <trkseg>
      <trkpt lat="35.655884808212775" lon="139.77245478650136">
        <ele>3.731071558780968</ele>
        <time>2025-08-17T12:52:59.998000Z</time>
      </trkpt>
      <trkpt lat="35.655980162702626" lon="139.77241481533">
        <ele>5.385369013994932</ele>
        <time>2025-08-17T12:53:03.998000Z</time>
      </trkpt>
      <trkpt lat="35.656056710301584" lon="139.77230915343458">
        <ele>9.25353314820677</ele>
        <time>2025-08-17T12:53:07.998000Z</time>
      </trkpt>
      <trkpt lat="35.656163190502845" lon="139.77228622560372">
        <ele>11.266716372221708</ele>
        <time>2025-08-17T12:53:11.999000Z</time>
      </trkpt>
      <trkpt lat="35.6561910719806" lon="139.77215225178156">
        <ele>5.183714239858091</ele>
        <time>2025-08-17T12:53:15.999000Z</time>
      </trkpt>
      <trkpt lat="35.65626606291537" lon="139.7720630567452">
        <ele>5.458213738165796</ele>
        <time>2025-08-17T12:53:18.999000Z</time>
      </trkpt>
      <trkpt lat="35.65634626396763" lon="139.77199171780362">
        <ele>5.797842947766185</ele>
        <time>2025-08-17T12:53:22.999000Z</time>
      </trkpt>
      <trkpt lat="35.656457662555965" lon="139.77194764742967">
        <ele>4.922760806977749</ele>
        <time>2025-08-17T12:53:26.999000Z</time>
      </trkpt>
      <trkpt lat="35.65655134534164" lon="139.7719145878477">
        <ele>5.615249611437321</ele>
        <time>2025-08-17T12:53:29.999000Z</time>
      </trkpt>
      <trkpt lat="35.656634118678745" lon="139.77182984055057">
        <ele>5.873654930852354</ele>
        <time>2025-08-17T12:53:33.999000Z</time>
      </trkpt>
      <trkpt lat="35.65668981803641" lon="139.77173006013447">
        <ele>6.285956465639174</ele>
        <time>2025-08-17T12:53:37.999000Z</time>
      </trkpt>
      <trkpt lat="35.656738822919316" lon="139.77161793490495">
        <ele>5.932695774361491</ele>
        <time>2025-08-17T12:53:42Z</time>
      </trkpt>
      <trkpt lat="35.65682559082857" lon="139.7715577568849">
        <ele>7.167216929607093</ele>
        <time>2025-08-17T12:53:46Z</time>
      </trkpt>
      <trkpt lat="35.6569204770315" lon="139.77148765724405">
        <ele>6.757646469399333</ele>
        <time>2025-08-17T12:53:50Z</time>
      </trkpt>
      <trkpt lat="35.657009336495086" lon="139.7714249251132">
        <ele>5.889895275235176</ele>
        <time>2025-08-17T12:53:54Z</time>
      </trkpt>
      <trkpt lat="35.6570820228871" lon="139.771340755315">
        <ele>5.737807757221162</ele>
        <time>2025-08-17T12:53:58Z</time>
      </trkpt>
      <trkpt lat="35.65717640089539" lon="139.77127508185316">
        <ele>5.323015968315303</ele>
        <time>2025-08-17T12:54:02Z</time>
      </trkpt>
      <trkpt lat="35.65726920050557" lon="139.77121322383843">
        <ele>5.811404317617416</ele>
        <time>2025-08-17T12:54:06Z</time>
      </trkpt>
      <trkpt lat="35.657347845048" lon="139.77111795083425">
        <ele>5.436728840693831</ele>
        <time>2025-08-17T12:54:10Z</time>
      </trkpt>
      <trkpt lat="35.657423875689226" lon="139.77101082140214">
        <ele>5.816719712689519</ele>
        <time>2025-08-17T12:54:14Z</time>
      </trkpt>
      <trkpt lat="35.657548003110776" lon="139.77099749922317">
        <ele>6.377683397382498</ele>
        <time>2025-08-17T12:54:17Z</time>
      </trkpt>
      <trkpt lat="35.657587088544915" lon="139.77089091989816">
        <ele>5.881726604886353</ele>
        <time>2025-08-17T12:54:20Z</time>
      </trkpt>
      <trkpt lat="35.657641804894325" lon="139.77077292384797">
        <ele>5.464811000972986</ele>
        <time>2025-08-17T12:54:24Z</time>
      </trkpt>
      <trkpt lat="35.65772047119447" lon="139.7707012151245">
        <ele>6.115857277996838</ele>
        <time>2025-08-17T12:54:28.001000Z</time>
      </trkpt>
      <trkpt lat="35.6577886088425" lon="139.7708051239707">
        <ele>6.321076534688473</ele>
        <time>2025-08-17T12:54:31.001000Z</time>
      </trkpt>
      <trkpt lat="35.65784845410377" lon="139.77089610409297">
        <ele>5.875766542740166</ele>
        <time>2025-08-17T12:54:35.001000Z</time>
      </trkpt>
      <trkpt lat="35.65794043514001" lon="139.77097133301118">
        <ele>5.122926713898778</ele>
        <time>2025-08-17T12:54:40.001000Z</time>
      </trkpt>
      <trkpt lat="35.65801898856613" lon="139.7710528313035">
        <ele>4.1947027668356895</ele>
        <time>2025-08-17T12:54:44.001000Z</time>
      </trkpt>
      <trkpt lat="35.65812019298791" lon="139.77112514041767">
        <ele>5.044012478552759</ele>
        <time>2025-08-17T12:54:47.001000Z</time>
      </trkpt>
      <trkpt lat="35.658210553534175" lon="139.77122490298106">
        <ele>5.111607706174254</ele>
        <time>2025-08-17T12:54:50.001000Z</time>
      </trkpt>
      <trkpt lat="35.658277064311285" lon="139.7713051540071">
        <ele>5.007899041287601</ele>
        <time>2025-08-17T12:54:52.998000Z</time>
      </trkpt>
      <trkpt lat="35.658342546706216" lon="139.7714182300041">
        <ele>6.021336745470762</ele>
        <time>2025-08-17T12:54:57.998000Z</time>
      </trkpt>
      <trkpt lat="35.65838469900941" lon="139.77153032558815">
        <ele>6.586464338004589</ele>
        <time>2025-08-17T12:55:02.998000Z</time>
      </trkpt>
      <trkpt lat="35.65841653837826" lon="139.77163879230977">
        <ele>7.3917021891102195</ele>
        <time>2025-08-17T12:55:09.999000Z</time>
      </trkpt>
      <trkpt lat="35.65845988437947" lon="139.7717612551542">
        <ele>8.13153141643852</ele>
        <time>2025-08-17T12:55:14.999000Z</time>
      </trkpt>
      <trkpt lat="35.65852873198423" lon="139.7718445408363">
        <ele>5.817510036751628</ele>
        <time>2025-08-17T12:55:18.999000Z</time>
      </trkpt>
      <trkpt lat="35.65857345342952" lon="139.77195555298619">
        <ele>5.74301346950233</ele>
        <time>2025-08-17T12:55:26Z</time>
      </trkpt>
      <trkpt lat="35.658664404662865" lon="139.77192988540676">
        <ele>7.591473633423448</ele>
        <time>2025-08-17T12:55:34Z</time>
      </trkpt>
      <trkpt lat="35.6586160087667" lon="139.77183215466428">
        <ele>8.414700549095869</ele>
        <time>2025-08-17T12:55:40Z</time>
      </trkpt>
      <trkpt lat="35.65861373120353" lon="139.77171545129926">
        <ele>7.6797622395679355</ele>
        <time>2025-08-17T12:55:47.001000Z</time>
      </trkpt>
      <trkpt lat="35.65868683085205" lon="139.7716175133344">
        <ele>8.888827539049089</ele>
        <time>2025-08-17T12:55:51.001000Z</time>
      </trkpt>
      <trkpt lat="35.65876841714424" lon="139.77152442277495">
        <ele>9.004492094740272</ele>
        <time>2025-08-17T12:55:55.001000Z</time>
      </trkpt>
      <trkpt lat="35.658850361380914" lon="139.77142861911076">
        <ele>9.468528448604047</ele>
        <time>2025-08-17T12:56:00.001000Z</time>
      </trkpt>
      <trkpt lat="35.658929111741124" lon="139.77136160226885">
        <ele>9.146910020150244</ele>
        <time>2025-08-17T12:56:04.001000Z</time>
      </trkpt>
      <trkpt lat="35.659007503278325" lon="139.7712802485971">
        <ele>10.231204026378691</ele>
        <time>2025-08-17T12:56:08.001000Z</time>
      </trkpt>
      <trkpt lat="35.65908263406009" lon="139.7712034328953">
        <ele>10.89515324961394</ele>
        <time>2025-08-17T12:56:12.001000Z</time>
      </trkpt>
      <trkpt lat="35.65916443711985" lon="139.7711310519438">
        <ele>10.843785173259676</ele>
        <time>2025-08-17T12:56:17.002000Z</time>
      </trkpt>
      <trkpt lat="35.65924575943602" lon="139.77105178080953">
        <ele>11.566625544801354</ele>
        <time>2025-08-17T12:56:22.002000Z</time>
      </trkpt>
      <trkpt lat="35.65932581649549" lon="139.77097448739156">
        <ele>11.552718386985362</ele>
        <time>2025-08-17T12:56:27.002000Z</time>
      </trkpt>
      <trkpt lat="35.659389740463475" lon="139.77089636120434">
        <ele>12.478932676836848</ele>
        <time>2025-08-17T12:56:31.002000Z</time>
      </trkpt>
      <trkpt lat="35.659462803007266" lon="139.77082404596618">
        <ele>10.910143659450114</ele>
        <time>2025-08-17T12:56:35.002000Z</time>
      </trkpt>
      <trkpt lat="35.65953906680349" lon="139.77075240229772">
        <ele>10.276126259937882</ele>
        <time>2025-08-17T12:56:39.002000Z</time>
      </trkpt>
      <trkpt lat="35.65960975896199" lon="139.77068227740264">
        <ele>9.908755323849618</ele>
        <time>2025-08-17T12:56:43.002000Z</time>
      </trkpt>
      <trkpt lat="35.65967585420787" lon="139.77060688206942">
        <ele>10.178265150636435</ele>
        <time>2025-08-17T12:56:47.003000Z</time>
      </trkpt>
      <trkpt lat="35.65974573670072" lon="139.7705190542385">
        <ele>9.380766809917986</ele>
        <time>2025-08-17T12:56:51.003000Z</time>
      </trkpt>
      <trkpt lat="35.65980740225178" lon="139.77042500283676">
        <ele>9.428556709550321</ele>
        <time>2025-08-17T12:56:55.003000Z</time>
      </trkpt>
      <trkpt lat="35.65988571011228" lon="139.77033913280977">
        <ele>9.294543788768351</ele>
        <time>2025-08-17T12:56:59.001000Z</time>
      </trkpt>
      <trkpt lat="35.659957765953294" lon="139.77024914999322">
        <ele>8.65881154499948</ele>
        <time>2025-08-17T12:57:03Z</time>
      </trkpt>
      <trkpt lat="35.660040726427596" lon="139.77017375862522">
        <ele>8.03556759096682</ele>
        <time>2025-08-17T12:57:07Z</time>
      </trkpt>
      <trkpt lat="35.66011183290133" lon="139.77008664703962">
        <ele>8.896581363864243</ele>
        <time>2025-08-17T12:57:11Z</time>
      </trkpt>
      <trkpt lat="35.66018264617463" lon="139.77001069006175">
        <ele>8.876012681052089</ele>
        <time>2025-08-17T12:57:15Z</time>
      </trkpt>
      <trkpt lat="35.660256275056724" lon="139.76993706254243">
        <ele>8.920628547668457</ele>
        <time>2025-08-17T12:57:19Z</time>
      </trkpt>
      <trkpt lat="35.660326764564175" lon="139.76985927405752">
        <ele>8.632330970838666</ele>
        <time>2025-08-17T12:57:23Z</time>
      </trkpt>
      <trkpt lat="35.660399032695814" lon="139.7697817393327">
        <ele>8.722176207229495</ele>
        <time>2025-08-17T12:57:27Z</time>
      </trkpt>
      <trkpt lat="35.6604804217128" lon="139.76968995243527">
        <ele>8.542426521889865</ele>
        <time>2025-08-17T12:57:32.001000Z</time>
      </trkpt>
      <trkpt lat="35.66054826476762" lon="139.76961478577172">
        <ele>7.469331190921366</ele>
        <time>2025-08-17T12:57:36.001000Z</time>
      </trkpt>
      <trkpt lat="35.66061705924138" lon="139.76953405165085">
        <ele>6.9484240878373384</ele>
        <time>2025-08-17T12:57:40.001000Z</time>
      </trkpt>
      <trkpt lat="35.660685578397576" lon="139.76945568313735">
        <ele>6.424838800914586</ele>
        <time>2025-08-17T12:57:44.001000Z</time>
      </trkpt>
      <trkpt lat="35.66074932831571" lon="139.76937319322542">
        <ele>6.293244501575828</ele>
        <time>2025-08-17T12:57:48.001000Z</time>
      </trkpt>
      <trkpt lat="35.66081928090475" lon="139.76928915731122">
        <ele>6.282187659293413</ele>
        <time>2025-08-17T12:57:52.001000Z</time>
      </trkpt>
      <trkpt lat="35.66089423020644" lon="139.76920978922465">
        <ele>5.807875343598425</ele>
        <time>2025-08-17T12:57:56.001000Z</time>
      </trkpt>
      <trkpt lat="35.660968739145154" lon="139.7691334152534">
        <ele>5.785700392909348</ele>
        <time>2025-08-17T12:58:00.001000Z</time>
      </trkpt>
      <trkpt lat="35.66104224983188" lon="139.76905056654752">
        <ele>7.096389001235366</ele>
        <time>2025-08-17T12:58:04.001000Z</time>
      </trkpt>
      <trkpt lat="35.661121013455265" lon="139.7689734191909">
        <ele>6.277051204815507</ele>
        <time>2025-08-17T12:58:08.002000Z</time>
      </trkpt>
      <trkpt lat="35.66119539256492" lon="139.76889902042677">
        <ele>5.682515143416822</ele>
        <time>2025-08-17T12:58:11.002000Z</time>
      </trkpt>
      <trkpt lat="35.66127238805128" lon="139.76878901354485">
        <ele>6.195657718926668</ele>
        <time>2025-08-17T12:58:15.002000Z</time>
      </trkpt>
      <trkpt lat="35.66133459648454" lon="139.76870268891577">
        <ele>5.666820357553661</ele>
        <time>2025-08-17T12:58:18.002000Z</time>
      </trkpt>
      <trkpt lat="35.6614022781425" lon="139.76862478995648">
        <ele>5.799696530215442</ele>
        <time>2025-08-17T12:58:21.002000Z</time>
      </trkpt>
      <trkpt lat="35.66146155407678" lon="139.76853325056214">
        <ele>5.713048234581947</ele>
        <time>2025-08-17T12:58:24.002000Z</time>
      </trkpt>
      <trkpt lat="35.66151839808719" lon="139.76844694692633">
        <ele>6.1553017077967525</ele>
        <time>2025-08-17T12:58:27.002000Z</time>
      </trkpt>
      <trkpt lat="35.6615837600393" lon="139.768355410165">
        <ele>6.290880613029003</ele>
        <time>2025-08-17T12:58:31.002000Z</time>
      </trkpt>
      <trkpt lat="35.66165121809362" lon="139.76823948858726">
        <ele>5.594999994151294</ele>
        <time>2025-08-17T12:58:35.002000Z</time>
      </trkpt>
      <trkpt lat="35.66171499464181" lon="139.76814466152808">
        <ele>5.584877924993634</ele>
        <time>2025-08-17T12:58:40.002000Z</time>
      </trkpt>
      <trkpt lat="35.6617687807821" lon="139.76802337866826">
        <ele>5.4012061189860106</ele>
        <time>2025-08-17T12:58:44.003000Z</time>
      </trkpt>
      <trkpt lat="35.6618319530166" lon="139.76793565333327">
        <ele>4.778977426700294</ele>
        <time>2025-08-17T12:58:47.003000Z</time>
      </trkpt>
      <trkpt lat="35.66191550369556" lon="139.76783379368823">
        <ele>4.181005063466728</ele>
        <time>2025-08-17T12:58:51.003000Z</time>
      </trkpt>
      <trkpt lat="35.66196164671479" lon="139.76772265040347">
        <ele>4.434734949842095</ele>
        <time>2025-08-17T12:58:55.003000Z</time>
      </trkpt>
      <trkpt lat="35.66202212656174" lon="139.7676139135485">
        <ele>3.7442541234195232</ele>
        <time>2025-08-17T12:58:59.003000Z</time>
      </trkpt>
      <trkpt lat="35.66207498795835" lon="139.76751244085165">
        <ele>2.8667810587212443</ele>
        <time>2025-08-17T12:59:03.003000Z</time>
      </trkpt>
      <trkpt lat="35.66213070045226" lon="139.76739368335868">
        <ele>4.27871576603502</ele>
        <time>2025-08-17T12:59:07.001000Z</time>
      </trkpt>
      <trkpt lat="35.662186046031756" lon="139.7672960343797">
        <ele>4.650752610526979</ele>
        <time>2025-08-17T12:59:11.001000Z</time>
      </trkpt>
      <trkpt lat="35.662240617212056" lon="139.76718674950072">
        <ele>4.391426199115813</ele>
        <time>2025-08-17T12:59:15.001000Z</time>
      </trkpt>
      <trkpt lat="35.662296433383396" lon="139.76707994500052">
        <ele>5.531864679418504</ele>
        <time>2025-08-17T12:59:19.001000Z</time>
      </trkpt>
      <trkpt lat="35.66236356566718" lon="139.76698013151025">
        <ele>5.897351938299835</ele>
        <time>2025-08-17T12:59:24.001000Z</time>
      </trkpt>
      <trkpt lat="35.66243609420317" lon="139.76689147007716">
        <ele>4.918014599010348</ele>
        <time>2025-08-17T12:59:29.001000Z</time>
      </trkpt>
      <trkpt lat="35.662530446857694" lon="139.76683080451346">
        <ele>4.885320974513888</ele>
        <time>2025-08-17T12:59:34.001000Z</time>
      </trkpt>
      <trkpt lat="35.66262035744252" lon="139.7667509768157">
        <ele>6.830624577589333</ele>
        <time>2025-08-17T12:59:39.001000Z</time>
      </trkpt>
      <trkpt lat="35.662694808718165" lon="139.76668851109397">
        <ele>5.743510634638369</ele>
        <time>2025-08-17T12:59:43.001000Z</time>
      </trkpt>
      <trkpt lat="35.66280125225322" lon="139.76662561206376">
        <ele>7.090765094384551</ele>
        <time>2025-08-17T12:59:48.001000Z</time>
      </trkpt>
      <trkpt lat="35.662877551553336" lon="139.7664263781275">
        <ele>5.730564173310995</ele>
        <time>2025-08-17T13:00:04.001000Z</time>
      </trkpt>
      <trkpt lat="35.662865708771896" lon="139.76630033094753">
        <ele>5.706971088424325</ele>
        <time>2025-08-17T13:00:09.001000Z</time>
      </trkpt>
      <trkpt lat="35.66285543171958" lon="139.76616515608228">
        <ele>3.44009826797992</ele>
        <time>2025-08-17T13:00:15.001000Z</time>
      </trkpt>
      <trkpt lat="35.66281646583173" lon="139.76605420010048">
        <ele>4.93132711481303</ele>
        <time>2025-08-17T13:00:19.002000Z</time>
      </trkpt>
      <trkpt lat="35.662816192012016" lon="139.76592595721652">
        <ele>4.396998894400895</ele>
        <time>2025-08-17T13:00:24.002000Z</time>
      </trkpt>
      <trkpt lat="35.66280636513434" lon="139.7658055279137">
        <ele>4.8318729577586055</ele>
        <time>2025-08-17T13:00:29.002000Z</time>
      </trkpt>
      <trkpt lat="35.66281492708163" lon="139.76568061285025">
        <ele>5.1953343991190195</ele>
        <time>2025-08-17T13:00:34.002000Z</time>
      </trkpt>
      <trkpt lat="35.662817116470215" lon="139.76555545954074">
        <ele>4.703748709522188</ele>
        <time>2025-08-17T13:00:39.002000Z</time>
      </trkpt>
      <trkpt lat="35.66283874900118" lon="139.76543098981134">
        <ele>4.985738671384752</ele>
        <time>2025-08-17T13:00:44.002000Z</time>
      </trkpt>
      <trkpt lat="35.662857949587334" lon="139.7652938278302">
        <ele>5.395259452052414</ele>
        <time>2025-08-17T13:00:48.002000Z</time>
      </trkpt>
      <trkpt lat="35.662875766748826" lon="139.76515439056743">
        <ele>4.913354699499905</ele>
        <time>2025-08-17T13:00:52.002000Z</time>
      </trkpt>
      <trkpt lat="35.66288548840603" lon="139.76502723010404">
        <ele>5.278776586987078</ele>
        <time>2025-08-17T13:00:56.002000Z</time>
      </trkpt>
      <trkpt lat="35.6629127808128" lon="139.76491932734316">
        <ele>5.089266959577799</ele>
        <time>2025-08-17T13:01:00.002000Z</time>
      </trkpt>
      <trkpt lat="35.6629151976128" lon="139.76480406918117">
        <ele>5.6788721503689885</ele>
        <time>2025-08-17T13:01:04.002000Z</time>
      </trkpt>
      <trkpt lat="35.662971870387295" lon="139.7646947153884">
        <ele>6.054637274704874</ele>
        <time>2025-08-17T13:01:08.003000Z</time>
      </trkpt>
      <trkpt lat="35.663006089014004" lon="139.76457380421743">
        <ele>6.336212721653283</ele>
        <time>2025-08-17T13:01:13.001000Z</time>
      </trkpt>
      <trkpt lat="35.66307486571781" lon="139.76448248850218">
        <ele>4.7547692228108644</ele>
        <time>2025-08-17T13:01:18.001000Z</time>
      </trkpt>
      <trkpt lat="35.663100652369785" lon="139.76434546839374">
        <ele>4.747529495507479</ele>
        <time>2025-08-17T13:01:22.001000Z</time>
      </trkpt>
      <trkpt lat="35.66314357294334" lon="139.76420441931876">
        <ele>5.432467831298709</ele>
        <time>2025-08-17T13:01:26Z</time>
      </trkpt>
      <trkpt lat="35.66319709629293" lon="139.76409097188235">
        <ele>5.687079517170787</ele>
        <time>2025-08-17T13:01:29.001000Z</time>
      </trkpt>
      <trkpt lat="35.663248591136814" lon="139.76397922778267">
        <ele>4.8573588114231825</ele>
        <time>2025-08-17T13:01:32.001000Z</time>
      </trkpt>
      <trkpt lat="35.663332053854774" lon="139.76386497935837">
        <ele>5.249006002210081</ele>
        <time>2025-08-17T13:01:36.001000Z</time>
      </trkpt>
      <trkpt lat="35.66338172746508" lon="139.76376753011385">
        <ele>5.941343910060823</ele>
        <time>2025-08-17T13:01:39.001000Z</time>
      </trkpt>
      <trkpt lat="35.66344529777459" lon="139.7636847903584">
        <ele>4.974687366746366</ele>
        <time>2025-08-17T13:01:42.001000Z</time>
      </trkpt>
      <trkpt lat="35.663493695572924" lon="139.7635740236348">
        <ele>5.678643940016627</ele>
        <time>2025-08-17T13:01:45.001000Z</time>
      </trkpt>
      <trkpt lat="35.66349020095164" lon="139.76345155363518">
        <ele>4.77560892701149</ele>
        <time>2025-08-17T13:01:49.001000Z</time>
      </trkpt>
      <trkpt lat="35.6634445378176" lon="139.76332376801955">
        <ele>4.987179241143167</ele>
        <time>2025-08-17T13:01:53.001000Z</time>
      </trkpt>
      <trkpt lat="35.66340989682284" lon="139.76321859704626">
        <ele>5.116225078701973</ele>
        <time>2025-08-17T13:01:56.001000Z</time>
      </trkpt>
      <trkpt lat="35.6633724294189" lon="139.7631033332939">
        <ele>4.491285085678101</ele>
        <time>2025-08-17T13:01:59.001000Z</time>
      </trkpt>
      <trkpt lat="35.66329322309665" lon="139.76300096961612">
        <ele>5.1542751006782055</ele>
        <time>2025-08-17T13:02:03.001000Z</time>
      </trkpt>
      <trkpt lat="35.66321106397991" lon="139.7629372445227">
        <ele>5.573435467667878</ele>
        <time>2025-08-17T13:02:06.001000Z</time>
      </trkpt>
      <trkpt lat="35.66312799157452" lon="139.76287693692103">
        <ele>6.553315998986363</ele>
        <time>2025-08-17T13:02:09.001000Z</time>
      </trkpt>
      <trkpt lat="35.66301928866016" lon="139.76281698001137">
        <ele>6.1727165738120675</ele>
        <time>2025-08-17T13:02:13.001000Z</time>
      </trkpt>
      <trkpt lat="35.662939896708345" lon="139.7627557383284">
        <ele>5.851194120012224</ele>
        <time>2025-08-17T13:02:16.001000Z</time>
      </trkpt>
      <trkpt lat="35.66286744846075" lon="139.76267129830907">
        <ele>6.801898542791605</ele>
        <time>2025-08-17T13:02:19.001000Z</time>
      </trkpt>
      <trkpt lat="35.66279871782978" lon="139.7625703789191">
        <ele>6.211468651890755</ele>
        <time>2025-08-17T13:02:23.001000Z</time>
      </trkpt>
      <trkpt lat="35.66271662895413" lon="139.76252296738747">
        <ele>6.617029156535864</ele>
        <time>2025-08-17T13:02:26.001000Z</time>
      </trkpt>
      <trkpt lat="35.6626240764221" lon="139.76244674899746">
        <ele>6.142022712156177</ele>
        <time>2025-08-17T13:02:30.001000Z</time>
      </trkpt>
      <trkpt lat="35.66255046616891" lon="139.76238008576925">
        <ele>6.280639808624983</ele>
        <time>2025-08-17T13:02:34.002000Z</time>
      </trkpt>
      <trkpt lat="35.662464924378355" lon="139.76231885453225">
        <ele>6.2750022718682885</ele>
        <time>2025-08-17T13:02:38.002000Z</time>
      </trkpt>
      <trkpt lat="35.66236486721973" lon="139.7622772440961">
        <ele>5.851398593746126</ele>
        <time>2025-08-17T13:02:43.002000Z</time>
      </trkpt>
      <trkpt lat="35.66228288981709" lon="139.7621864747592">
        <ele>5.3828638000413775</ele>
        <time>2025-08-17T13:02:47.002000Z</time>
      </trkpt>
      <trkpt lat="35.662196435098636" lon="139.76212552725335">
        <ele>6.113405413925648</ele>
        <time>2025-08-17T13:02:50.002000Z</time>
      </trkpt>
      <trkpt lat="35.66212918173915" lon="139.76203027361558">
        <ele>6.188928303308785</ele>
        <time>2025-08-17T13:02:53.002000Z</time>
      </trkpt>
      <trkpt lat="35.66202765329227" lon="139.76197463266325">
        <ele>7.802540467120707</ele>
        <time>2025-08-17T13:02:57.002000Z</time>
      </trkpt>
      <trkpt lat="35.66193844554125" lon="139.7619045726216">
        <ele>6.5639777937904</ele>
        <time>2025-08-17T13:03:00.002000Z</time>
      </trkpt>
      <trkpt lat="35.661854891892496" lon="139.76182100230727">
        <ele>5.761045986786485</ele>
        <time>2025-08-17T13:03:04.002000Z</time>
      </trkpt>
      <trkpt lat="35.66176654463148" lon="139.76179451787866">
        <ele>7.161689291708171</ele>
        <time>2025-08-17T13:03:07.002000Z</time>
      </trkpt>
      <trkpt lat="35.66165884461167" lon="139.76170963253168">
        <ele>7.470546722412109</ele>
        <time>2025-08-17T13:03:11.002000Z</time>
      </trkpt>
      <trkpt lat="35.6615801130569" lon="139.76163602951632">
        <ele>4.853127734735608</ele>
        <time>2025-08-17T13:03:15.002000Z</time>
      </trkpt>
      <trkpt lat="35.66150937599979" lon="139.76155843837643">
        <ele>6.375613953918219</ele>
        <time>2025-08-17T13:03:18.001000Z</time>
      </trkpt>
      <trkpt lat="35.66143655167446" lon="139.76147270779884">
        <ele>5.9870766922831535</ele>
        <time>2025-08-17T13:03:22.001000Z</time>
      </trkpt>
      <trkpt lat="35.66131639516272" lon="139.7614316312145">
        <ele>6.780246827751398</ele>
        <time>2025-08-17T13:03:26.001000Z</time>
      </trkpt>
      <trkpt lat="35.66123641548641" lon="139.76134358033383">
        <ele>5.7788915149867535</ele>
        <time>2025-08-17T13:03:30.001000Z</time>
      </trkpt>
      <trkpt lat="35.661164557923335" lon="139.76125562766202">
        <ele>5.358832376077771</ele>
        <time>2025-08-17T13:03:34.001000Z</time>
      </trkpt>
      <trkpt lat="35.66108371478745" lon="139.76120499958796">
        <ele>6.111931388266385</ele>
        <time>2025-08-17T13:03:37.001000Z</time>
      </trkpt>
      <trkpt lat="35.66101674061371" lon="139.76112851218465">
        <ele>5.780036520212889</ele>
        <time>2025-08-17T13:03:40.001000Z</time>
      </trkpt>
      <trkpt lat="35.66093516320565" lon="139.76107900649393">
        <ele>5.571671080775559</ele>
        <time>2025-08-17T13:03:43.001000Z</time>
      </trkpt>
      <trkpt lat="35.66082965011484" lon="139.7610135502591">
        <ele>5.484319448471069</ele>
        <time>2025-08-17T13:03:47.001000Z</time>
      </trkpt>
      <trkpt lat="35.660748708718366" lon="139.76094595214673">
        <ele>6.240765628404915</ele>
        <time>2025-08-17T13:03:51.001000Z</time>
      </trkpt>
      <trkpt lat="35.660657099002705" lon="139.76087068654797">
        <ele>5.959770016372204</ele>
        <time>2025-08-17T13:03:55.001000Z</time>
      </trkpt>
      <trkpt lat="35.660576541783826" lon="139.760793715466">
        <ele>4.932229646481574</ele>
        <time>2025-08-17T13:04:00.001000Z</time>
      </trkpt>
      <trkpt lat="35.660485398057" lon="139.76076205431912">
        <ele>4.998265339061618</ele>
        <time>2025-08-17T13:04:03.001000Z</time>
      </trkpt>
      <trkpt lat="35.66040167626504" lon="139.76068965115428">
        <ele>5.475206522271037</ele>
        <time>2025-08-17T13:04:07.001000Z</time>
      </trkpt>
      <trkpt lat="35.66030935126052" lon="139.76063352287235">
        <ele>5.146331577561796</ele>
        <time>2025-08-17T13:04:12.001000Z</time>
      </trkpt>
      <trkpt lat="35.66022405947981" lon="139.76055660168254">
        <ele>5.833381870761514</ele>
        <time>2025-08-17T13:04:17.001000Z</time>
      </trkpt>
      <trkpt lat="35.660126918223305" lon="139.76049423269666">
        <ele>5.114682835526764</ele>
        <time>2025-08-17T13:04:22.001000Z</time>
      </trkpt>
      <trkpt lat="35.66005148972739" lon="139.76042227639184">
        <ele>5.934885216876864</ele>
        <time>2025-08-17T13:04:25.001000Z</time>
      </trkpt>
      <trkpt lat="35.65997834395959" lon="139.76032300170613">
        <ele>5.853561328724027</ele>
        <time>2025-08-17T13:04:29.001000Z</time>
      </trkpt>
      <trkpt lat="35.659894436060526" lon="139.76022722232034">
        <ele>4.947292228229344</ele>
        <time>2025-08-17T13:04:32.001000Z</time>
      </trkpt>
      <trkpt lat="35.65979817172418" lon="139.76015753436292">
        <ele>5.8138236394152045</ele>
        <time>2025-08-17T13:04:36.001000Z</time>
      </trkpt>
      <trkpt lat="35.6597044020402" lon="139.76010498128358">
        <ele>5.656899267807603</ele>
        <time>2025-08-17T13:04:40.002000Z</time>
      </trkpt>
      <trkpt lat="35.659618158211394" lon="139.76005195268328">
        <ele>5.947341902181506</ele>
        <time>2025-08-17T13:04:44.002000Z</time>
      </trkpt>
      <trkpt lat="35.65952899632587" lon="139.75999342267716">
        <ele>5.154038373380899</ele>
        <time>2025-08-17T13:04:49.002000Z</time>
      </trkpt>
      <trkpt lat="35.65944406165633" lon="139.75993150851326">
        <ele>5.4546174220740795</ele>
        <time>2025-08-17T13:04:54.002000Z</time>
      </trkpt>
      <trkpt lat="35.659347012428476" lon="139.75987368767986">
        <ele>5.009160243906081</ele>
        <time>2025-08-17T13:04:59.002000Z</time>
      </trkpt>
      <trkpt lat="35.65926165430803" lon="139.7598161081729">
        <ele>6.431783959269524</ele>
        <time>2025-08-17T13:05:04.002000Z</time>
      </trkpt>
      <trkpt lat="35.65918434010719" lon="139.75975184616627">
        <ele>6.269787554629147</ele>
        <time>2025-08-17T13:05:08.002000Z</time>
      </trkpt>
      <trkpt lat="35.6590867765692" lon="139.7597724954616">
        <ele>6.428097058087587</ele>
        <time>2025-08-17T13:05:12.002000Z</time>
      </trkpt>
      <trkpt lat="35.65899097701861" lon="139.7598221243089">
        <ele>6.584347875788808</ele>
        <time>2025-08-17T13:05:16.002000Z</time>
      </trkpt>
      <trkpt lat="35.65889293314606" lon="139.75985081492428">
        <ele>6.309772175736725</ele>
        <time>2025-08-17T13:05:21.002000Z</time>
      </trkpt>
      <trkpt lat="35.65878256533937" lon="139.75985002984893">
        <ele>4.842431524768472</ele>
        <time>2025-08-17T13:05:26.001000Z</time>
      </trkpt>
      <trkpt lat="35.658699935580465" lon="139.7599257441425">
        <ele>4.921584182418883</ele>
        <time>2025-08-17T13:05:31.001000Z</time>
      </trkpt>
      <trkpt lat="35.65860942083614" lon="139.7599829013175">
        <ele>4.159200249239802</ele>
        <time>2025-08-17T13:05:36Z</time>
      </trkpt>
      <trkpt lat="35.65851662884075" lon="139.76001844022136">
        <ele>3.9456356205046177</ele>
        <time>2025-08-17T13:05:40Z</time>
      </trkpt>
      <trkpt lat="35.65843703402834" lon="139.76007089052075">
        <ele>3.4082622407004237</ele>
        <time>2025-08-17T13:05:44Z</time>
      </trkpt>
      <trkpt lat="35.658362321435554" lon="139.76016787645364">
        <ele>3.7438368182629347</ele>
        <time>2025-08-17T13:05:49.001000Z</time>
      </trkpt>
      <trkpt lat="35.65825036139459" lon="139.76016816928146">
        <ele>3.951261439360678</ele>
        <time>2025-08-17T13:05:52.001000Z</time>
      </trkpt>
      <trkpt lat="35.65814552477114" lon="139.76017330223652">
        <ele>4.05750999879092</ele>
        <time>2025-08-17T13:05:55.001000Z</time>
      </trkpt>
      <trkpt lat="35.658024002984966" lon="139.76018669048835">
        <ele>5.4896087646484375</ele>
        <time>2025-08-17T13:05:58.001000Z</time>
      </trkpt>
      <trkpt lat="35.65791389745675" lon="139.76021824580033">
        <ele>5.515114985406399</ele>
        <time>2025-08-17T13:06:02.001000Z</time>
      </trkpt>
      <trkpt lat="35.65781740939463" lon="139.76020323159358">
        <ele>6.160076402127743</ele>
        <time>2025-08-17T13:06:05.001000Z</time>
      </trkpt>
      <trkpt lat="35.657707119673645" lon="139.7601665946144">
        <ele>6.335171961225569</ele>
        <time>2025-08-17T13:06:09.001000Z</time>
      </trkpt>
      <trkpt lat="35.65758939759898" lon="139.76017716615073">
        <ele>7.4037933042272925</ele>
        <time>2025-08-17T13:06:13.001000Z</time>
      </trkpt>
      <trkpt lat="35.657485122171785" lon="139.7602040579642">
        <ele>6.55531875602901</ele>
        <time>2025-08-17T13:06:16.001000Z</time>
      </trkpt>
      <trkpt lat="35.65738666757585" lon="139.76021116291292">
        <ele>5.965438645333052</ele>
        <time>2025-08-17T13:06:20.001000Z</time>
      </trkpt>
      <trkpt lat="35.657283284808294" lon="139.7601660739874">
        <ele>6.552681217901409</ele>
        <time>2025-08-17T13:06:24.001000Z</time>
      </trkpt>
      <trkpt lat="35.65719221271693" lon="139.76019740838598">
        <ele>6.513471506536007</ele>
        <time>2025-08-17T13:06:27.001000Z</time>
      </trkpt>
      <trkpt lat="35.65708775998471" lon="139.76025599363405">
        <ele>7.183138103224337</ele>
        <time>2025-08-17T13:06:31.001000Z</time>
      </trkpt>
      <trkpt lat="35.65700507205411" lon="139.760330811803">
        <ele>6.104358406737447</ele>
        <time>2025-08-17T13:06:35.001000Z</time>
      </trkpt>
      <trkpt lat="35.65690003620832" lon="139.7603657496932">
        <ele>6.684136917814612</ele>
        <time>2025-08-17T13:06:39.001000Z</time>
      </trkpt>
      <trkpt lat="35.656790295707935" lon="139.76034557616225">
        <ele>6.845845316536725</ele>
        <time>2025-08-17T13:06:43.001000Z</time>
      </trkpt>
      <trkpt lat="35.656701534774996" lon="139.76041248783275">
        <ele>6.187475916929543</ele>
        <time>2025-08-17T13:06:48.001000Z</time>
      </trkpt>
      <trkpt lat="35.656596151725964" lon="139.76042629063295">
        <ele>6.143375713378191</ele>
        <time>2025-08-17T13:06:53.001000Z</time>
      </trkpt>
      <trkpt lat="35.65649946055632" lon="139.7604029863769">
        <ele>5.641740083694458</ele>
        <time>2025-08-17T13:06:57.001000Z</time>
      </trkpt>
      <trkpt lat="35.65640455258134" lon="139.76042864202165">
        <ele>5.700691361911595</ele>
        <time>2025-08-17T13:07:01.001000Z</time>
      </trkpt>
      <trkpt lat="35.65630970802245" lon="139.76047882335942">
        <ele>5.360792936757207</ele>
        <time>2025-08-17T13:07:05.002000Z</time>
      </trkpt>
      <trkpt lat="35.65618928092395" lon="139.76044903347983">
        <ele>5.071410857141018</ele>
        <time>2025-08-17T13:07:10.002000Z</time>
      </trkpt>
      <trkpt lat="35.65611048372031" lon="139.7603770982702">
        <ele>4.605949476361275</ele>
        <time>2025-08-17T13:07:14.002000Z</time>
      </trkpt>
      <trkpt lat="35.656036111054135" lon="139.7604395338916">
        <ele>6.093905525282025</ele>
        <time>2025-08-17T13:07:19.002000Z</time>
      </trkpt>
      <trkpt lat="35.655971283376374" lon="139.76054219867967">
        <ele>7.304561824537814</ele>
        <time>2025-08-17T13:07:24.002000Z</time>
      </trkpt>
      <trkpt lat="35.65590185939409" lon="139.76061954802444">
        <ele>6.580893634818494</ele>
        <time>2025-08-17T13:07:28.002000Z</time>
      </trkpt>
      <trkpt lat="35.655831145962814" lon="139.76069151280154">
        <ele>5.37493939884007</ele>
        <time>2025-08-17T13:07:32Z</time>
      </trkpt>
      <trkpt lat="35.65577639024992" lon="139.76080252067382">
        <ele>4.5645461259409785</ele>
        <time>2025-08-17T13:07:36Z</time>
      </trkpt>
      <trkpt lat="35.65567322449443" lon="139.76085745215318">
        <ele>4.889157464727759</ele>
        <time>2025-08-17T13:07:41Z</time>
      </trkpt>
      <trkpt lat="35.65561631268529" lon="139.76094400828353">
        <ele>4.310401184484363</ele>
        <time>2025-08-17T13:07:44Z</time>
      </trkpt>
      <trkpt lat="35.65567214129426" lon="139.7608304371438">
        <ele>4.504062673076987</ele>
        <time>2025-08-17T13:07:53Z</time>
      </trkpt>
      <trkpt lat="35.65565946530247" lon="139.76070967937378">
        <ele>4.718837299384177</ele>
        <time>2025-08-17T13:07:59Z</time>
      </trkpt>
      <trkpt lat="35.655721944382094" lon="139.7606069290298">
        <ele>5.313396792858839</ele>
        <time>2025-08-17T13:08:03Z</time>
      </trkpt>
      <trkpt lat="35.65579377528214" lon="139.76053354003088">
        <ele>5.2101885406300426</ele>
        <time>2025-08-17T13:08:06Z</time>
      </trkpt>
      <trkpt lat="35.656046261795616" lon="139.76041086580477">
        <ele>6.934362527914345</ele>
        <time>2025-08-17T13:09:09.001000Z</time>
      </trkpt>
      <trkpt lat="35.65614405292676" lon="139.76037250934064">
        <ele>6.425950532779098</ele>
        <time>2025-08-17T13:09:14.001000Z</time>
      </trkpt>
      <trkpt lat="35.65624076729754" lon="139.7603181321378">
        <ele>7.494266678579152</ele>
        <time>2025-08-17T13:09:18.001000Z</time>
      </trkpt>
      <trkpt lat="35.656330426279716" lon="139.76033144573285">
        <ele>6.737527386285365</ele>
        <time>2025-08-17T13:09:22.002000Z</time>
      </trkpt>
      <trkpt lat="35.65642564842195" lon="139.7603488239153">
        <ele>6.7424759939312935</ele>
        <time>2025-08-17T13:09:25.002000Z</time>
      </trkpt>
      <trkpt lat="35.65653560523222" lon="139.76028529475857">
        <ele>7.16647163964808</ele>
        <time>2025-08-17T13:09:29.002000Z</time>
      </trkpt>
      <trkpt lat="35.65664122609421" lon="139.76028819875708">
        <ele>6.955809333361685</ele>
        <time>2025-08-17T13:09:33.002000Z</time>
      </trkpt>
      <trkpt lat="35.65674027038246" lon="139.76031897295513">
        <ele>6.557097178883851</ele>
        <time>2025-08-17T13:09:36.999000Z</time>
      </trkpt>
      <trkpt lat="35.656845852489404" lon="139.76031976413918">
        <ele>6.8704185616225</ele>
        <time>2025-08-17T13:09:41.999000Z</time>
      </trkpt>
      <trkpt lat="35.65694757141513" lon="139.76029424548875">
        <ele>7.091385710053146</ele>
        <time>2025-08-17T13:09:45.999000Z</time>
      </trkpt>
      <trkpt lat="35.657029731859595" lon="139.76024078400138">
        <ele>7.904755870811641</ele>
        <time>2025-08-17T13:09:49.999000Z</time>
      </trkpt>
      <trkpt lat="35.65710575199642" lon="139.76017417102196">
        <ele>7.605310088954866</ele>
        <time>2025-08-17T13:09:55.999000Z</time>
      </trkpt>
      <trkpt lat="35.657205470534755" lon="139.7601647603295">
        <ele>7.91855457238853</ele>
        <time>2025-08-17T13:09:59.999000Z</time>
      </trkpt>
      <trkpt lat="35.65730927874286" lon="139.7602305988338">
        <ele>7.905100084841251</ele>
        <time>2025-08-17T13:10:04Z</time>
      </trkpt>
      <trkpt lat="35.65740558148218" lon="139.76026016266528">
        <ele>8.239770845510066</ele>
        <time>2025-08-17T13:10:07Z</time>
      </trkpt>
      <trkpt lat="35.65752034967173" lon="139.76026647835542">
        <ele>8.116170964203775</ele>
        <time>2025-08-17T13:10:12Z</time>
      </trkpt>
      <trkpt lat="35.65762081929938" lon="139.76028655824692">
        <ele>6.95392756536603</ele>
        <time>2025-08-17T13:10:18Z</time>
      </trkpt>
      <trkpt lat="35.65771179909019" lon="139.76027075779103">
        <ele>6.915724892169237</ele>
        <time>2025-08-17T13:10:22Z</time>
      </trkpt>
      <trkpt lat="35.657805408816415" lon="139.76022473265542">
        <ele>6.990786490030587</ele>
        <time>2025-08-17T13:10:28Z</time>
      </trkpt>
      <trkpt lat="35.657881485769394" lon="139.7601220273168">
        <ele>7.69267600774765</ele>
        <time>2025-08-17T13:10:32Z</time>
      </trkpt>
      <trkpt lat="35.65798492508254" lon="139.76015590500452">
        <ele>7.075765915215015</ele>
        <time>2025-08-17T13:10:36Z</time>
      </trkpt>
      <trkpt lat="35.65808165423079" lon="139.7601399550471">
        <ele>7.428365143947303</ele>
        <time>2025-08-17T13:10:39Z</time>
      </trkpt>
      <trkpt lat="35.65816699048095" lon="139.76009175314434">
        <ele>7.0057053565979</ele>
        <time>2025-08-17T13:10:41Z</time>
      </trkpt>
      <trkpt lat="35.65826510313539" lon="139.76005687164312">
        <ele>6.9178147772327065</ele>
        <time>2025-08-17T13:10:44.001000Z</time>
      </trkpt>
      <trkpt lat="35.658357117353106" lon="139.75998370561817">
        <ele>6.263275014236569</ele>
        <time>2025-08-17T13:10:47.001000Z</time>
      </trkpt>
      <trkpt lat="35.65843377561201" lon="139.75990853206108">
        <ele>7.125159624963999</ele>
        <time>2025-08-17T13:10:51.001000Z</time>
      </trkpt>
      <trkpt lat="35.65853965347038" lon="139.7598763890078">
        <ele>6.748286509886384</ele>
        <time>2025-08-17T13:10:54.001000Z</time>
      </trkpt>
      <trkpt lat="35.65862156965961" lon="139.75978570641652">
        <ele>7.063355589285493</ele>
        <time>2025-08-17T13:10:58.001000Z</time>
      </trkpt>
      <trkpt lat="35.658719932450396" lon="139.75972364007634">
        <ele>6.885658225044608</ele>
        <time>2025-08-17T13:11:02.001000Z</time>
      </trkpt>
      <trkpt lat="35.65881042202382" lon="139.75966323251427">
        <ele>6.733615502715111</ele>
        <time>2025-08-17T13:11:05.001000Z</time>
      </trkpt>
      <trkpt lat="35.65891262427982" lon="139.75965117121996">
        <ele>6.715974198654294</ele>
        <time>2025-08-17T13:11:09.001000Z</time>
      </trkpt>
      <trkpt lat="35.659005147246624" lon="139.75965254361142">
        <ele>6.103236327879131</ele>
        <time>2025-08-17T13:11:12.001000Z</time>
      </trkpt>
      <trkpt lat="35.65910973683809" lon="139.75969311819185">
        <ele>5.868623647838831</ele>
        <time>2025-08-17T13:11:17.001000Z</time>
      </trkpt>
      <trkpt lat="35.6592100614877" lon="139.75973024473276">
        <ele>5.163334376178682</ele>
        <time>2025-08-17T13:11:21.001000Z</time>
      </trkpt>
      <trkpt lat="35.65928873398738" lon="139.759788437085">
        <ele>5.659462194889784</ele>
        <time>2025-08-17T13:11:25.001000Z</time>
      </trkpt>
      <trkpt lat="35.65936528696106" lon="139.7598516508663">
        <ele>5.3354464918375015</ele>
        <time>2025-08-17T13:11:28.001000Z</time>
      </trkpt>
      <trkpt lat="35.659478253554475" lon="139.7598982877667">
        <ele>6.54142895527184</ele>
        <time>2025-08-17T13:11:32.001000Z</time>
      </trkpt>
      <trkpt lat="35.659572966338615" lon="139.75994543757395">
        <ele>5.363779021427035</ele>
        <time>2025-08-17T13:11:36.002000Z</time>
      </trkpt>
      <trkpt lat="35.659669912397696" lon="139.76002497957478">
        <ele>5.432286329567432</ele>
        <time>2025-08-17T13:11:40.002000Z</time>
      </trkpt>
      <trkpt lat="35.659746904594584" lon="139.76009271540147">
        <ele>4.852523274719715</ele>
        <time>2025-08-17T13:11:43.999000Z</time>
      </trkpt>
      <trkpt lat="35.659830994799684" lon="139.7601381967647">
        <ele>6.043909612111747</ele>
        <time>2025-08-17T13:11:47.999000Z</time>
      </trkpt>
      <trkpt lat="35.659916370743666" lon="139.7602249962599">
        <ele>6.553509316407144</ele>
        <time>2025-08-17T13:11:51.999000Z</time>
      </trkpt>
      <trkpt lat="35.65998809645736" lon="139.7602944194524">
        <ele>5.807820179499686</ele>
        <time>2025-08-17T13:11:55.999000Z</time>
      </trkpt>
      <trkpt lat="35.660073741451185" lon="139.7603783672814">
        <ele>6.006634837947786</ele>
        <time>2025-08-17T13:12:00Z</time>
      </trkpt>
      <trkpt lat="35.6601566925114" lon="139.76043872960514">
        <ele>5.9601739421486855</ele>
        <time>2025-08-17T13:12:04Z</time>
      </trkpt>
      <trkpt lat="35.66024681718448" lon="139.76050560301485">
        <ele>5.950784892775118</ele>
        <time>2025-08-17T13:12:08Z</time>
      </trkpt>
      <trkpt lat="35.660338754966375" lon="139.76058933288985">
        <ele>4.497556488960981</ele>
        <time>2025-08-17T13:12:14Z</time>
      </trkpt>
      <trkpt lat="35.66042975472535" lon="139.76066319833123">
        <ele>5.022302560508251</ele>
        <time>2025-08-17T13:12:19Z</time>
      </trkpt>
      <trkpt lat="35.660526316504416" lon="139.76072020325586">
        <ele>3.898890092037618</ele>
        <time>2025-08-17T13:12:24Z</time>
      </trkpt>
      <trkpt lat="35.660614919838636" lon="139.76079407412223">
        <ele>3.8866556361317635</ele>
        <time>2025-08-17T13:12:29Z</time>
      </trkpt>
      <trkpt lat="35.660697589759124" lon="139.76087184257742">
        <ele>4.700995144434273</ele>
        <time>2025-08-17T13:12:34.001000Z</time>
      </trkpt>
      <trkpt lat="35.660789257999284" lon="139.76093271966275">
        <ele>5.88687826320529</ele>
        <time>2025-08-17T13:12:39.001000Z</time>
      </trkpt>
      <trkpt lat="35.660871564233716" lon="139.76099154245506">
        <ele>4.556211341172457</ele>
        <time>2025-08-17T13:12:43.001000Z</time>
      </trkpt>
      <trkpt lat="35.660966950073345" lon="139.76105488227043">
        <ele>4.908825363963842</ele>
        <time>2025-08-17T13:12:48.001000Z</time>
      </trkpt>
      <trkpt lat="35.661034311810425" lon="139.7611285692138">
        <ele>4.578439496457577</ele>
        <time>2025-08-17T13:12:52.001000Z</time>
      </trkpt>
      <trkpt lat="35.66112586648134" lon="139.76118341874565">
        <ele>4.227189552970231</ele>
        <time>2025-08-17T13:12:56.001000Z</time>
      </trkpt>
      <trkpt lat="35.661224118801" lon="139.7612257443352">
        <ele>4.263097322545946</ele>
        <time>2025-08-17T13:13:00.001000Z</time>
      </trkpt>
      <trkpt lat="35.66130447441371" lon="139.76129020469378">
        <ele>3.674901155754924</ele>
        <time>2025-08-17T13:13:04.001000Z</time>
      </trkpt>
      <trkpt lat="35.66138546922921" lon="139.76138594595565">
        <ele>4.945358303375542</ele>
        <time>2025-08-17T13:13:09.001000Z</time>
      </trkpt>
      <trkpt lat="35.661460465044904" lon="139.76148485942414">
        <ele>5.350768554024398</ele>
        <time>2025-08-17T13:13:14.001000Z</time>
      </trkpt>
      <trkpt lat="35.66154565887375" lon="139.761597841652">
        <ele>6.783381170593202</ele>
        <time>2025-08-17T13:13:18.002000Z</time>
      </trkpt>
      <trkpt lat="35.661662190168805" lon="139.76164741621474">
        <ele>6.5412773145362735</ele>
        <time>2025-08-17T13:13:22.002000Z</time>
      </trkpt>
      <trkpt lat="35.6617124385198" lon="139.76174782631364">
        <ele>5.787352736108005</ele>
        <time>2025-08-17T13:13:25.002000Z</time>
      </trkpt>
      <trkpt lat="35.6618083778246" lon="139.7617863617858">
        <ele>6.725325830280781</ele>
        <time>2025-08-17T13:13:28.002000Z</time>
      </trkpt>
      <trkpt lat="35.66190192913806" lon="139.7618482798473">
        <ele>6.926013738848269</ele>
        <time>2025-08-17T13:13:32.002000Z</time>
      </trkpt>
      <trkpt lat="35.66198453215682" lon="139.76192601905967">
        <ele>6.509208916686475</ele>
        <time>2025-08-17T13:13:37.002000Z</time>
      </trkpt>
      <trkpt lat="35.66205678661898" lon="139.76200123420105">
        <ele>6.705819668248296</ele>
        <time>2025-08-17T13:13:42.002000Z</time>
      </trkpt>
      <trkpt lat="35.662143947564395" lon="139.76205266340241">
        <ele>6.863308325409889</ele>
        <time>2025-08-17T13:13:46.002000Z</time>
      </trkpt>
      <trkpt lat="35.66222618991613" lon="139.76210970771504">
        <ele>7.422142773866653</ele>
        <time>2025-08-17T13:13:50Z</time>
      </trkpt>
      <trkpt lat="35.66233654302669" lon="139.7622000383113">
        <ele>5.773749802261591</ele>
        <time>2025-08-17T13:13:54Z</time>
      </trkpt>
      <trkpt lat="35.66240765306308" lon="139.76226923682904">
        <ele>6.696431300602853</ele>
        <time>2025-08-17T13:13:57Z</time>
      </trkpt>
      <trkpt lat="35.66248555661782" lon="139.76233128510125">
        <ele>6.858050987124443</ele>
        <time>2025-08-17T13:14:00Z</time>
      </trkpt>
      <trkpt lat="35.662557568202274" lon="139.7624010318793">
        <ele>7.147968199104071</ele>
        <time>2025-08-17T13:14:03Z</time>
      </trkpt>
      <trkpt lat="35.66266908001597" lon="139.762463861489">
        <ele>7.508180369623005</ele>
        <time>2025-08-17T13:14:08Z</time>
      </trkpt>
      <trkpt lat="35.66273852999107" lon="139.76256569318414">
        <ele>7.423744976520538</ele>
        <time>2025-08-17T13:14:12Z</time>
      </trkpt>
      <trkpt lat="35.66285249401722" lon="139.762629770937">
        <ele>6.8844278594478965</ele>
        <time>2025-08-17T13:14:16Z</time>
      </trkpt>
      <trkpt lat="35.662959250763926" lon="139.76263950907963">
        <ele>6.475935256108642</ele>
        <time>2025-08-17T13:14:21Z</time>
      </trkpt>
      <trkpt lat="35.66303041341239" lon="139.76274839864848">
        <ele>5.248445277102292</ele>
        <time>2025-08-17T13:14:24Z</time>
      </trkpt>
      <trkpt lat="35.663101242695596" lon="139.7628275828823">
        <ele>6.430324982851744</ele>
        <time>2025-08-17T13:14:28Z</time>
      </trkpt>
      <trkpt lat="35.663165478777074" lon="139.76291047435353">
        <ele>7.456887218169868</ele>
        <time>2025-08-17T13:14:32.001000Z</time>
      </trkpt>
      <trkpt lat="35.66326575718807" lon="139.76296743196113">
        <ele>5.93140556383878</ele>
        <time>2025-08-17T13:14:36.001000Z</time>
      </trkpt>
      <trkpt lat="35.66333864103548" lon="139.76305502238654">
        <ele>6.356716229580343</ele>
        <time>2025-08-17T13:14:40.001000Z</time>
      </trkpt>
      <trkpt lat="35.66340149245488" lon="139.76314791831717">
        <ele>5.951085839420557</ele>
        <time>2025-08-17T13:14:44.001000Z</time>
      </trkpt>
      <trkpt lat="35.663438942051954" lon="139.7632537272683">
        <ele>4.077753836289048</ele>
        <time>2025-08-17T13:14:47.001000Z</time>
      </trkpt>
      <trkpt lat="35.66350030340896" lon="139.76337430718095">
        <ele>5.066086904145777</ele>
        <time>2025-08-17T13:14:51.001000Z</time>
      </trkpt>
      <trkpt lat="35.66351627141882" lon="139.76349240103636">
        <ele>4.1763272220268846</ele>
        <time>2025-08-17T13:14:55.001000Z</time>
      </trkpt>
      <trkpt lat="35.66347996364651" lon="139.7636052940288">
        <ele>3.949359403923154</ele>
        <time>2025-08-17T13:14:59.001000Z</time>
      </trkpt>
      <trkpt lat="35.66343164448313" lon="139.76370155675497">
        <ele>2.903512475080788</ele>
        <time>2025-08-17T13:15:02.001000Z</time>
      </trkpt>
      <trkpt lat="35.66337408457537" lon="139.76378687740973">
        <ele>3.6104965982958674</ele>
        <time>2025-08-17T13:15:05.001000Z</time>
      </trkpt>
      <trkpt lat="35.66332050326234" lon="139.76391209298296">
        <ele>5.264628914184868</ele>
        <time>2025-08-17T13:15:09.001000Z</time>
      </trkpt>
      <trkpt lat="35.6632588784941" lon="139.76402028426727">
        <ele>4.698699493892491</ele>
        <time>2025-08-17T13:15:13.002000Z</time>
      </trkpt>
      <trkpt lat="35.66320398003279" lon="139.76412012726425">
        <ele>5.119216441176832</ele>
        <time>2025-08-17T13:15:17.002000Z</time>
      </trkpt>
      <trkpt lat="35.663145243948925" lon="139.76420418396717">
        <ele>4.496277626603842</ele>
        <time>2025-08-17T13:15:20.002000Z</time>
      </trkpt>
      <trkpt lat="35.66310713420889" lon="139.76432778795186">
        <ele>4.325597587041557</ele>
        <time>2025-08-17T13:15:25.002000Z</time>
      </trkpt>
      <trkpt lat="35.663048457924994" lon="139.76441452728693">
        <ele>4.342188390903175</ele>
        <time>2025-08-17T13:15:28.002000Z</time>
      </trkpt>
      <trkpt lat="35.66300023559967" lon="139.76453183745065">
        <ele>4.151543095707893</ele>
        <time>2025-08-17T13:15:33.002000Z</time>
      </trkpt>
      <trkpt lat="35.66293219013023" lon="139.76463314348896">
        <ele>4.772430198267102</ele>
        <time>2025-08-17T13:15:36.002000Z</time>
      </trkpt>
      <trkpt lat="35.66287943282979" lon="139.76473242366566">
        <ele>2.8729499923065305</ele>
        <time>2025-08-17T13:15:41.002000Z</time>
      </trkpt>
      <trkpt lat="35.66283525420606" lon="139.76484952998246">
        <ele>3.296041307039559</ele>
        <time>2025-08-17T13:15:46.002000Z</time>
      </trkpt>
      <trkpt lat="35.6628137030514" lon="139.76496140351594">
        <ele>5.558966947719455</ele>
        <time>2025-08-17T13:15:50.002000Z</time>
      </trkpt>
      <trkpt lat="35.66277023503328" lon="139.76506680728633">
        <ele>4.719314301386476</ele>
        <time>2025-08-17T13:15:54Z</time>
      </trkpt>
      <trkpt lat="35.662805102395225" lon="139.76521350813428">
        <ele>4.611385006457567</ele>
        <time>2025-08-17T13:15:58Z</time>
      </trkpt>
      <trkpt lat="35.66276951848455" lon="139.76533615938004">
        <ele>5.800765136256814</ele>
        <time>2025-08-17T13:16:01Z</time>
      </trkpt>
      <trkpt lat="35.66272028764546" lon="139.76546084436603">
        <ele>4.855995054356754</ele>
        <time>2025-08-17T13:16:05Z</time>
      </trkpt>
      <trkpt lat="35.66275346202735" lon="139.76560756567358">
        <ele>5.820730985142291</ele>
        <time>2025-08-17T13:16:09Z</time>
      </trkpt>
      <trkpt lat="35.66271432115318" lon="139.76572916441845">
        <ele>6.099663023836911</ele>
        <time>2025-08-17T13:16:13Z</time>
      </trkpt>
      <trkpt lat="35.6627008063655" lon="139.7658451503523">
        <ele>6.345196640118957</ele>
        <time>2025-08-17T13:16:17Z</time>
      </trkpt>
      <trkpt lat="35.66268271604673" lon="139.7659631268732">
        <ele>5.196045484393835</ele>
        <time>2025-08-17T13:16:21.001000Z</time>
      </trkpt>
      <trkpt lat="35.662658684955325" lon="139.76608250821536">
        <ele>5.284397813491523</ele>
        <time>2025-08-17T13:16:24.001000Z</time>
      </trkpt>
      <trkpt lat="35.66263464350908" lon="139.7661951235901">
        <ele>6.286255054175854</ele>
        <time>2025-08-17T13:16:27.001000Z</time>
      </trkpt>
      <trkpt lat="35.66262778425661" lon="139.7663067292354">
        <ele>6.52459788415581</ele>
        <time>2025-08-17T13:16:32.001000Z</time>
      </trkpt>
      <trkpt lat="35.66259934907509" lon="139.76642438606984">
        <ele>6.648327965289354</ele>
        <time>2025-08-17T13:16:36.001000Z</time>
      </trkpt>
      <trkpt lat="35.662496418783604" lon="139.76649658505866">
        <ele>5.66135445702821</ele>
        <time>2025-08-17T13:16:42.001000Z</time>
      </trkpt>
      <trkpt lat="35.6623993443673" lon="139.7665278019245">
        <ele>4.821166591718793</ele>
        <time>2025-08-17T13:16:47.001000Z</time>
      </trkpt>
      <trkpt lat="35.66229666039338" lon="139.76659020862857">
        <ele>5.385020743124187</ele>
        <time>2025-08-17T13:16:51.001000Z</time>
      </trkpt>
      <trkpt lat="35.66220655357845" lon="139.7666488422299">
        <ele>5.709714614786208</ele>
        <time>2025-08-17T13:16:55.001000Z</time>
      </trkpt>
      <trkpt lat="35.66212073899868" lon="139.76672187449745">
        <ele>6.055043375119567</ele>
        <time>2025-08-17T13:16:59.001000Z</time>
      </trkpt>
      <trkpt lat="35.66203987305939" lon="139.76679956812123">
        <ele>6.172850131988525</ele>
        <time>2025-08-17T13:17:03.001000Z</time>
      </trkpt>
      <trkpt lat="35.66196958611356" lon="139.76688681776994">
        <ele>5.542563766241074</ele>
        <time>2025-08-17T13:17:07.001000Z</time>
      </trkpt>
      <trkpt lat="35.66190219147715" lon="139.76698305972417">
        <ele>6.022646179422736</ele>
        <time>2025-08-17T13:17:11.001000Z</time>
      </trkpt>
      <trkpt lat="35.66186325911209" lon="139.76708893787608">
        <ele>5.31430649291724</ele>
        <time>2025-08-17T13:17:15.002000Z</time>
      </trkpt>
      <trkpt lat="35.66180944082766" lon="139.76719562454926">
        <ele>5.994664275087416</ele>
        <time>2025-08-17T13:17:19.002000Z</time>
      </trkpt>
      <trkpt lat="35.66176015772497" lon="139.76731702373036">
        <ele>6.0098296366631985</ele>
        <time>2025-08-17T13:17:23.002000Z</time>
      </trkpt>
      <trkpt lat="35.66170777990378" lon="139.76743158600112">
        <ele>5.486731560900807</ele>
        <time>2025-08-17T13:17:27.002000Z</time>
      </trkpt>
      <trkpt lat="35.66164150799899" lon="139.76751821901996">
        <ele>6.136733066290617</ele>
        <time>2025-08-17T13:17:31.002000Z</time>
      </trkpt>
      <trkpt lat="35.66158096274023" lon="139.76764069369602">
        <ele>5.581049588508904</ele>
        <time>2025-08-17T13:17:35.002000Z</time>
      </trkpt>
      <trkpt lat="35.66151425995011" lon="139.76776151571383">
        <ele>5.788232304155827</ele>
        <time>2025-08-17T13:17:39.002000Z</time>
      </trkpt>
      <trkpt lat="35.66145274119477" lon="139.76786067340927">
        <ele>5.802276281639934</ele>
        <time>2025-08-17T13:17:43.002000Z</time>
      </trkpt>
      <trkpt lat="35.66139216114787" lon="139.76796175684763">
        <ele>6.488630439154804</ele>
        <time>2025-08-17T13:17:47.002000Z</time>
      </trkpt>
      <trkpt lat="35.66131428308664" lon="139.76806318952075">
        <ele>6.446677816100419</ele>
        <time>2025-08-17T13:17:51.002000Z</time>
      </trkpt>
      <trkpt lat="35.661245816182834" lon="139.76815980867332">
        <ele>6.603098044171929</ele>
        <time>2025-08-17T13:17:55.002000Z</time>
      </trkpt>
      <trkpt lat="35.66118708715478" lon="139.768248097672">
        <ele>7.183969439938664</ele>
        <time>2025-08-17T13:17:58.002000Z</time>
      </trkpt>
      <trkpt lat="35.66112597271859" lon="139.76835356160268">
        <ele>6.273707746528089</ele>
        <time>2025-08-17T13:18:02Z</time>
      </trkpt>
      <trkpt lat="35.66105478991182" lon="139.768450299959">
        <ele>6.54398038238287</ele>
        <time>2025-08-17T13:18:06Z</time>
      </trkpt>
      <trkpt lat="35.660982299532634" lon="139.76855449940197">
        <ele>6.718112219125032</ele>
        <time>2025-08-17T13:18:10Z</time>
      </trkpt>
      <trkpt lat="35.66092956324552" lon="139.7686516916313">
        <ele>6.812255342490971</ele>
        <time>2025-08-17T13:18:14Z</time>
      </trkpt>
      <trkpt lat="35.660858816080506" lon="139.76877419861688">
        <ele>5.646065894514322</ele>
        <time>2025-08-17T13:18:19Z</time>
      </trkpt>
      <trkpt lat="35.66078525495497" lon="139.7688669098841">
        <ele>7.61799905821681</ele>
        <time>2025-08-17T13:18:23Z</time>
      </trkpt>
      <trkpt lat="35.660734235006686" lon="139.76897052002371">
        <ele>7.31553986761719</ele>
        <time>2025-08-17T13:18:27Z</time>
      </trkpt>
      <trkpt lat="35.660660123322046" lon="139.76905804744885">
        <ele>6.742758925072849</ele>
        <time>2025-08-17T13:18:31Z</time>
      </trkpt>
      <trkpt lat="35.66058683166452" lon="139.76915000609873">
        <ele>6.2548673665151</ele>
        <time>2025-08-17T13:18:35.001000Z</time>
      </trkpt>
      <trkpt lat="35.660524634542874" lon="139.76923256993788">
        <ele>6.346699996851385</ele>
        <time>2025-08-17T13:18:39.001000Z</time>
      </trkpt>
      <trkpt lat="35.660461314741966" lon="139.7693131943045">
        <ele>6.60266696754843</ele>
        <time>2025-08-17T13:18:43.001000Z</time>
      </trkpt>
      <trkpt lat="35.66038985024832" lon="139.76939288404483">
        <ele>2.950673128478229</ele>
        <time>2025-08-17T13:18:47.001000Z</time>
      </trkpt>
      <trkpt lat="35.660299732827156" lon="139.76947745816446">
        <ele>4.285677117295563</ele>
        <time>2025-08-17T13:18:52.001000Z</time>
      </trkpt>
      <trkpt lat="35.66023514926977" lon="139.76956120847152">
        <ele>5.623617778532207</ele>
        <time>2025-08-17T13:18:56.001000Z</time>
      </trkpt>
      <trkpt lat="35.66015844066621" lon="139.76964747377073">
        <ele>4.73469175491482</ele>
        <time>2025-08-17T13:19:00.001000Z</time>
      </trkpt>
      <trkpt lat="35.66007465995201" lon="139.76973182018446">
        <ele>6.529500514268875</ele>
        <time>2025-08-17T13:19:05.001000Z</time>
      </trkpt>
      <trkpt lat="35.65998161045553" lon="139.76981204330738">
        <ele>6.443598886020482</ele>
        <time>2025-08-17T13:19:10.001000Z</time>
      </trkpt>
      <trkpt lat="35.65991337092363" lon="139.7698975066947">
        <ele>7.403396190144122</ele>
        <time>2025-08-17T13:19:14.001000Z</time>
      </trkpt>
      <trkpt lat="35.65983191253787" lon="139.76998733490706">
        <ele>8.101589947007596</ele>
        <time>2025-08-17T13:19:19.001000Z</time>
      </trkpt>
      <trkpt lat="35.65973486954451" lon="139.77006343959198">
        <ele>8.596887737512589</ele>
        <time>2025-08-17T13:19:24.002000Z</time>
      </trkpt>
      <trkpt lat="35.6596446250273" lon="139.77014486736869">
        <ele>7.435046964325011</ele>
        <time>2025-08-17T13:19:29.002000Z</time>
      </trkpt>
      <trkpt lat="35.65956382842961" lon="139.7702274605817">
        <ele>8.327248540706933</ele>
        <time>2025-08-17T13:19:34.002000Z</time>
      </trkpt>
      <trkpt lat="35.659479793350435" lon="139.7702878494831">
        <ele>6.9597433395683765</ele>
        <time>2025-08-17T13:19:39.002000Z</time>
      </trkpt>
      <trkpt lat="35.659408353720394" lon="139.77036055511232">
        <ele>6.728544712997973</ele>
        <time>2025-08-17T13:19:43.002000Z</time>
      </trkpt>
      <trkpt lat="35.65931503656675" lon="139.77044106685725">
        <ele>7.71734802890569</ele>
        <time>2025-08-17T13:19:48.002000Z</time>
      </trkpt>
      <trkpt lat="35.65922600115481" lon="139.77054822693333">
        <ele>9.300454333424568</ele>
        <time>2025-08-17T13:19:52.002000Z</time>
      </trkpt>
      <trkpt lat="35.659146482105925" lon="139.77061749117865">
        <ele>8.975514753721654</ele>
        <time>2025-08-17T13:19:57.002000Z</time>
      </trkpt>
      <trkpt lat="35.65906625625724" lon="139.7707085679205">
        <ele>9.46590815205127</ele>
        <time>2025-08-17T13:20:03.002000Z</time>
      </trkpt>
      <trkpt lat="35.65899536611246" lon="139.7707891642085">
        <ele>9.242638270370662</ele>
        <time>2025-08-17T13:20:08Z</time>
      </trkpt>
      <trkpt lat="35.65892171289384" lon="139.77087511561163">
        <ele>9.120076795108616</ele>
        <time>2025-08-17T13:20:13Z</time>
      </trkpt>
      <trkpt lat="35.65884451079668" lon="139.7709578228399">
        <ele>9.915435254573822</ele>
        <time>2025-08-17T13:20:18Z</time>
      </trkpt>
      <trkpt lat="35.65877644901791" lon="139.77103647783653">
        <ele>9.048807995393872</ele>
        <time>2025-08-17T13:20:22Z</time>
      </trkpt>
      <trkpt lat="35.65870738977509" lon="139.77113846807995">
        <ele>8.517893236130476</ele>
        <time>2025-08-17T13:20:25Z</time>
      </trkpt>
      <trkpt lat="35.65861247822154" lon="139.77122788808074">
        <ele>8.679617109708488</ele>
        <time>2025-08-17T13:20:28Z</time>
      </trkpt>
      <trkpt lat="35.65852698734823" lon="139.77129711195363">
        <ele>9.03700617235154</ele>
        <time>2025-08-17T13:20:31Z</time>
      </trkpt>
      <trkpt lat="35.65844637637939" lon="139.77137404505814">
        <ele>7.459262678399682</ele>
        <time>2025-08-17T13:20:34Z</time>
      </trkpt>
      <trkpt lat="35.65834709847424" lon="139.7714046495359">
        <ele>7.233117996715009</ele>
        <time>2025-08-17T13:20:38Z</time>
      </trkpt>
      <trkpt lat="35.65829217673542" lon="139.771304776009">
        <ele>7.81266350671649</ele>
        <time>2025-08-17T13:20:41Z</time>
      </trkpt>
      <trkpt lat="35.65822287225628" lon="139.77121843390535">
        <ele>5.900047953240573</ele>
        <time>2025-08-17T13:20:44Z</time>
      </trkpt>
      <trkpt lat="35.658138072971276" lon="139.7711772180192">
        <ele>5.405415718443692</ele>
        <time>2025-08-17T13:20:49.001000Z</time>
      </trkpt>
      <trkpt lat="35.65817973435996" lon="139.77128338697062">
        <ele>7.019423791207373</ele>
        <time>2025-08-17T13:20:52.001000Z</time>
      </trkpt>
      <trkpt lat="35.65826918110683" lon="139.77136553015325">
        <ele>6.672157071530819</ele>
        <time>2025-08-17T13:20:54.001000Z</time>
      </trkpt>
      <trkpt lat="35.65825556530711" lon="139.77125270819099">
        <ele>5.629478817805648</ele>
        <time>2025-08-17T13:21:04.001000Z</time>
      </trkpt>
      <trkpt lat="35.658168635519324" lon="139.77120180153602">
        <ele>4.5741987051442266</ele>
        <time>2025-08-17T13:21:07.001000Z</time>
      </trkpt>
      <trkpt lat="35.65812435944001" lon="139.7713087840762">
        <ele>4.289952628314495</ele>
        <time>2025-08-17T13:21:14.001000Z</time>
      </trkpt>
      <trkpt lat="35.6581485465076" lon="139.77141708508432">
        <ele>3.617437549866736</ele>
        <time>2025-08-17T13:21:20.001000Z</time>
      </trkpt>
      <trkpt lat="35.65808816175807" lon="139.77132325402664">
        <ele>4.9630114221945405</ele>
        <time>2025-08-17T13:21:27.001000Z</time>
      </trkpt>
      <trkpt lat="35.658032496935604" lon="139.7712109142626">
        <ele>4.817009520716965</ele>
        <time>2025-08-17T13:21:31.002000Z</time>
      </trkpt>
      <trkpt lat="35.657970277284925" lon="139.77112826660272">
        <ele>5.2419207990169525</ele>
        <time>2025-08-17T13:21:35.002000Z</time>
      </trkpt>
      <trkpt lat="35.657869070045834" lon="139.7710481438931">
        <ele>5.26650158688426</ele>
        <time>2025-08-17T13:21:39.002000Z</time>
      </trkpt>
      <trkpt lat="35.65784071950351" lon="139.77093559193267">
        <ele>5.351298022083938</ele>
        <time>2025-08-17T13:21:42.002000Z</time>
      </trkpt>
      <trkpt lat="35.6577755077984" lon="139.77082603147394">
        <ele>5.363684962503612</ele>
        <time>2025-08-17T13:21:47.002000Z</time>
      </trkpt>
      <trkpt lat="35.65773364298065" lon="139.7707157661449">
        <ele>5.569304127246141</ele>
        <time>2025-08-17T13:21:51.002000Z</time>
      </trkpt>
      <trkpt lat="35.65766819030646" lon="139.77063804439604">
        <ele>5.602213012054563</ele>
        <time>2025-08-17T13:21:55.002000Z</time>
      </trkpt>
      <trkpt lat="35.65760011655373" lon="139.77052689844552">
        <ele>5.992445272393525</ele>
        <time>2025-08-17T13:22:00.002000Z</time>
      </trkpt>
      <trkpt lat="35.65753748558705" lon="139.7704442744831">
        <ele>5.859610736370087</ele>
        <time>2025-08-17T13:22:04.002000Z</time>
      </trkpt>
      <trkpt lat="35.657452476559484" lon="139.77040528443743">
        <ele>5.346561587415636</ele>
        <time>2025-08-17T13:22:09.002000Z</time>
      </trkpt>
      <trkpt lat="35.65740215175495" lon="139.77028099931027">
        <ele>6.046512129716575</ele>
        <time>2025-08-17T13:22:12Z</time>
      </trkpt>
      <trkpt lat="35.6573739098019" lon="139.77017598272047">
        <ele>6.92381033860147</ele>
        <time>2025-08-17T13:22:16Z</time>
      </trkpt>
      <trkpt lat="35.6572935741899" lon="139.77011681006832">
        <ele>5.75385969132185</ele>
        <time>2025-08-17T13:22:20Z</time>
      </trkpt>
      <trkpt lat="35.65724425891945" lon="139.77000607167986">
        <ele>6.241489231586456</ele>
        <time>2025-08-17T13:22:24Z</time>
      </trkpt>
      <trkpt lat="35.6571909178216" lon="139.76991213421636">
        <ele>6.627871895208955</ele>
        <time>2025-08-17T13:22:29Z</time>
      </trkpt>
      <trkpt lat="35.65711727187527" lon="139.76982331689834">
        <ele>5.427114440128207</ele>
        <time>2025-08-17T13:22:34Z</time>
      </trkpt>
      <trkpt lat="35.65706536873148" lon="139.7697312480171">
        <ele>5.15010258089751</ele>
        <time>2025-08-17T13:22:39Z</time>
      </trkpt>
      <trkpt lat="35.65700225225453" lon="139.7696285882709">
        <ele>4.784956275485456</ele>
        <time>2025-08-17T13:22:44Z</time>
      </trkpt>
      <trkpt lat="35.656919375895214" lon="139.76958180341052">
        <ele>5.872172147966921</ele>
        <time>2025-08-17T13:22:49Z</time>
      </trkpt>
      <trkpt lat="35.65682575194857" lon="139.76961972100747">
        <ele>6.66519224550575</ele>
        <time>2025-08-17T13:22:54Z</time>
      </trkpt>
      <trkpt lat="35.65675419228492" lon="139.76970565914488">
        <ele>5.424955806694925</ele>
        <time>2025-08-17T13:22:59.001000Z</time>
      </trkpt>
      <trkpt lat="35.656682722154024" lon="139.76981122841366">
        <ele>5.324114149436355</ele>
        <time>2025-08-17T13:23:04.001000Z</time>
      </trkpt>
      <trkpt lat="35.65659067556368" lon="139.76989043441299">
        <ele>6.465549259446561</ele>
        <time>2025-08-17T13:23:09.001000Z</time>
      </trkpt>
      <trkpt lat="35.6565098075258" lon="139.769969550009">
        <ele>6.07108919788152</ele>
        <time>2025-08-17T13:23:14.001000Z</time>
      </trkpt>
      <trkpt lat="35.65644246331557" lon="139.7700565449563">
        <ele>5.146409478969872</ele>
        <time>2025-08-17T13:23:19.001000Z</time>
      </trkpt>
      <trkpt lat="35.65639435062675" lon="139.77016282043522">
        <ele>4.822093898430467</ele>
        <time>2025-08-17T13:23:24.001000Z</time>
      </trkpt>
      <trkpt lat="35.65632421677516" lon="139.77024832512623">
        <ele>4.511081263422966</ele>
        <time>2025-08-17T13:23:28.001000Z</time>
      </trkpt>
      <trkpt lat="35.656252533449255" lon="139.77032975247158">
        <ele>4.526411619968712</ele>
        <time>2025-08-17T13:23:33.001000Z</time>
      </trkpt>
      <trkpt lat="35.65617526577327" lon="139.77040785229428">
        <ele>4.828907421790063</ele>
        <time>2025-08-17T13:23:38.001000Z</time>
      </trkpt>
      <trkpt lat="35.656093159688595" lon="139.7704668381118">
        <ele>4.877125379629433</ele>
        <time>2025-08-17T13:23:42.002000Z</time>
      </trkpt>
      <trkpt lat="35.656009778552736" lon="139.77053132878285">
        <ele>5.600762777030468</ele>
        <time>2025-08-17T13:23:47.002000Z</time>
      </trkpt>
      <trkpt lat="35.65593285351252" lon="139.7706166629729">
        <ele>6.4245753502473235</ele>
        <time>2025-08-17T13:23:52.002000Z</time>
      </trkpt>
      <trkpt lat="35.65581749554921" lon="139.77066076862903">
        <ele>5.466583612374961</ele>
        <time>2025-08-17T13:23:56.002000Z</time>
      </trkpt>
      <trkpt lat="35.6557181533134" lon="139.77065861040256">
        <ele>7.17794284876436</ele>
        <time>2025-08-17T13:23:59.002000Z</time>
      </trkpt>
      <trkpt lat="35.65561391588075" lon="139.77068425208785">
        <ele>5.6805931171402335</ele>
        <time>2025-08-17T13:24:01.002000Z</time>
      </trkpt>
      <trkpt lat="35.655528650005266" lon="139.77072794907016">
        <ele>4.895266924053431</ele>
        <time>2025-08-17T13:24:03.002000Z</time>
      </trkpt>
      <trkpt lat="35.65546737997957" lon="139.7708169461517">
        <ele>3.9422237453982234</ele>
        <time>2025-08-17T13:24:06.002000Z</time>
      </trkpt>
      <trkpt lat="35.655418577824875" lon="139.77094220307353">
        <ele>3.5655152881518006</ele>
        <time>2025-08-17T13:24:10.002000Z</time>
      </trkpt>
      <trkpt lat="35.655373506865566" lon="139.77104372849368">
        <ele>2.7805440295487642</ele>
        <time>2025-08-17T13:24:13.002000Z</time>
      </trkpt>
      <trkpt lat="35.655308587885294" lon="139.7711622478115">
        <ele>3.023653610609472</ele>
        <time>2025-08-17T13:24:16.998000Z</time>
      </trkpt>
      <trkpt lat="35.65523946493897" lon="139.77125592657825">
        <ele>3.697996448725462</ele>
        <time>2025-08-17T13:24:20.998000Z</time>
      </trkpt>
      <trkpt lat="35.65515247197084" lon="139.7713252070258">
        <ele>4.8273591017350554</ele>
        <time>2025-08-17T13:24:23.998000Z</time>
      </trkpt>
      <trkpt lat="35.65519111738891" lon="139.77142936629645">
        <time>2025-08-17T13:24:26.998000Z</time>
      </trkpt>
    </trkseg>
  </trk>
</gpx>