<?xml version="1.0" encoding="UTF-8"?>
<gpx xmlns="http://www.topografix.com/GPX/1/1" xmlns:gpxtpx="http://www.garmin.com/xmlschemas/TrackPointExtension/v1" xmlns:xsi="http://www.w3.org/2001/XMLSchema-instance" xsi:schemaLocation="http://www.topografix.com/GPX/1/1 http://www.topografix.com/GPX/1/1/gpx.xsd" version="1.1" creator="gpx.py -- https://github.com/tkrajina/gpxpy">
  <trk>
    <name>Thursday Night Run</name>
    <trkseg>
      <trkpt lat="35.65573125888088" lon="139.77273426924378">
        <ele>6.067228127270937</ele>
        <time>2025-08-14T13:48:00.001000Z</time>
      </trkpt>
      <trkpt lat="35.65578739867425" lon="139.77284098449672">
        <ele>6.103019554167986</ele>
        <time>2025-08-14T13:48:04.001000Z</time>
      </trkpt>
      <trkpt lat="35.65580716847176" lon="139.77295481685886">
        <ele>6.430555438622832</ele>
        <time>2025-08-14T13:48:09.001000Z</time>
      </trkpt>
      <trkpt lat="35.65589674235439" lon="139.77305591356466">
        <ele>6.581976955756545</ele>
        <time>2025-08-14T13:48:14.001000Z</time>
      </trkpt>
      <trkpt lat="35.6559558268238" lon="139.77317502394374">
        <ele>5.7614492839202285</ele>
        <time>2025-08-14T13:48:19.001000Z</time>
      </trkpt>
      <trkpt lat="35.65601437182538" lon="139.77327361961062">
        <ele>5.308135780505836</ele>
        <time>2025-08-14T13:48:24.001000Z</time>
      </trkpt>
      <trkpt lat="35.65607973395144" lon="139.7733737002035">
        <ele>5.140645355917513</ele>
        <time>2025-08-14T13:48:29.001000Z</time>
      </trkpt>
      <trkpt lat="35.656146403118065" lon="139.77345048627186">
        <ele>4.880477204918861</ele>
        <time>2025-08-14T13:48:34.001000Z</time>
      </trkpt>
      <trkpt lat="35.65621454023392" lon="139.77353141674783">
        <ele>3.9947023345157504</ele>
        <time>2025-08-14T13:48:39.001000Z</time>
      </trkpt>
      <trkpt lat="35.65626317132359" lon="139.7736247702581">
        <ele>4.9728592820465565</ele>
        <time>2025-08-14T13:48:44.002000Z</time>
      </trkpt>
      <trkpt lat="35.65635110115383" lon="139.77375408849326">
        <ele>5.640152007341385</ele>
        <time>2025-08-14T13:48:50.002000Z</time>
      </trkpt>
      <trkpt lat="35.65643129633737" lon="139.77386829634708">
        <ele>5.450327641330659</ele>
        <time>2025-08-14T13:48:54.002000Z</time>
      </trkpt>
      <trkpt lat="35.65651940909688" lon="139.77394165044566">
        <ele>6.0336704375222325</ele>
        <time>2025-08-14T13:48:57.002000Z</time>
      </trkpt>
      <trkpt lat="35.65656984161722" lon="139.77404033798067">
        <ele>5.8958808006718755</ele>
        <time>2025-08-14T13:49:01.002000Z</time>
      </trkpt>
      <trkpt lat="35.65664616211366" lon="139.77415087190766">
        <ele>4.635271125473082</ele>
        <time>2025-08-14T13:49:05.002000Z</time>
      </trkpt>
      <trkpt lat="35.65671403783562" lon="139.77423639970047">
        <ele>5.788506913930178</ele>
        <time>2025-08-14T13:49:09Z</time>
      </trkpt>
      <trkpt lat="35.65679283526288" lon="139.7743196172304">
        <ele>6.135355334728956</ele>
        <time>2025-08-14T13:49:12Z</time>
      </trkpt>
      <trkpt lat="35.656871056060254" lon="139.7744073233603">
        <ele>5.616063623689115</ele>
        <time>2025-08-14T13:49:15Z</time>
      </trkpt>
      <trkpt lat="35.65695320082445" lon="139.77451006423414">
        <ele>4.8865616815164685</ele>
        <time>2025-08-14T13:49:18Z</time>
      </trkpt>
      <trkpt lat="35.65700301679612" lon="139.77461957037278">
        <ele>3.321051445789635</ele>
        <time>2025-08-14T13:49:21Z</time>
      </trkpt>
      <trkpt lat="35.65707416363535" lon="139.7747058829846">
        <ele>2.369736014865339</ele>
        <time>2025-08-14T13:49:24Z</time>
      </trkpt>
      <trkpt lat="35.65714673325186" lon="139.77478104985812">
        <ele>4.120124517939985</ele>
        <time>2025-08-14T13:49:27Z</time>
      </trkpt>
      <trkpt lat="35.657205248380585" lon="139.77487687639245">
        <ele>4.870923665352166</ele>
        <time>2025-08-14T13:49:30Z</time>
      </trkpt>
      <trkpt lat="35.65728933031603" lon="139.77498650325018">
        <ele>5.739338802173734</ele>
        <time>2025-08-14T13:49:35Z</time>
      </trkpt>
      <trkpt lat="35.657359199287434" lon="139.77505727033684">
        <ele>5.664613812230527</ele>
        <time>2025-08-14T13:49:38Z</time>
      </trkpt>
      <trkpt lat="35.65743939479022" lon="139.7751412088801">
        <ele>5.587181044742465</ele>
        <time>2025-08-14T13:49:44Z</time>
      </trkpt>
      <trkpt lat="35.657509050972514" lon="139.77521302071818">
        <ele>5.004180077463388</ele>
        <time>2025-08-14T13:49:49Z</time>
      </trkpt>
      <trkpt lat="35.65757942405696" lon="139.77531939015253">
        <ele>5.383334269747138</ele>
        <time>2025-08-14T13:49:52Z</time>
      </trkpt>
      <trkpt lat="35.65761725711925" lon="139.77544607387856">
        <ele>4.995401399210095</ele>
        <time>2025-08-14T13:49:55Z</time>
      </trkpt>
      <trkpt lat="35.65767783404184" lon="139.7755837285645">
        <ele>5.224023432470858</ele>
        <time>2025-08-14T13:49:59Z</time>
      </trkpt>
      <trkpt lat="35.657754561589854" lon="139.77571310204516">
        <ele>4.9807884227484465</ele>
        <time>2025-08-14T13:50:02Z</time>
      </trkpt>
      <trkpt lat="35.65783867836879" lon="139.7758047006099">
        <ele>5.821743403561413</ele>
        <time>2025-08-14T13:50:06.001000Z</time>
      </trkpt>
      <trkpt lat="35.65790944310214" lon="139.7759186743946">
        <ele>5.78132398147136</ele>
        <time>2025-08-14T13:50:10.001000Z</time>
      </trkpt>
      <trkpt lat="35.65796207329016" lon="139.7760218897019">
        <ele>5.957530868239701</ele>
        <time>2025-08-14T13:50:14.001000Z</time>
      </trkpt>
      <trkpt lat="35.65802593900007" lon="139.77611718723747">
        <ele>5.243006437085569</ele>
        <time>2025-08-14T13:50:18.001000Z</time>
      </trkpt>
      <trkpt lat="35.65809423452549" lon="139.77622840683048">
        <ele>4.448579641059041</ele>
        <time>2025-08-14T13:50:22.001000Z</time>
      </trkpt>
      <trkpt lat="35.658174421083864" lon="139.77633754168116">
        <ele>4.84625749103725</ele>
        <time>2025-08-14T13:50:26.001000Z</time>
      </trkpt>
      <trkpt lat="35.65824484796599" lon="139.77645741500237">
        <ele>4.942143768072128</ele>
        <time>2025-08-14T13:50:30.001000Z</time>
      </trkpt>
      <trkpt lat="35.65833678310857" lon="139.77655362155286">
        <ele>6.691567739471793</ele>
        <time>2025-08-14T13:50:34.001000Z</time>
      </trkpt>
      <trkpt lat="35.65842151155171" lon="139.77664186369714">
        <ele>5.8255454413592815</ele>
        <time>2025-08-14T13:50:38.001000Z</time>
      </trkpt>
      <trkpt lat="35.65848937646711" lon="139.77675853736793">
        <ele>6.9945812514051795</ele>
        <time>2025-08-14T13:50:42.001000Z</time>
      </trkpt>
      <trkpt lat="35.6585537159501" lon="139.77685350577966">
        <ele>5.488907505758107</ele>
        <time>2025-08-14T13:50:46.001000Z</time>
      </trkpt>
      <trkpt lat="35.658621527092144" lon="139.77693160460407">
        <ele>5.669485203921795</ele>
        <time>2025-08-14T13:50:49.001000Z</time>
      </trkpt>
      <trkpt lat="35.658690784561315" lon="139.77701776331193">
        <ele>6.179641331546009</ele>
        <time>2025-08-14T13:50:52.001000Z</time>
      </trkpt>
      <trkpt lat="35.65877670393514" lon="139.77709107368378">
        <ele>5.830541082657874</ele>
        <time>2025-08-14T13:50:56.001000Z</time>
      </trkpt>
      <trkpt lat="35.65886633614308" lon="139.77720215594906">
        <ele>5.443993292748928</ele>
        <time>2025-08-14T13:51:01.001000Z</time>
      </trkpt>
      <trkpt lat="35.65892668249353" lon="139.77729791247702">
        <ele>6.035437386482954</ele>
        <time>2025-08-14T13:51:05.002000Z</time>
      </trkpt>
      <trkpt lat="35.65902159283052" lon="139.7773587913923">
        <ele>5.1327515952289104</ele>
        <time>2025-08-14T13:51:09.002000Z</time>
      </trkpt>
      <trkpt lat="35.6590358738908" lon="139.77747931890153">
        <ele>4.768454383127391</ele>
        <time>2025-08-14T13:51:12.002000Z</time>
      </trkpt>
      <trkpt lat="35.65909280405629" lon="139.77758793824404">
        <ele>4.6254128478467464</ele>
        <time>2025-08-14T13:51:16Z</time>
      </trkpt>
      <trkpt lat="35.6591261703971" lon="139.77770114506757">
        <ele>4.5938622476533055</ele>
        <time>2025-08-14T13:52:05.001000Z</time>
      </trkpt>
      <trkpt lat="35.65920280246747" lon="139.77778543327156">
        <ele>4.257542113773525</ele>
        <time>2025-08-14T13:52:09.001000Z</time>
      </trkpt>
      <trkpt lat="35.65928085210334" lon="139.77789828714853">
        <ele>4.521929427981377</ele>
        <time>2025-08-14T13:52:13.001000Z</time>
      </trkpt>
      <trkpt lat="35.6593398180406" lon="139.77798291968782">
        <ele>5.354689050465822</ele>
        <time>2025-08-14T13:52:16.001000Z</time>
      </trkpt>
      <trkpt lat="35.65938615638609" lon="139.7780998680668">
        <ele>5.068524536676705</ele>
        <time>2025-08-14T13:52:21.001000Z</time>
      </trkpt>
      <trkpt lat="35.65944397533067" lon="139.77819992329603">
        <ele>5.579464681446552</ele>
        <time>2025-08-14T13:52:24.001000Z</time>
      </trkpt>
      <trkpt lat="35.659506762507135" lon="139.77830863752774">
        <ele>4.743053304031491</ele>
        <time>2025-08-14T13:52:27.001000Z</time>
      </trkpt>
      <trkpt lat="35.659563864509096" lon="139.77840823030678">
        <ele>5.210911615751684</ele>
        <time>2025-08-14T13:52:30.001000Z</time>
      </trkpt>
      <trkpt lat="35.65962583069663" lon="139.7785196216947">
        <ele>4.520636844448745</ele>
        <time>2025-08-14T13:52:34.001000Z</time>
      </trkpt>
      <trkpt lat="35.65971965718028" lon="139.77861338484084">
        <ele>5.676280393265188</ele>
        <time>2025-08-14T13:52:37.001000Z</time>
      </trkpt>
      <trkpt lat="35.65977653925662" lon="139.77870458148672">
        <ele>4.493112426251173</ele>
        <time>2025-08-14T13:52:40.001000Z</time>
      </trkpt>
      <trkpt lat="35.659854332683594" lon="139.77880803839113">
        <ele>5.293644585646689</ele>
        <time>2025-08-14T13:52:43.001000Z</time>
      </trkpt>
      <trkpt lat="35.65993216571592" lon="139.7788824484126">
        <ele>4.650892405770719</ele>
        <time>2025-08-14T13:52:46.001000Z</time>
      </trkpt>
      <trkpt lat="35.660020323725824" lon="139.77897911612322">
        <ele>5.59830286540091</ele>
        <time>2025-08-14T13:52:50.001000Z</time>
      </trkpt>
      <trkpt lat="35.66008919644678" lon="139.77908839213285">
        <ele>6.0986177530139685</ele>
        <time>2025-08-14T13:52:54.001000Z</time>
      </trkpt>
      <trkpt lat="35.66017832453801" lon="139.77920447999344">
        <ele>5.685804110020399</ele>
        <time>2025-08-14T13:52:58.001000Z</time>
      </trkpt>
      <trkpt lat="35.660260834937496" lon="139.779290019281">
        <ele>5.0681612165644765</ele>
        <time>2025-08-14T13:53:02.002000Z</time>
      </trkpt>
      <trkpt lat="35.6603169931252" lon="139.77940258590422">
        <ele>4.3852577758952975</ele>
        <time>2025-08-14T13:53:05.002000Z</time>
      </trkpt>
      <trkpt lat="35.660395226110204" lon="139.77946783134465">
        <ele>2.7333865696564317</ele>
        <time>2025-08-14T13:53:08.002000Z</time>
      </trkpt>
      <trkpt lat="35.66043619558233" lon="139.77957917880215">
        <ele>4.3127952218055725</ele>
        <time>2025-08-14T13:53:11.002000Z</time>
      </trkpt>
      <trkpt lat="35.660520942458795" lon="139.77967730477187">
        <ele>4.476766860112548</ele>
        <time>2025-08-14T13:53:15.002000Z</time>
      </trkpt>
      <trkpt lat="35.66056778927114" lon="139.77979779385475">
        <ele>4.4020437598228455</ele>
        <time>2025-08-14T13:53:19.002000Z</time>
      </trkpt>
      <trkpt lat="35.66061560766205" lon="139.77989255097313">
        <ele>4.056827544234693</ele>
        <time>2025-08-14T13:53:23Z</time>
      </trkpt>
      <trkpt lat="35.66067070290392" lon="139.7799868981242">
        <ele>4.653317265212536</ele>
        <time>2025-08-14T13:53:26Z</time>
      </trkpt>
      <trkpt lat="35.66074534923163" lon="139.78009257906166">
        <ele>4.427504491060972</ele>
        <time>2025-08-14T13:53:30Z</time>
      </trkpt>
      <trkpt lat="35.660802580143226" lon="139.78017853839347">
        <ele>4.624989647418261</ele>
        <time>2025-08-14T13:53:33Z</time>
      </trkpt>
      <trkpt lat="35.66087179908355" lon="139.78025641348128">
        <ele>4.985327406786382</ele>
        <time>2025-08-14T13:53:36Z</time>
      </trkpt>
      <trkpt lat="35.66095229981938" lon="139.78034002546462">
        <ele>4.584302322939038</ele>
        <time>2025-08-14T13:53:41Z</time>
      </trkpt>
      <trkpt lat="35.661028287393314" lon="139.7804350852833">
        <ele>4.439818233251572</ele>
        <time>2025-08-14T13:53:45Z</time>
      </trkpt>
      <trkpt lat="35.66117697693603" lon="139.78055980123196">
        <ele>4.975092577748001</ele>
        <time>2025-08-14T13:54:03Z</time>
      </trkpt>
      <trkpt lat="35.661243449164544" lon="139.78064095117247">
        <ele>4.375527107156813</ele>
        <time>2025-08-14T13:54:06.001000Z</time>
      </trkpt>
      <trkpt lat="35.661287187638486" lon="139.78073891590162">
        <ele>4.1914544608443975</ele>
        <time>2025-08-14T13:54:09.001000Z</time>
      </trkpt>
      <trkpt lat="35.661336697675026" lon="139.7808432471076">
        <ele>3.8975934833288193</ele>
        <time>2025-08-14T13:54:13.001000Z</time>
      </trkpt>
      <trkpt lat="35.66140903873975" lon="139.780924934884">
        <ele>4.145226241089404</ele>
        <time>2025-08-14T13:54:17.001000Z</time>
      </trkpt>
      <trkpt lat="35.66150305764184" lon="139.78100065236737">
        <ele>4.24448917247355</ele>
        <time>2025-08-14T13:54:21.001000Z</time>
      </trkpt>
      <trkpt lat="35.66156429141823" lon="139.78110213876647">
        <ele>4.165909143164754</ele>
        <time>2025-08-14T13:54:25.001000Z</time>
      </trkpt>
      <trkpt lat="35.661629314538345" lon="139.7811990711981">
        <ele>4.616545440629125</ele>
        <time>2025-08-14T13:54:29.001000Z</time>
      </trkpt>
      <trkpt lat="35.66169333614595" lon="139.78128343530304">
        <ele>3.896680036559701</ele>
        <time>2025-08-14T13:54:32.001000Z</time>
      </trkpt>
      <trkpt lat="35.66176015967733" lon="139.78139985242734">
        <ele>3.4418575186282396</ele>
        <time>2025-08-14T13:54:36.001000Z</time>
      </trkpt>
      <trkpt lat="35.661844571529876" lon="139.78148999752193">
        <ele>3.9738225396722555</ele>
        <time>2025-08-14T13:54:40.001000Z</time>
      </trkpt>
      <trkpt lat="35.66191137575451" lon="139.78157261239014">
        <ele>3.5442341128364205</ele>
        <time>2025-08-14T13:54:43.001000Z</time>
      </trkpt>
      <trkpt lat="35.661968724432256" lon="139.78168259699282">
        <ele>3.829905373044312</ele>
        <time>2025-08-14T13:54:47.001000Z</time>
      </trkpt>
      <trkpt lat="35.662026141570664" lon="139.78179769436377">
        <ele>3.758641542866826</ele>
        <time>2025-08-14T13:54:51.001000Z</time>
      </trkpt>
      <trkpt lat="35.66209656197831" lon="139.78191363258597">
        <ele>4.092526335269213</ele>
        <time>2025-08-14T13:54:55.001000Z</time>
      </trkpt>
      <trkpt lat="35.66214871108007" lon="139.7820150201462">
        <ele>3.885407831519842</ele>
        <time>2025-08-14T13:54:58.001000Z</time>
      </trkpt>
      <trkpt lat="35.66222589107928" lon="139.78211438702675">
        <ele>3.9906059270724654</ele>
        <time>2025-08-14T13:55:02.002000Z</time>
      </trkpt>
      <trkpt lat="35.66228877743475" lon="139.78223114933363">
        <ele>3.6730076437816024</ele>
        <time>2025-08-14T13:55:06.002000Z</time>
      </trkpt>
      <trkpt lat="35.66235439476954" lon="139.7823290368344">
        <ele>3.8213178580626845</ele>
        <time>2025-08-14T13:55:10.002000Z</time>
      </trkpt>
      <trkpt lat="35.66241467737184" lon="139.78244165111948">
        <ele>3.9958195434883237</ele>
        <time>2025-08-14T13:55:14.002000Z</time>
      </trkpt>
      <trkpt lat="35.662490912878816" lon="139.78251635354897">
        <ele>3.642821273766458</ele>
        <time>2025-08-14T13:55:17.002000Z</time>
      </trkpt>
      <trkpt lat="35.66257379976697" lon="139.78257015428935">
        <ele>3.3980248793959618</ele>
        <time>2025-08-14T13:55:20.002000Z</time>
      </trkpt>
      <trkpt lat="35.66261655441347" lon="139.78267220229543">
        <ele>4.309729841537774</ele>
        <time>2025-08-14T13:55:23.002000Z</time>
      </trkpt>
      <trkpt lat="35.66267698901233" lon="139.78275513112965">
        <ele>4.238849690183997</ele>
        <time>2025-08-14T13:55:26Z</time>
      </trkpt>
      <trkpt lat="35.66274784346877" lon="139.78286733259904">
        <ele>3.6864713774994016</ele>
        <time>2025-08-14T13:55:30Z</time>
      </trkpt>
      <trkpt lat="35.66282166363" lon="139.78295212950025">
        <ele>3.5161205967888236</ele>
        <time>2025-08-14T13:55:33Z</time>
      </trkpt>
      <trkpt lat="35.66289589929344" lon="139.78304987921578">
        <ele>4.633130406029522</ele>
        <time>2025-08-14T13:55:37Z</time>
      </trkpt>
      <trkpt lat="35.66295761785706" lon="139.78313800483042">
        <ele>3.021381013095379</ele>
        <time>2025-08-14T13:55:40Z</time>
      </trkpt>
      <trkpt lat="35.6629701377776" lon="139.7832530906243">
        <ele>3.951627679169178</ele>
        <time>2025-08-14T13:55:42Z</time>
      </trkpt>
      <trkpt lat="35.66304915031095" lon="139.7833479360208">
        <ele>3.5904233772307634</ele>
        <time>2025-08-14T13:55:46Z</time>
      </trkpt>
      <trkpt lat="35.66313383642849" lon="139.78341010877136">
        <ele>4.761764750815928</ele>
        <time>2025-08-14T13:55:49Z</time>
      </trkpt>
      <trkpt lat="35.663205552490304" lon="139.78350680736128">
        <ele>3.0570171866565943</ele>
        <time>2025-08-14T13:55:53Z</time>
      </trkpt>
      <trkpt lat="35.663301162761066" lon="139.7835482151063">
        <ele>5.268673563376069</ele>
        <time>2025-08-14T13:55:56Z</time>
      </trkpt>
      <trkpt lat="35.66336338357937" lon="139.7836517849173">
        <ele>4.951156503520906</ele>
        <time>2025-08-14T13:56:00Z</time>
      </trkpt>
      <trkpt lat="35.663438533751915" lon="139.78374835567132">
        <ele>4.518434423953295</ele>
        <time>2025-08-14T13:56:04Z</time>
      </trkpt>
      <trkpt lat="35.66349541885021" lon="139.78386660562916">
        <ele>5.159005667082965</ele>
        <time>2025-08-14T13:56:08.001000Z</time>
      </trkpt>
      <trkpt lat="35.663537355628996" lon="139.78398780221278">
        <ele>3.9808447156101465</ele>
        <time>2025-08-14T13:56:12.001000Z</time>
      </trkpt>
      <trkpt lat="35.66363410898353" lon="139.7840414307997">
        <ele>5.06916044279933</ele>
        <time>2025-08-14T13:56:15.001000Z</time>
      </trkpt>
      <trkpt lat="35.66366443089878" lon="139.78417915256077">
        <ele>5.2331030778586864</ele>
        <time>2025-08-14T13:56:19.001000Z</time>
      </trkpt>
      <trkpt lat="35.66371571287642" lon="139.7842724866827">
        <ele>5.487526041455567</ele>
        <time>2025-08-14T13:56:22.001000Z</time>
      </trkpt>
      <trkpt lat="35.663775674778506" lon="139.7843586244745">
        <ele>5.945371863432229</ele>
        <time>2025-08-14T13:56:25.001000Z</time>
      </trkpt>
      <trkpt lat="35.66384622081864" lon="139.78443603425956">
        <ele>5.994293778203428</ele>
        <time>2025-08-14T13:56:28.001000Z</time>
      </trkpt>
      <trkpt lat="35.663930009035425" lon="139.7845108523505">
        <ele>5.262569727376103</ele>
        <time>2025-08-14T13:56:31.001000Z</time>
      </trkpt>
      <trkpt lat="35.663990685542636" lon="139.78461150892483">
        <ele>5.648564055562019</ele>
        <time>2025-08-14T13:56:36.001000Z</time>
      </trkpt>
      <trkpt lat="35.66405394150821" lon="139.78469329275055">
        <ele>5.407901322469115</ele>
        <time>2025-08-14T13:56:39.001000Z</time>
      </trkpt>
      <trkpt lat="35.66409348049651" lon="139.78479799350285">
        <ele>5.85910171084106</ele>
        <time>2025-08-14T13:56:42.001000Z</time>
      </trkpt>
      <trkpt lat="35.664255751292124" lon="139.7846629617847">
        <ele>7.303007485345006</ele>
        <time>2025-08-14T13:58:36.001000Z</time>
      </trkpt>
      <trkpt lat="35.66436542576087" lon="139.78461619161746">
        <ele>6.900212825275958</ele>
        <time>2025-08-14T13:58:40.001000Z</time>
      </trkpt>
      <trkpt lat="35.6644348605076" lon="139.7845411047468">
        <ele>6.181115454994142</ele>
        <time>2025-08-14T13:58:43.001000Z</time>
      </trkpt>
      <trkpt lat="35.66452441166421" lon="139.78446540139643">
        <ele>6.8782500037923455</ele>
        <time>2025-08-14T13:58:47.001000Z</time>
      </trkpt>
      <trkpt lat="35.664597525438246" lon="139.78435166508402">
        <ele>6.851448784582317</ele>
        <time>2025-08-14T13:58:51.001000Z</time>
      </trkpt>
      <trkpt lat="35.66467847850464" lon="139.78427743542133">
        <ele>7.283379681408405</ele>
        <time>2025-08-14T13:58:55.001000Z</time>
      </trkpt>
      <trkpt lat="35.66476138162283" lon="139.78416297139083">
        <ele>7.016565826721489</ele>
        <time>2025-08-14T13:58:59.001000Z</time>
      </trkpt>
      <trkpt lat="35.66478603700373" lon="139.78405375169325">
        <ele>6.388704190962017</ele>
        <time>2025-08-14T13:59:02.001000Z</time>
      </trkpt>
      <trkpt lat="35.66487845120844" lon="139.78399534209981">
        <ele>6.603756698779762</ele>
        <time>2025-08-14T13:59:06.002000Z</time>
      </trkpt>
      <trkpt lat="35.66493748283679" lon="139.78388242642353">
        <ele>6.221385319717228</ele>
        <time>2025-08-14T13:59:10.002000Z</time>
      </trkpt>
      <trkpt lat="35.66502554487783" lon="139.78377729863112">
        <ele>6.491255794651806</ele>
        <time>2025-08-14T13:59:13.002000Z</time>
      </trkpt>
      <trkpt lat="35.66513353152156" lon="139.78376779212115">
        <ele>5.855569454841316</ele>
        <time>2025-08-14T13:59:17.002000Z</time>
      </trkpt>
      <trkpt lat="35.66529029257158" lon="139.78356788755417">
        <ele>6.137859809212387</ele>
        <time>2025-08-14T14:00:15Z</time>
      </trkpt>
      <trkpt lat="35.665364195724955" lon="139.78348205608648">
        <ele>6.05496004037559</ele>
        <time>2025-08-14T14:00:19Z</time>
      </trkpt>
      <trkpt lat="35.665432602809084" lon="139.78340784451427">
        <ele>5.292849883437157</ele>
        <time>2025-08-14T14:00:22Z</time>
      </trkpt>
      <trkpt lat="35.6655344288678" lon="139.78333289322322">
        <ele>5.851739503443241</ele>
        <time>2025-08-14T14:00:26Z</time>
      </trkpt>
      <trkpt lat="35.66564044433314" lon="139.7832782566073">
        <ele>6.43443114683032</ele>
        <time>2025-08-14T14:00:30.001000Z</time>
      </trkpt>
      <trkpt lat="35.6657169504279" lon="139.78317994642558">
        <ele>7.43710408359766</ele>
        <time>2025-08-14T14:00:34.001000Z</time>
      </trkpt>
      <trkpt lat="35.665793863881554" lon="139.78308248355586">
        <ele>7.809770226478577</ele>
        <time>2025-08-14T14:00:38.001000Z</time>
      </trkpt>
      <trkpt lat="35.66587226583015" lon="139.78302721082906">
        <ele>6.944065474905074</ele>
        <time>2025-08-14T14:00:42.001000Z</time>
      </trkpt>
      <trkpt lat="35.665939368306134" lon="139.78295328868103">
        <ele>7.017860227264464</ele>
        <time>2025-08-14T14:00:46.001000Z</time>
      </trkpt>
      <trkpt lat="35.66601059844488" lon="139.7828829346896">
        <ele>7.656725532375276</ele>
        <time>2025-08-14T14:00:49.001000Z</time>
      </trkpt>
      <trkpt lat="35.66608071413073" lon="139.78278764703276">
        <ele>7.548672289587557</ele>
        <time>2025-08-14T14:00:53.001000Z</time>
      </trkpt>
      <trkpt lat="35.66615288917334" lon="139.78268090102364">
        <ele>6.707964233122766</ele>
        <time>2025-08-14T14:00:57.001000Z</time>
      </trkpt>
      <trkpt lat="35.66624047423712" lon="139.78260008696643">
        <ele>7.780003102496266</ele>
        <time>2025-08-14T14:01:01.001000Z</time>
      </trkpt>
      <trkpt lat="35.66631869143243" lon="139.78249772342434">
        <ele>8.003973584622145</ele>
        <time>2025-08-14T14:01:05.001000Z</time>
      </trkpt>
      <trkpt lat="35.66639009830314" lon="139.78242738236113">
        <ele>8.52990297600627</ele>
        <time>2025-08-14T14:01:08.001000Z</time>
      </trkpt>
      <trkpt lat="35.6664683797894" lon="139.78233532684436">
        <ele>7.749435254372656</ele>
        <time>2025-08-14T14:01:12.001000Z</time>
      </trkpt>
      <trkpt lat="35.66651772943517" lon="139.78222530371255">
        <ele>8.099432932212949</ele>
        <time>2025-08-14T14:01:16.001000Z</time>
      </trkpt>
      <trkpt lat="35.666601410213865" lon="139.78216762083477">
        <ele>7.162452305667102</ele>
        <time>2025-08-14T14:01:19.001000Z</time>
      </trkpt>
      <trkpt lat="35.66668832448867" lon="139.78210928288664">
        <ele>7.411647611297667</ele>
        <time>2025-08-14T14:01:22.002000Z</time>
      </trkpt>
      <trkpt lat="35.66677188015322" lon="139.7820143720694">
        <ele>7.890224832110107</ele>
        <time>2025-08-14T14:01:26.002000Z</time>
      </trkpt>
      <trkpt lat="35.666842749256645" lon="139.7819334018676">
        <ele>7.556485701352358</ele>
        <time>2025-08-14T14:01:30.002000Z</time>
      </trkpt>
      <trkpt lat="35.6669350717449" lon="139.78187703546732">
        <ele>8.97082158178091</ele>
        <time>2025-08-14T14:01:34.002000Z</time>
      </trkpt>
      <trkpt lat="35.667018585961344" lon="139.78179219931772">
        <ele>8.506885956041515</ele>
        <time>2025-08-14T14:01:38.002000Z</time>
      </trkpt>
      <trkpt lat="35.667099520109254" lon="139.78170264950626">
        <ele>8.468633859418333</ele>
        <time>2025-08-14T14:01:42.002000Z</time>
      </trkpt>
      <trkpt lat="35.66720611653454" lon="139.78164379336374">
        <ele>8.509815217927098</ele>
        <time>2025-08-14T14:01:45.999000Z</time>
      </trkpt>
      <trkpt lat="35.667268518698286" lon="139.78154399868495">
        <ele>9.132099547423422</ele>
        <time>2025-08-14T14:01:49.999000Z</time>
      </trkpt>
      <trkpt lat="35.667354375236215" lon="139.78145538699465">
        <ele>7.412714008241892</ele>
        <time>2025-08-14T14:01:53.999000Z</time>
      </trkpt>
      <trkpt lat="35.66742307369747" lon="139.78136675976998">
        <ele>8.52124453149736</ele>
        <time>2025-08-14T14:01:58Z</time>
      </trkpt>
      <trkpt lat="35.667518900415274" lon="139.78128539843803">
        <ele>8.751515483483672</ele>
        <time>2025-08-14T14:02:02Z</time>
      </trkpt>
      <trkpt lat="35.66759797399104" lon="139.78119174571867">
        <ele>8.601737847551703</ele>
        <time>2025-08-14T14:02:06Z</time>
      </trkpt>
      <trkpt lat="35.66769476985691" lon="139.78111094421308">
        <ele>8.849927371367812</ele>
        <time>2025-08-14T14:02:10Z</time>
      </trkpt>
      <trkpt lat="35.66775998301707" lon="139.78101010885237">
        <ele>9.735754584893584</ele>
        <time>2025-08-14T14:02:14Z</time>
      </trkpt>
      <trkpt lat="35.66783985945146" lon="139.7809193300121">
        <ele>9.9727150099352</ele>
        <time>2025-08-14T14:02:18Z</time>
      </trkpt>
      <trkpt lat="35.66791289105487" lon="139.7808457225356">
        <ele>10.121860696002841</ele>
        <time>2025-08-14T14:02:22Z</time>
      </trkpt>
      <trkpt lat="35.66798044306218" lon="139.78075127502916">
        <ele>9.681174297817051</ele>
        <time>2025-08-14T14:02:26Z</time>
      </trkpt>
      <trkpt lat="35.66806351382012" lon="139.78067994499725">
        <ele>9.3564174156636</ele>
        <time>2025-08-14T14:02:31Z</time>
      </trkpt>
      <trkpt lat="35.66814240030851" lon="139.78059043412696">
        <ele>9.403860092163086</ele>
        <time>2025-08-14T14:02:36Z</time>
      </trkpt>
      <trkpt lat="35.66820578576301" lon="139.7805099523745">
        <ele>9.098366538994014</ele>
        <time>2025-08-14T14:02:40.001000Z</time>
      </trkpt>
      <trkpt lat="35.66826311835577" lon="139.78042153241626">
        <ele>8.523698648437858</ele>
        <time>2025-08-14T14:02:44.001000Z</time>
      </trkpt>
      <trkpt lat="35.66833073017085" lon="139.7803369365889">
        <ele>8.428887261077762</ele>
        <time>2025-08-14T14:02:48.001000Z</time>
      </trkpt>
      <trkpt lat="35.668398660787865" lon="139.78023303093147">
        <ele>7.817742293700576</ele>
        <time>2025-08-14T14:02:53.001000Z</time>
      </trkpt>
      <trkpt lat="35.66833093362087" lon="139.78015638298197">
        <ele>7.182320664636791</ele>
        <time>2025-08-14T14:02:58.001000Z</time>
      </trkpt>
      <trkpt lat="35.668246735075826" lon="139.78008751370095">
        <ele>7.710610194131732</ele>
        <time>2025-08-14T14:03:02.001000Z</time>
      </trkpt>
      <trkpt lat="35.66815992761318" lon="139.78001531546153">
        <ele>7.2747408440336585</ele>
        <time>2025-08-14T14:03:06.001000Z</time>
      </trkpt>
      <trkpt lat="35.66807036219234" lon="139.7799546189442">
        <ele>6.639597846195102</ele>
        <time>2025-08-14T14:03:10.001000Z</time>
      </trkpt>
      <trkpt lat="35.667984298183356" lon="139.7798831950002">
        <ele>7.050868407823145</ele>
        <time>2025-08-14T14:03:13.001000Z</time>
      </trkpt>
      <trkpt lat="35.66788572804081" lon="139.77982988993466">
        <ele>6.610032202675939</ele>
        <time>2025-08-14T14:03:17.001000Z</time>
      </trkpt>
      <trkpt lat="35.66792708595098" lon="139.77994413329233">
        <ele>8.121929852291942</ele>
        <time>2025-08-14T14:03:26.002000Z</time>
      </trkpt>
      <trkpt lat="35.66802009836891" lon="139.7799781159565">
        <ele>6.971389361657202</ele>
        <time>2025-08-14T14:03:29.002000Z</time>
      </trkpt>
      <trkpt lat="35.66812550068355" lon="139.78001207207828">
        <ele>6.463404655456543</ele>
        <time>2025-08-14T14:03:32.002000Z</time>
      </trkpt>
      <trkpt lat="35.66819979935762" lon="139.78007916418923">
        <ele>5.565376156009734</ele>
        <time>2025-08-14T14:03:35.002000Z</time>
      </trkpt>
      <trkpt lat="35.66828759325369" lon="139.78010479051858">
        <ele>6.268321310169995</ele>
        <time>2025-08-14T14:03:38.002000Z</time>
      </trkpt>
      <trkpt lat="35.668397509414525" lon="139.78011032432718">
        <ele>6.565005578100681</ele>
        <time>2025-08-14T14:03:42.002000Z</time>
      </trkpt>
      <trkpt lat="35.66848037448072" lon="139.78006684040898">
        <ele>6.849875728599727</ele>
        <time>2025-08-14T14:03:46.002000Z</time>
      </trkpt>
      <trkpt lat="35.66854767970143" lon="139.7799929203824">
        <ele>7.709576974622905</ele>
        <time>2025-08-14T14:03:49.999000Z</time>
      </trkpt>
      <trkpt lat="35.66862642798615" lon="139.7799241871915">
        <ele>7.615549889393151</ele>
        <time>2025-08-14T14:03:53.999000Z</time>
      </trkpt>
      <trkpt lat="35.668649541666525" lon="139.77981680497786">
        <ele>7.226386241614819</ele>
        <time>2025-08-14T14:03:56.999000Z</time>
      </trkpt>
      <trkpt lat="35.668685185841454" lon="139.7797130303488">
        <ele>7.236692070029676</ele>
        <time>2025-08-14T14:03:59.999000Z</time>
      </trkpt>
      <trkpt lat="35.66876900625473" lon="139.7796408239852">
        <ele>6.4166711419820786</ele>
        <time>2025-08-14T14:04:04Z</time>
      </trkpt>
      <trkpt lat="35.66883956511051" lon="139.7795211548532">
        <ele>7.0133443512022495</ele>
        <time>2025-08-14T14:04:08Z</time>
      </trkpt>
      <trkpt lat="35.66888387643494" lon="139.7794085533896">
        <ele>7.49589067697525</ele>
        <time>2025-08-14T14:04:11Z</time>
      </trkpt>
      <trkpt lat="35.66894183247255" lon="139.77927807959148">
        <ele>7.748654901981354</ele>
        <time>2025-08-14T14:04:15Z</time>
      </trkpt>
      <trkpt lat="35.6689919463344" lon="139.7791634380015">
        <ele>7.484307604841888</ele>
        <time>2025-08-14T14:04:19Z</time>
      </trkpt>
      <trkpt lat="35.669029182594834" lon="139.77905405335386">
        <ele>6.931495616212487</ele>
        <time>2025-08-14T14:04:23Z</time>
      </trkpt>
      <trkpt lat="35.669106432436166" lon="139.77859528729297">
        <ele>6.13114348705858</ele>
        <time>2025-08-14T14:05:08.001000Z</time>
      </trkpt>
      <trkpt lat="35.66912697252957" lon="139.77845282398465">
        <ele>5.434095888398588</ele>
        <time>2025-08-14T14:05:13.001000Z</time>
      </trkpt>
      <trkpt lat="35.66916649789118" lon="139.77832991039637">
        <ele>5.598829060792923</ele>
        <time>2025-08-14T14:05:18.001000Z</time>
      </trkpt>
      <trkpt lat="35.66918717741065" lon="139.77819474013637">
        <ele>6.180684732273221</ele>
        <time>2025-08-14T14:05:23.002000Z</time>
      </trkpt>
      <trkpt lat="35.669254553710836" lon="139.77811081755016">
        <ele>5.751765591092408</ele>
        <time>2025-08-14T14:05:27.002000Z</time>
      </trkpt>
      <trkpt lat="35.669284263643675" lon="139.7779758586599">
        <ele>5.05641133338213</ele>
        <time>2025-08-14T14:05:32.002000Z</time>
      </trkpt>
      <trkpt lat="35.66930652272576" lon="139.77783823860355">
        <ele>6.764132439158857</ele>
        <time>2025-08-14T14:05:37.002000Z</time>
      </trkpt>
      <trkpt lat="35.669312863222416" lon="139.77771277460445">
        <ele>6.5961277997121215</ele>
        <time>2025-08-14T14:05:42.002000Z</time>
      </trkpt>
      <trkpt lat="35.66935418235287" lon="139.77759778636425">
        <ele>7.361980299465358</ele>
        <time>2025-08-14T14:05:46.002000Z</time>
      </trkpt>
      <trkpt lat="35.669379354851515" lon="139.77744891263308">
        <ele>7.3710054168477654</ele>
        <time>2025-08-14T14:05:50.002000Z</time>
      </trkpt>
      <trkpt lat="35.669430040867624" lon="139.77731729152734">
        <ele>7.993829700164497</ele>
        <time>2025-08-14T14:05:53.002000Z</time>
      </trkpt>
      <trkpt lat="35.669462702307165" lon="139.77720682652568">
        <ele>6.305937926284969</ele>
        <time>2025-08-14T14:05:56Z</time>
      </trkpt>
      <trkpt lat="35.66949317634513" lon="139.77710011595292">
        <ele>5.730096414685249</ele>
        <time>2025-08-14T14:05:59Z</time>
      </trkpt>
      <trkpt lat="35.66954200727263" lon="139.77697767784164">
        <ele>5.388683230616152</ele>
        <time>2025-08-14T14:06:03Z</time>
      </trkpt>
      <trkpt lat="35.66956839499659" lon="139.77686190942148">
        <ele>6.582322971895337</ele>
        <time>2025-08-14T14:06:06Z</time>
      </trkpt>
      <trkpt lat="35.66960747060097" lon="139.77673460117254">
        <ele>6.5106894709169865</ele>
        <time>2025-08-14T14:06:10Z</time>
      </trkpt>
      <trkpt lat="35.66964020653935" lon="139.77659497926584">
        <ele>5.018697491846979</ele>
        <time>2025-08-14T14:06:14Z</time>
      </trkpt>
      <trkpt lat="35.669682728504306" lon="139.77648855623278">
        <ele>2.5658431304618716</ele>
        <time>2025-08-14T14:06:17Z</time>
      </trkpt>
      <trkpt lat="35.66971466125743" lon="139.7763728878008">
        <ele>4.238200322724879</ele>
        <time>2025-08-14T14:06:21Z</time>
      </trkpt>
      <trkpt lat="35.66975585441286" lon="139.77623086833142">
        <ele>5.80503112450242</ele>
        <time>2025-08-14T14:06:25Z</time>
      </trkpt>
      <trkpt lat="35.66974431726606" lon="139.7761082983571">
        <ele>5.624418895691633</ele>
        <time>2025-08-14T14:06:28Z</time>
      </trkpt>
      <trkpt lat="35.66977581087681" lon="139.77599393063463">
        <ele>4.459909002296627</ele>
        <time>2025-08-14T14:06:31Z</time>
      </trkpt>
      <trkpt lat="35.66985196215804" lon="139.77593109349357">
        <ele>4.36846723780036</ele>
        <time>2025-08-14T14:06:34.001000Z</time>
      </trkpt>
      <trkpt lat="35.669834288675794" lon="139.77578757611352">
        <ele>4.271616247482598</ele>
        <time>2025-08-14T14:06:38.001000Z</time>
      </trkpt>
      <trkpt lat="35.66988128940766" lon="139.77566224540033">
        <ele>3.8525614682585</ele>
        <time>2025-08-14T14:06:42.001000Z</time>
      </trkpt>
      <trkpt lat="35.669967089236636" lon="139.7755542009448">
        <ele>4.090778050944209</ele>
        <time>2025-08-14T14:06:46.001000Z</time>
      </trkpt>
      <trkpt lat="35.670007259307475" lon="139.77543076029602">
        <ele>4.8839645106345415</ele>
        <time>2025-08-14T14:06:50.001000Z</time>
      </trkpt>
      <trkpt lat="35.67005894575674" lon="139.77534021247678">
        <ele>2.6393558653071523</ele>
        <time>2025-08-14T14:06:53.001000Z</time>
      </trkpt>
      <trkpt lat="35.67007525363674" lon="139.77522565790562">
        <ele>4.883663344196975</ele>
        <time>2025-08-14T14:06:56.001000Z</time>
      </trkpt>
      <trkpt lat="35.67030077540416" lon="139.77502511899354">
        <ele>5.819777630269527</ele>
        <time>2025-08-14T14:08:39.001000Z</time>
      </trkpt>
      <trkpt lat="35.67035018840191" lon="139.77490300568047">
        <ele>5.279019004665315</ele>
        <time>2025-08-14T14:08:45.001000Z</time>
      </trkpt>
      <trkpt lat="35.67039264303682" lon="139.7747943992472">
        <ele>4.812682799063623</ele>
        <time>2025-08-14T14:08:48.001000Z</time>
      </trkpt>
      <trkpt lat="35.67044861106317" lon="139.77467871506556">
        <ele>4.853631534613669</ele>
        <time>2025-08-14T14:08:52.001000Z</time>
      </trkpt>
      <trkpt lat="35.670455181366805" lon="139.77454895511747">
        <ele>4.541194136254489</ele>
        <time>2025-08-14T14:08:56.001000Z</time>
      </trkpt>
      <trkpt lat="35.670494406638774" lon="139.7744443242634">
        <ele>4.212458488531411</ele>
        <time>2025-08-14T14:09:00.001000Z</time>
      </trkpt>
      <trkpt lat="35.67056661887214" lon="139.77436427209997">
        <ele>4.983169480226934</ele>
        <time>2025-08-14T14:09:04.001000Z</time>
      </trkpt>
      <trkpt lat="35.670579828872356" lon="139.77425204214117">
        <ele>3.736916996538639</ele>
        <time>2025-08-14T14:09:09.001000Z</time>
      </trkpt>
      <trkpt lat="35.670615071418744" lon="139.77413804892328">
        <ele>4.078116478398442</ele>
        <time>2025-08-14T14:09:14.002000Z</time>
      </trkpt>
      <trkpt lat="35.67068723272402" lon="139.77405648526013">
        <ele>4.040667460300028</ele>
        <time>2025-08-14T14:09:18.002000Z</time>
      </trkpt>
      <trkpt lat="35.67074275288638" lon="139.77392699752963">
        <ele>3.6197873521596193</ele>
        <time>2025-08-14T14:09:22.002000Z</time>
      </trkpt>
      <trkpt lat="35.670763415025455" lon="139.7738040099247">
        <ele>4.664945710450411</ele>
        <time>2025-08-14T14:09:27.002000Z</time>
      </trkpt>
      <trkpt lat="35.67082931900648" lon="139.77371304444475">
        <ele>4.116027759388089</ele>
        <time>2025-08-14T14:09:31.002000Z</time>
      </trkpt>
      <trkpt lat="35.670887939845315" lon="139.77361070123715">
        <ele>4.650460180826485</ele>
        <time>2025-08-14T14:09:36.002000Z</time>
      </trkpt>
      <trkpt lat="35.67091985152428" lon="139.77349018908183">
        <ele>4.144293986260891</ele>
        <time>2025-08-14T14:09:40.002000Z</time>
      </trkpt>
      <trkpt lat="35.67099694476117" lon="139.77328598173474">
        <ele>4.718445506878197</ele>
        <time>2025-08-14T14:09:58.002000Z</time>
      </trkpt>
      <trkpt lat="35.67105275097405" lon="139.77319211205455">
        <ele>5.543184637092054</ele>
        <time>2025-08-14T14:10:03.003000Z</time>
      </trkpt>
      <trkpt lat="35.671090522479076" lon="139.77304308196585">
        <ele>4.735998360440135</ele>
        <time>2025-08-14T14:10:07.003000Z</time>
      </trkpt>
      <trkpt lat="35.671149746586416" lon="139.77291649209425">
        <ele>4.420438943430781</ele>
        <time>2025-08-14T14:10:11Z</time>
      </trkpt>
      <trkpt lat="35.671202925395406" lon="139.7727855905234">
        <ele>5.495197403244674</ele>
        <time>2025-08-14T14:10:15Z</time>
      </trkpt>
      <trkpt lat="35.671256445435134" lon="139.77268275293542">
        <ele>4.735516523942351</ele>
        <time>2025-08-14T14:10:18Z</time>
      </trkpt>
      <trkpt lat="35.671290275629964" lon="139.77257224839192">
        <ele>6.37116973195225</ele>
        <time>2025-08-14T14:10:21Z</time>
      </trkpt>
      <trkpt lat="35.671329837567356" lon="139.7724614669649">
        <ele>6.554349032230675</ele>
        <time>2025-08-14T14:10:25Z</time>
      </trkpt>
      <trkpt lat="35.67133880684739" lon="139.77233588726705">
        <ele>6.144193955697119</ele>
        <time>2025-08-14T14:10:29Z</time>
      </trkpt>
      <trkpt lat="35.67130002961003" lon="139.77222452656707">
        <ele>6.800003952346742</ele>
        <time>2025-08-14T14:10:33Z</time>
      </trkpt>
      <trkpt lat="35.67127198617818" lon="139.77210121745617">
        <ele>6.3598562851548195</ele>
        <time>2025-08-14T14:10:37Z</time>
      </trkpt>
      <trkpt lat="35.67118064545246" lon="139.77205173731295">
        <ele>6.088080894201994</ele>
        <time>2025-08-14T14:10:41Z</time>
      </trkpt>
      <trkpt lat="35.67108759808946" lon="139.77207194732748">
        <ele>5.289344099350274</ele>
        <time>2025-08-14T14:10:45Z</time>
      </trkpt>
      <trkpt lat="35.67096733089165" lon="139.77207125570015">
        <ele>4.234958148561418</ele>
        <time>2025-08-14T14:10:49.001000Z</time>
      </trkpt>
      <trkpt lat="35.670875875763954" lon="139.77202425178677">
        <ele>5.189518664963543</ele>
        <time>2025-08-14T14:10:53.001000Z</time>
      </trkpt>
      <trkpt lat="35.67083123999515" lon="139.7719266008141">
        <ele>5.553318460471928</ele>
        <time>2025-08-14T14:10:56.001000Z</time>
      </trkpt>
      <trkpt lat="35.67078354008322" lon="139.77181483001357">
        <ele>5.816775081679225</ele>
        <time>2025-08-14T14:11:00.001000Z</time>
      </trkpt>
      <trkpt lat="35.67070039311851" lon="139.77173107303946">
        <ele>5.560589321888983</ele>
        <time>2025-08-14T14:11:04.001000Z</time>
      </trkpt>
      <trkpt lat="35.67062989341548" lon="139.77165920758588">
        <ele>5.161008232273161</ele>
        <time>2025-08-14T14:11:07.001000Z</time>
      </trkpt>
      <trkpt lat="35.67057044887731" lon="139.77157129009103">
        <ele>6.318581231869757</ele>
        <time>2025-08-14T14:11:11.001000Z</time>
      </trkpt>
      <trkpt lat="35.670489073591526" lon="139.77150581329593">
        <ele>6.844701969064772</ele>
        <time>2025-08-14T14:11:14.001000Z</time>
      </trkpt>
      <trkpt lat="35.67040150904582" lon="139.77146469423036">
        <ele>4.940403868444264</ele>
        <time>2025-08-14T14:11:18.001000Z</time>
      </trkpt>
      <trkpt lat="35.67031410592766" lon="139.7713876229013">
        <ele>5.5475142151117325</ele>
        <time>2025-08-14T14:11:22.001000Z</time>
      </trkpt>
      <trkpt lat="35.67025732644123" lon="139.77126838371765">
        <ele>5.089616244658828</ele>
        <time>2025-08-14T14:11:26.001000Z</time>
      </trkpt>
      <trkpt lat="35.670189483460675" lon="139.77116663988778">
        <ele>5.465551063418388</ele>
        <time>2025-08-14T14:11:30.001000Z</time>
      </trkpt>
      <trkpt lat="35.67010717667191" lon="139.77106245132555">
        <ele>5.751854890957475</ele>
        <time>2025-08-14T14:11:34.001000Z</time>
      </trkpt>
      <trkpt lat="35.67005209929512" lon="139.77092946384045">
        <ele>5.584334281273186</ele>
        <time>2025-08-14T14:11:38.002000Z</time>
      </trkpt>
      <trkpt lat="35.66998546326171" lon="139.7708327304992">
        <ele>4.588466671295464</ele>
        <time>2025-08-14T14:11:41.002000Z</time>
      </trkpt>
      <trkpt lat="35.66990978377845" lon="139.77075992203177">
        <ele>4.792845596559346</ele>
        <time>2025-08-14T14:11:44.002000Z</time>
      </trkpt>
      <trkpt lat="35.66981788495999" lon="139.77073269573467">
        <ele>5.513173336163163</ele>
        <time>2025-08-14T14:11:47.002000Z</time>
      </trkpt>
      <trkpt lat="35.66974306915183" lon="139.77065793683093">
        <ele>5.085091768763959</ele>
        <time>2025-08-14T14:11:50.002000Z</time>
      </trkpt>
      <trkpt lat="35.66974416450347" lon="139.77050645280488">
        <ele>5.367761541157961</ele>
        <time>2025-08-14T14:11:54.002000Z</time>
      </trkpt>
      <trkpt lat="35.669664103791206" lon="139.77041863137927">
        <ele>5.859963398426771</ele>
        <time>2025-08-14T14:11:57.002000Z</time>
      </trkpt>
      <trkpt lat="35.66957023307691" lon="139.7703951473875">
        <ele>4.893971418961883</ele>
        <time>2025-08-14T14:12:00.002000Z</time>
      </trkpt>
      <trkpt lat="35.66951057747637" lon="139.7703092621307">
        <ele>4.527471928857267</ele>
        <time>2025-08-14T14:12:04.002000Z</time>
      </trkpt>
      <trkpt lat="35.669433064230546" lon="139.770227572502">
        <ele>5.12926000636071</ele>
        <time>2025-08-14T14:12:08.002000Z</time>
      </trkpt>
      <trkpt lat="35.669363001021985" lon="139.77013458144535">
        <ele>5.983297613449395</ele>
        <time>2025-08-14T14:12:12.002000Z</time>
      </trkpt>
      <trkpt lat="35.66928921854314" lon="139.77001344818893">
        <ele>5.577834933996201</ele>
        <time>2025-08-14T14:12:16Z</time>
      </trkpt>
      <trkpt lat="35.66919472388143" lon="139.76997415155716">
        <ele>5.570874106138945</ele>
        <time>2025-08-14T14:12:20Z</time>
      </trkpt>
      <trkpt lat="35.669098089684944" lon="139.76994650459278">
        <ele>5.6285932725295424</ele>
        <time>2025-08-14T14:12:24Z</time>
      </trkpt>
      <trkpt lat="35.66906555323284" lon="139.76983770740688">
        <ele>3.411007552407682</ele>
        <time>2025-08-14T14:12:27Z</time>
      </trkpt>
      <trkpt lat="35.66899762628187" lon="139.7697637675398">
        <ele>4.558457848615944</ele>
        <time>2025-08-14T14:12:30Z</time>
      </trkpt>
      <trkpt lat="35.66891485820551" lon="139.76967632930584">
        <ele>5.5568872056901455</ele>
        <time>2025-08-14T14:12:34Z</time>
      </trkpt>
      <trkpt lat="35.66883400534349" lon="139.76959277992628">
        <ele>5.1831132508814335</ele>
        <time>2025-08-14T14:12:38Z</time>
      </trkpt>
      <trkpt lat="35.66876816889619" lon="139.76949520540754">
        <ele>5.112827794626355</ele>
        <time>2025-08-14T14:12:42Z</time>
      </trkpt>
      <trkpt lat="35.66869811084376" lon="139.76939927554545">
        <ele>4.505546456202865</ele>
        <time>2025-08-14T14:12:47Z</time>
      </trkpt>
      <trkpt lat="35.668624917753725" lon="139.76931533787453">
        <ele>5.432348997332156</ele>
        <time>2025-08-14T14:12:51Z</time>
      </trkpt>
      <trkpt lat="35.668530978381945" lon="139.76924118442568">
        <ele>5.1172232907265425</ele>
        <time>2025-08-14T14:12:56.001000Z</time>
      </trkpt>
      <trkpt lat="35.668426673520315" lon="139.7691918997144">
        <ele>5.239994241856039</ele>
        <time>2025-08-14T14:13:01.001000Z</time>
      </trkpt>
      <trkpt lat="35.66834222994279" lon="139.769115588459">
        <ele>5.239347998984158</ele>
        <time>2025-08-14T14:13:06.001000Z</time>
      </trkpt>
      <trkpt lat="35.668266151334365" lon="139.76904069203124">
        <ele>4.527728674933314</ele>
        <time>2025-08-14T14:13:11.001000Z</time>
      </trkpt>
      <trkpt lat="35.6681694359045" lon="139.769077446769">
        <ele>5.5265437895432115</ele>
        <time>2025-08-14T14:13:18.001000Z</time>
      </trkpt>
      <trkpt lat="35.66808569578607" lon="139.7691623696492">
        <ele>4.949242448434234</ele>
        <time>2025-08-14T14:13:24.001000Z</time>
      </trkpt>
      <trkpt lat="35.66801232229543" lon="139.7692789708972">
        <ele>5.036596157588065</ele>
        <time>2025-08-14T14:13:29.001000Z</time>
      </trkpt>
      <trkpt lat="35.66794426227761" lon="139.76936409180934">
        <ele>4.216031609103084</ele>
        <time>2025-08-14T14:13:34.001000Z</time>
      </trkpt>
      <trkpt lat="35.66785038988307" lon="139.769400616679">
        <ele>5.059083472006023</ele>
        <time>2025-08-14T14:13:38.002000Z</time>
      </trkpt>
      <trkpt lat="35.66777420062801" lon="139.76948203894014">
        <ele>5.354123690165579</ele>
        <time>2025-08-14T14:13:43.002000Z</time>
      </trkpt>
      <trkpt lat="35.667745490969985" lon="139.76959617825185">
        <ele>3.9027649480849504</ele>
        <time>2025-08-14T14:13:47.002000Z</time>
      </trkpt>
      <trkpt lat="35.66768020272442" lon="139.76967648661432">
        <ele>3.517527850344777</ele>
        <time>2025-08-14T14:13:51.002000Z</time>
      </trkpt>
      <trkpt lat="35.66757593343707" lon="139.76970364638427">
        <ele>5.227324389852583</ele>
        <time>2025-08-14T14:13:56.002000Z</time>
      </trkpt>
      <trkpt lat="35.6674944196189" lon="139.76964675994924">
        <ele>5.855973932892084</ele>
        <time>2025-08-14T14:14:00.002000Z</time>
      </trkpt>
      <trkpt lat="35.66721908775035" lon="139.76963647668384">
        <ele>5.762057512067258</ele>
        <time>2025-08-14T14:14:43Z</time>
      </trkpt>
      <trkpt lat="35.667131027056236" lon="139.76973806549051">
        <ele>6.341644163243473</ele>
        <time>2025-08-14T14:14:48Z</time>
      </trkpt>
      <trkpt lat="35.66703558027219" lon="139.76981701388712">
        <ele>5.650306380353868</ele>
        <time>2025-08-14T14:14:53Z</time>
      </trkpt>
      <trkpt lat="35.6669716689149" lon="139.76991449306558">
        <ele>6.1777145164087415</ele>
        <time>2025-08-14T14:14:58Z</time>
      </trkpt>
      <trkpt lat="35.66691097819049" lon="139.77001626820262">
        <ele>5.447079340927303</ele>
        <time>2025-08-14T14:15:03Z</time>
      </trkpt>
      <trkpt lat="35.6668388648103" lon="139.77010666805347">
        <ele>5.546956270933151</ele>
        <time>2025-08-14T14:15:09.001000Z</time>
      </trkpt>
      <trkpt lat="35.666753834161746" lon="139.77016104759673">
        <ele>6.4150257762521505</ele>
        <time>2025-08-14T14:15:13.001000Z</time>
      </trkpt>
      <trkpt lat="35.66663578645401" lon="139.77022810688354">
        <ele>7.506686787120998</ele>
        <time>2025-08-14T14:15:17.001000Z</time>
      </trkpt>
      <trkpt lat="35.666394613557145" lon="139.77042952385466">
        <ele>5.9121119463816285</ele>
        <time>2025-08-14T14:16:52Z</time>
      </trkpt>
      <trkpt lat="35.66632585186963" lon="139.77053145851815">
        <ele>5.542618461884558</ele>
        <time>2025-08-14T14:16:56Z</time>
      </trkpt>
      <trkpt lat="35.66626500326824" lon="139.770619427073">
        <ele>5.8919457802549005</ele>
        <time>2025-08-14T14:17:00Z</time>
      </trkpt>
      <trkpt lat="35.66619395241364" lon="139.77072346774628">
        <ele>5.74410836212337</ele>
        <time>2025-08-14T14:17:03Z</time>
      </trkpt>
      <trkpt lat="35.66611707243464" lon="139.7708340224897">
        <ele>5.099102123640478</ele>
        <time>2025-08-14T14:17:07.001000Z</time>
      </trkpt>
      <trkpt lat="35.66605120505897" lon="139.77091780755256">
        <ele>6.302927280776203</ele>
        <time>2025-08-14T14:17:10.001000Z</time>
      </trkpt>
      <trkpt lat="35.66596978583709" lon="139.7709818763193">
        <ele>6.245330924168229</ele>
        <time>2025-08-14T14:17:15.001000Z</time>
      </trkpt>
      <trkpt lat="35.66589920276708" lon="139.77106006396755">
        <ele>6.392020619474351</ele>
        <time>2025-08-14T14:17:18.001000Z</time>
      </trkpt>
      <trkpt lat="35.66581775941363" lon="139.77111254413086">
        <ele>5.541715200059116</ele>
        <time>2025-08-14T14:17:23.001000Z</time>
      </trkpt>
      <trkpt lat="35.665735060535255" lon="139.77117041556107">
        <ele>6.0078695537522435</ele>
        <time>2025-08-14T14:17:27.001000Z</time>
      </trkpt>
      <trkpt lat="35.66565810530432" lon="139.77123930860827">
        <ele>6.522593256086111</ele>
        <time>2025-08-14T14:17:30.001000Z</time>
      </trkpt>
      <trkpt lat="35.66556802664308" lon="139.7713338962249">
        <ele>6.3026277795434</ele>
        <time>2025-08-14T14:17:33.001000Z</time>
      </trkpt>
      <trkpt lat="35.665500144411084" lon="139.77142134222254">
        <ele>6.628913844004273</ele>
        <time>2025-08-14T14:17:36.001000Z</time>
      </trkpt>
      <trkpt lat="35.665397590902224" lon="139.77150389074654">
        <ele>7.316722858697176</ele>
        <time>2025-08-14T14:17:40.001000Z</time>
      </trkpt>
      <trkpt lat="35.66531482404553" lon="139.77159589867048">
        <ele>6.460990814492106</ele>
        <time>2025-08-14T14:17:44.002000Z</time>
      </trkpt>
      <trkpt lat="35.66523472604589" lon="139.771660610566">
        <ele>6.053383936174214</ele>
        <time>2025-08-14T14:17:47.002000Z</time>
      </trkpt>
      <trkpt lat="35.6651679244033" lon="139.7717370768967">
        <ele>7.294924437068403</ele>
        <time>2025-08-14T14:17:50.002000Z</time>
      </trkpt>
      <trkpt lat="35.66510377984838" lon="139.77181785158885">
        <ele>5.7529501635581255</ele>
        <time>2025-08-14T14:17:53.002000Z</time>
      </trkpt>
      <trkpt lat="35.66501945910578" lon="139.7718917657861">
        <ele>7.467660376802087</ele>
        <time>2025-08-14T14:17:56.002000Z</time>
      </trkpt>
      <trkpt lat="35.66492690210992" lon="139.77197817229833">
        <ele>9.201047234237194</ele>
        <time>2025-08-14T14:17:59.002000Z</time>
      </trkpt>
      <trkpt lat="35.66485524484695" lon="139.77207582778124">
        <ele>7.5252494271844625</ele>
        <time>2025-08-14T14:18:03.002000Z</time>
      </trkpt>
      <trkpt lat="35.66477211069397" lon="139.77213784531298">
        <ele>6.2509995717555285</ele>
        <time>2025-08-14T14:18:07.002000Z</time>
      </trkpt>
      <trkpt lat="35.66469852948624" lon="139.77223038401368">
        <ele>5.8552491487935185</ele>
        <time>2025-08-14T14:18:11.002000Z</time>
      </trkpt>
      <trkpt lat="35.66462520628628" lon="139.77231433039822">
        <ele>6.384332868270576</ele>
        <time>2025-08-14T14:18:15.002000Z</time>
      </trkpt>
      <trkpt lat="35.66441875619436" lon="139.7725536620862">
        <ele>6.777627476491034</ele>
        <time>2025-08-14T14:19:35.001000Z</time>
      </trkpt>
      <trkpt lat="35.66433897017499" lon="139.772644628498">
        <ele>7.751064565964043</ele>
        <time>2025-08-14T14:19:39.001000Z</time>
      </trkpt>
      <trkpt lat="35.6642640676445" lon="139.77270880546638">
        <ele>7.632225943729281</ele>
        <time>2025-08-14T14:19:43.001000Z</time>
      </trkpt>
      <trkpt lat="35.6641943792046" lon="139.7727874240347">
        <ele>7.028325269930065</ele>
        <time>2025-08-14T14:19:47.002000Z</time>
      </trkpt>
      <trkpt lat="35.66411236734287" lon="139.77286644540914">
        <ele>6.678374757990241</ele>
        <time>2025-08-14T14:19:52.002000Z</time>
      </trkpt>
      <trkpt lat="35.664033472516664" lon="139.77295434522222">
        <ele>6.388088255189359</ele>
        <time>2025-08-14T14:19:56.002000Z</time>
      </trkpt>
      <trkpt lat="35.663974824088974" lon="139.7730428366824">
        <ele>6.533844321966171</ele>
        <time>2025-08-14T14:20:00.002000Z</time>
      </trkpt>
      <trkpt lat="35.663894098205375" lon="139.77311109968505">
        <ele>6.213179473765194</ele>
        <time>2025-08-14T14:20:04.002000Z</time>
      </trkpt>
      <trkpt lat="35.66382813839071" lon="139.77319998231937">
        <ele>5.792625783011317</ele>
        <time>2025-08-14T14:20:08.002000Z</time>
      </trkpt>
      <trkpt lat="35.66375187045986" lon="139.7732765797966">
        <ele>5.923270027153194</ele>
        <time>2025-08-14T14:20:12.002000Z</time>
      </trkpt>
      <trkpt lat="35.66367706068091" lon="139.77335860847884">
        <ele>6.235206509009004</ele>
        <time>2025-08-14T14:20:16.002000Z</time>
      </trkpt>
      <trkpt lat="35.66360096127716" lon="139.7734335611973">
        <ele>6.633563295006752</ele>
        <time>2025-08-14T14:20:20.002000Z</time>
      </trkpt>
      <trkpt lat="35.66352933109592" lon="139.7735026693112">
        <ele>6.174514591693878</ele>
        <time>2025-08-14T14:20:24.002000Z</time>
      </trkpt>
      <trkpt lat="35.663461675675826" lon="139.77360082020107">
        <ele>7.106947761960328</ele>
        <time>2025-08-14T14:20:28.003000Z</time>
      </trkpt>
      <trkpt lat="35.66339495074351" lon="139.77369133717244">
        <ele>6.560968544334173</ele>
        <time>2025-08-14T14:20:32.003000Z</time>
      </trkpt>
      <trkpt lat="35.663340854817626" lon="139.77378014295482">
        <ele>7.227155317552388</ele>
        <time>2025-08-14T14:20:36.003000Z</time>
      </trkpt>
      <trkpt lat="35.66325133567009" lon="139.77384903693448">
        <ele>7.052186323329806</ele>
        <time>2025-08-14T14:20:39.999000Z</time>
      </trkpt>
      <trkpt lat="35.66316590027318" lon="139.77390687349487">
        <ele>7.059635458514094</ele>
        <time>2025-08-14T14:20:43.999000Z</time>
      </trkpt>
      <trkpt lat="35.66309224610393" lon="139.77399659425004">
        <ele>6.980662274174392</ele>
        <time>2025-08-14T14:20:47.999000Z</time>
      </trkpt>
      <trkpt lat="35.6630178483045" lon="139.77406919203187">
        <ele>7.775488840416074</ele>
        <time>2025-08-14T14:20:52Z</time>
      </trkpt>
      <trkpt lat="35.66293065695987" lon="139.77412960553042">
        <ele>7.394420422613621</ele>
        <time>2025-08-14T14:20:56Z</time>
      </trkpt>
      <trkpt lat="35.662865686203034" lon="139.7742239911945">
        <ele>6.652096129022539</ele>
        <time>2025-08-14T14:21:00Z</time>
      </trkpt>
      <trkpt lat="35.66278787408984" lon="139.77428013723173">
        <ele>8.242556732147932</ele>
        <time>2025-08-14T14:21:03Z</time>
      </trkpt>
      <trkpt lat="35.66269643904155" lon="139.7743259539407">
        <ele>9.18308113887906</ele>
        <time>2025-08-14T14:21:06Z</time>
      </trkpt>
      <trkpt lat="35.66262495033891" lon="139.77439978250163">
        <ele>8.42259214259684</ele>
        <time>2025-08-14T14:21:09Z</time>
      </trkpt>
      <trkpt lat="35.66253887769732" lon="139.77449276045826">
        <ele>7.4732603915035725</ele>
        <time>2025-08-14T14:21:13Z</time>
      </trkpt>
      <trkpt lat="35.66246785283085" lon="139.77458082931815">
        <ele>8.360813446342945</ele>
        <time>2025-08-14T14:21:17Z</time>
      </trkpt>
      <trkpt lat="35.66238398974858" lon="139.77464557028028">
        <ele>7.346264023333788</ele>
        <time>2025-08-14T14:21:21.001000Z</time>
      </trkpt>
      <trkpt lat="35.66228243630699" lon="139.77472550787263">
        <ele>7.677368510514498</ele>
        <time>2025-08-14T14:21:25.001000Z</time>
      </trkpt>
      <trkpt lat="35.662202700962034" lon="139.77477700700166">
        <ele>9.648783848620951</ele>
        <time>2025-08-14T14:21:28.001000Z</time>
      </trkpt>
      <trkpt lat="35.66211096637473" lon="139.7748747811767">
        <ele>11.657291170209646</ele>
        <time>2025-08-14T14:21:32.001000Z</time>
      </trkpt>
      <trkpt lat="35.662031815505024" lon="139.77495497894367">
        <ele>10.529548364691436</ele>
        <time>2025-08-14T14:21:36.001000Z</time>
      </trkpt>
      <trkpt lat="35.66195274720575" lon="139.77501647073785">
        <ele>10.140961890108883</ele>
        <time>2025-08-14T14:21:39.001000Z</time>
      </trkpt>
      <trkpt lat="35.66186416503126" lon="139.7751073881415">
        <ele>8.290230733342469</ele>
        <time>2025-08-14T14:21:43.001000Z</time>
      </trkpt>
      <trkpt lat="35.66179370690044" lon="139.77519775864891">
        <ele>7.467478188686073</ele>
        <time>2025-08-14T14:21:46.001000Z</time>
      </trkpt>
      <trkpt lat="35.661691208331895" lon="139.77526680341262">
        <ele>6.15079842787236</ele>
        <time>2025-08-14T14:21:50.001000Z</time>
      </trkpt>
      <trkpt lat="35.661601633350806" lon="139.77532556544432">
        <ele>7.469846178777516</ele>
        <time>2025-08-14T14:21:53.001000Z</time>
      </trkpt>
      <trkpt lat="35.661541895332945" lon="139.77541346653834">
        <ele>8.040016928687692</ele>
        <time>2025-08-14T14:21:56.002000Z</time>
      </trkpt>
      <trkpt lat="35.66144662356599" lon="139.77546766325605">
        <ele>6.276080374605954</ele>
        <time>2025-08-14T14:21:59.002000Z</time>
      </trkpt>
      <trkpt lat="35.66138167044884" lon="139.77556367691452">
        <ele>6.360043399967253</ele>
        <time>2025-08-14T14:22:02.002000Z</time>
      </trkpt>
      <trkpt lat="35.66126420219579" lon="139.7756208975316">
        <ele>5.306660910136998</ele>
        <time>2025-08-14T14:22:06.002000Z</time>
      </trkpt>
      <trkpt lat="35.661174438524235" lon="139.77570567470858">
        <ele>5.9093453558161855</ele>
        <time>2025-08-14T14:22:09.002000Z</time>
      </trkpt>
      <trkpt lat="35.66107863786853" lon="139.77578581904865">
        <ele>6.625621850602329</ele>
        <time>2025-08-14T14:22:13.002000Z</time>
      </trkpt>
      <trkpt lat="35.660975223055104" lon="139.7758486250427">
        <ele>6.039377431385219</ele>
        <time>2025-08-14T14:22:16.002000Z</time>
      </trkpt>
      <trkpt lat="35.66087436736352" lon="139.77585968471638">
        <ele>5.3965649008750916</ele>
        <time>2025-08-14T14:22:20.002000Z</time>
      </trkpt>
      <trkpt lat="35.66080540091873" lon="139.77594026491744">
        <ele>4.376749026589096</ele>
        <time>2025-08-14T14:22:23.002000Z</time>
      </trkpt>
      <trkpt lat="35.660716008834655" lon="139.7759883339199">
        <ele>4.954212334938347</ele>
        <time>2025-08-14T14:22:26.002000Z</time>
      </trkpt>
      <trkpt lat="35.66061737431398" lon="139.77605607643278">
        <ele>4.1524329893291</ele>
        <time>2025-08-14T14:22:30.002000Z</time>
      </trkpt>
      <trkpt lat="35.6605213739602" lon="139.77608920222093">
        <ele>4.076761096715927</ele>
        <time>2025-08-14T14:22:34.003000Z</time>
      </trkpt>
      <trkpt lat="35.66042309076476" lon="139.77603980440045">
        <ele>5.751497454941273</ele>
        <time>2025-08-14T14:22:37.003000Z</time>
      </trkpt>
      <trkpt lat="35.66036148529745" lon="139.7759420378664">
        <ele>5.7898824932053685</ele>
        <time>2025-08-14T14:22:41.003000Z</time>
      </trkpt>
      <trkpt lat="35.660320464587016" lon="139.77581405404155">
        <ele>5.371482110582292</ele>
        <time>2025-08-14T14:22:45.001000Z</time>
      </trkpt>
      <trkpt lat="35.660242413507554" lon="139.77570607563007">
        <ele>6.924153473228216</ele>
        <time>2025-08-14T14:22:49.001000Z</time>
      </trkpt>
      <trkpt lat="35.66020602742486" lon="139.77560479879355">
        <ele>5.590670673176646</ele>
        <time>2025-08-14T14:22:52.001000Z</time>
      </trkpt>
      <trkpt lat="35.660167868468086" lon="139.77549679389787">
        <ele>6.302643866278231</ele>
        <time>2025-08-14T14:22:55.001000Z</time>
      </trkpt>
      <trkpt lat="35.66008692600318" lon="139.77539819114023">
        <ele>5.658497435040772</ele>
        <time>2025-08-14T14:22:59.001000Z</time>
      </trkpt>
      <trkpt lat="35.66000155046726" lon="139.7753067718025">
        <ele>5.339799358509481</ele>
        <time>2025-08-14T14:23:03.001000Z</time>
      </trkpt>
      <trkpt lat="35.659931503033285" lon="139.7751831121484">
        <ele>4.43296148814261</ele>
        <time>2025-08-14T14:23:06.001000Z</time>
      </trkpt>
      <trkpt lat="35.65984612057402" lon="139.77513871385378">
        <ele>5.260044380091131</ele>
        <time>2025-08-14T14:23:10.001000Z</time>
      </trkpt>
      <trkpt lat="35.65978821026086" lon="139.77504532975092">
        <ele>5.855428203009069</ele>
        <time>2025-08-14T14:23:14.001000Z</time>
      </trkpt>
      <trkpt lat="35.659712883635905" lon="139.77497738204556">
        <ele>5.814735290594399</ele>
        <time>2025-08-14T14:23:19.001000Z</time>
      </trkpt>
      <trkpt lat="35.659669740291015" lon="139.7748562423841">
        <ele>5.380864639766514</ele>
        <time>2025-08-14T14:23:24.001000Z</time>
      </trkpt>
      <trkpt lat="35.659586504070916" lon="139.77477597339288">
        <ele>4.785900152288377</ele>
        <time>2025-08-14T14:23:28.001000Z</time>
      </trkpt>
      <trkpt lat="35.6595237458783" lon="139.77467953861813">
        <ele>5.032724763266742</ele>
        <time>2025-08-14T14:23:31.001000Z</time>
      </trkpt>
      <trkpt lat="35.6594814653328" lon="139.7745747495074">
        <ele>5.560235532000661</ele>
        <time>2025-08-14T14:23:34.001000Z</time>
      </trkpt>
      <trkpt lat="35.65943982703049" lon="139.77447321823868">
        <ele>5.4194230027496815</ele>
        <time>2025-08-14T14:23:37.001000Z</time>
      </trkpt>
      <trkpt lat="35.65939512474773" lon="139.77437596071636">
        <ele>4.673018385656178</ele>
        <time>2025-08-14T14:23:40.001000Z</time>
      </trkpt>
      <trkpt lat="35.659301004160874" lon="139.77427118324044">
        <ele>4.85407077241689</ele>
        <time>2025-08-14T14:23:44.002000Z</time>
      </trkpt>
      <trkpt lat="35.659195524427986" lon="139.77423558542316">
        <ele>5.307689988054335</ele>
        <time>2025-08-14T14:23:48.002000Z</time>
      </trkpt>
      <trkpt lat="35.65914356521889" lon="139.7741422092914">
        <ele>5.710949193686247</ele>
        <time>2025-08-14T14:23:51.002000Z</time>
      </trkpt>
      <trkpt lat="35.659088157283534" lon="139.7740434568787">
        <ele>5.328502849675715</ele>
        <time>2025-08-14T14:23:56.002000Z</time>
      </trkpt>
      <trkpt lat="35.659020709520256" lon="139.7739508564064">
        <ele>4.815136295743287</ele>
        <time>2025-08-14T14:24:01.002000Z</time>
      </trkpt>
      <trkpt lat="35.65894281461859" lon="139.77386475420786">
        <ele>4.965190660208464</ele>
        <time>2025-08-14T14:24:06.002000Z</time>
      </trkpt>
      <trkpt lat="35.658896491558146" lon="139.77376950240455">
        <ele>4.655024171806872</ele>
        <time>2025-08-14T14:24:10.002000Z</time>
      </trkpt>
      <trkpt lat="35.6588162155146" lon="139.77370513458135">
        <ele>4.320666845887899</ele>
        <time>2025-08-14T14:24:14.002000Z</time>
      </trkpt>
      <trkpt lat="35.65874979711419" lon="139.77360797985185">
        <ele>4.054765132255852</ele>
        <time>2025-08-14T14:24:19.002000Z</time>
      </trkpt>
      <trkpt lat="35.65870042811851" lon="139.7734926880053">
        <ele>5.069952553138137</ele>
        <time>2025-08-14T14:24:24.003000Z</time>
      </trkpt>
      <trkpt lat="35.65864652691279" lon="139.77338483397446">
        <ele>3.557962831109762</ele>
        <time>2025-08-14T14:24:28.003000Z</time>
      </trkpt>
      <trkpt lat="35.65857477618994" lon="139.7732865075897">
        <ele>4.199588108807802</ele>
        <time>2025-08-14T14:24:31.003000Z</time>
      </trkpt>
      <trkpt lat="35.658484612232456" lon="139.77336190689692">
        <ele>5.068788186646998</ele>
        <time>2025-08-14T14:24:36.003000Z</time>
      </trkpt>
      <trkpt lat="35.65838279835923" lon="139.77336579092577">
        <ele>5.08816999103874</ele>
        <time>2025-08-14T14:24:39.003000Z</time>
      </trkpt>
      <trkpt lat="35.658286420089496" lon="139.77340345484717">
        <ele>5.534199903719127</ele>
        <time>2025-08-14T14:24:43.003000Z</time>
      </trkpt>
      <trkpt lat="35.65819784684613" lon="139.7735030462553">
        <ele>4.821580118499696</ele>
        <time>2025-08-14T14:24:47.003000Z</time>
      </trkpt>
      <trkpt lat="35.65811396251547" lon="139.77355105511444">
        <ele>4.917883708141744</ele>
        <time>2025-08-14T14:24:51.001000Z</time>
      </trkpt>
      <trkpt lat="35.65804815254823" lon="139.77364661889405">
        <ele>4.866326756775379</ele>
        <time>2025-08-14T14:24:55.001000Z</time>
      </trkpt>
      <trkpt lat="35.657962897508796" lon="139.7737500185946">
        <ele>3.3012993847951293</ele>
        <time>2025-08-14T14:24:59.001000Z</time>
      </trkpt>
      <trkpt lat="35.65791307449395" lon="139.77385590889838">
        <ele>6.653595455922186</ele>
        <time>2025-08-14T14:25:02.001000Z</time>
      </trkpt>
      <trkpt lat="35.65782023566709" lon="139.77385655730916">
        <ele>4.170389163307846</ele>
        <time>2025-08-14T14:25:05.001000Z</time>
      </trkpt>
      <trkpt lat="35.65775530313627" lon="139.77394877103308">
        <ele>3.7056731088086963</ele>
        <time>2025-08-14T14:25:11.001000Z</time>
      </trkpt>
      <trkpt lat="35.65763600915725" lon="139.77392931008166">
        <ele>3.11063760984689</ele>
        <time>2025-08-14T14:25:16.001000Z</time>
      </trkpt>
      <trkpt lat="35.65758642868283" lon="139.77402322157283">
        <ele>5.231229327619076</ele>
        <time>2025-08-14T14:25:18.001000Z</time>
      </trkpt>
      <trkpt lat="35.6575170168676" lon="139.77415871342578">
        <ele>4.30145897064358</ele>
        <time>2025-08-14T14:25:22.001000Z</time>
      </trkpt>
      <trkpt lat="35.65748714670474" lon="139.77426421549728">
        <ele>3.8238986684009433</ele>
        <time>2025-08-14T14:25:24.001000Z</time>
      </trkpt>
      <trkpt lat="35.657421691756944" lon="139.77436086176618">
        <ele>5.381631498225033</ele>
        <time>2025-08-14T14:25:27.001000Z</time>
      </trkpt>
      <trkpt lat="35.65733001336073" lon="139.77440605266722">
        <ele>5.521660084836185</ele>
        <time>2025-08-14T14:25:30.001000Z</time>
      </trkpt>
      <trkpt lat="35.65723283954817" lon="139.77442069672185">
        <ele>7.140456937253475</ele>
        <time>2025-08-14T14:25:34.001000Z</time>
      </trkpt>
      <trkpt lat="35.6571851410425" lon="139.7743254473951">
        <ele>6.732417015358806</ele>
        <time>2025-08-14T14:25:37.001000Z</time>
      </trkpt>
      <trkpt lat="35.657141598296896" lon="139.77421179993166">
        <ele>6.383479080162942</ele>
        <time>2025-08-14T14:25:42.001000Z</time>
      </trkpt>
      <trkpt lat="35.65706901389881" lon="139.77413743796558">
        <ele>6.454029222950339</ele>
        <time>2025-08-14T14:25:45.001000Z</time>
      </trkpt>
      <trkpt lat="35.65701581179372" lon="139.7740273348027">
        <ele>6.810802373103797</ele>
        <time>2025-08-14T14:25:49.001000Z</time>
      </trkpt>
      <trkpt lat="35.656936117137455" lon="139.77391104100266">
        <ele>6.389187882654369</ele>
        <time>2025-08-14T14:25:52.001000Z</time>
      </trkpt>
      <trkpt lat="35.65685819947272" lon="139.7737980728561">
        <ele>6.269765540026128</ele>
        <time>2025-08-14T14:25:56.002000Z</time>
      </trkpt>
      <trkpt lat="35.656792752041326" lon="139.77371968186662">
        <ele>5.950772135518491</ele>
        <time>2025-08-14T14:25:59.002000Z</time>
      </trkpt>
      <trkpt lat="35.65670457884385" lon="139.77363173791832">
        <ele>4.9573496440425515</ele>
        <time>2025-08-14T14:26:03.002000Z</time>
      </trkpt>
      <trkpt lat="35.65663656640576" lon="139.77351965568604">
        <ele>7.153291524387896</ele>
        <time>2025-08-14T14:26:09.002000Z</time>
      </trkpt>
      <trkpt lat="35.65655329415224" lon="139.77342807382277">
        <ele>7.570510637015104</ele>
        <time>2025-08-14T14:26:13.002000Z</time>
      </trkpt>
      <trkpt lat="35.65651121063889" lon="139.77332236971193">
        <ele>4.905190931633115</ele>
        <time>2025-08-14T14:26:16.002000Z</time>
      </trkpt>
      <trkpt lat="35.656414761551034" lon="139.77327164227367">
        <ele>6.687805971130729</ele>
        <time>2025-08-14T14:26:19.002000Z</time>
      </trkpt>
      <trkpt lat="35.65635424180062" lon="139.77313147538337">
        <ele>7.332940245047212</ele>
        <time>2025-08-14T14:26:23.002000Z</time>
      </trkpt>
      <trkpt lat="35.656279123679354" lon="139.77301162531072">
        <ele>6.246864293701947</ele>
        <time>2025-08-14T14:26:27.002000Z</time>
      </trkpt>
      <trkpt lat="35.656199259721525" lon="139.77291327847126">
        <ele>10.280874552205205</ele>
        <time>2025-08-14T14:26:31.002000Z</time>
      </trkpt>
      <trkpt lat="35.65613501615712" lon="139.7728282910646">
        <time>2025-08-14T14:26:34.002000Z</time>
      </trkpt>
    </trkseg>
  </trk>
</gpx>